{"type":"FeatureCollection","features":[{"type":"Feature","properties":{"id":"sf-sanmateo","name":"San Francisco / San Mateo county line"},"geometry":{"type":"LineString","coordinates":[[-122.503652,37.711815],[-122.503585,37.711391],[-122.503526,37.71128],[-122.503435,37.711025],[-122.503502,37.710901],[-122.503333,37.710322],[-122.50327,37.710044],[-122.503232,37.709642],[-122.503022,37.709109],[-122.502922,37.708519],[-122.502847,37.70834],[-122.5028245,37.7080941],[-122.470996,37.7082088],[-122.4690078,37.7082023],[-122.4653308,37.708228],[-122.4653305,37.7082113],[-122.4648116,37.7082126],[-122.4648119,37.7082721],[-122.4644957,37.7082724],[-122.4644985,37.7082091],[-122.4641237,37.7082049],[-122.463737,37.7079422],[-122.4633984,37.7082565],[-122.4631358,37.708078],[-122.462911,37.7082866],[-122.4623015,37.7078721],[-122.4619399,37.7082102],[-122.4616789,37.7080301],[-122.461455,37.7082394],[-122.4610647,37.70797],[-122.4607098,37.7082991],[-122.4603835,37.708074],[-122.4601597,37.7082832],[-122.4598432,37.7080648],[-122.4595861,37.7083049],[-122.4592131,37.7080652],[-122.458878,37.708366],[-122.4582655,37.7079572],[-122.4579406,37.7082615],[-122.4577436,37.7081276],[-122.4574806,37.7083739],[-122.4574413,37.7083153],[-122.457059,37.7080467],[-122.4566894,37.7083858],[-122.4562411,37.7080807],[-122.4559404,37.7083624],[-122.455588,37.7081227],[-122.4553525,37.7083422],[-122.4549167,37.7080397],[-122.4536083,37.7084849],[-122.4534302,37.7081535],[-122.4528996,37.7083342],[-122.4528229,37.7081915],[-122.4525052,37.7082997],[-122.452415,37.7081319],[-122.4516584,37.7083886],[-122.4515367,37.7081618],[-122.4511793,37.7082835],[-122.450955,37.7078656],[-122.4497063,37.7082864],[-122.4495619,37.7080174],[-122.4489824,37.7082155],[-122.448899,37.7080602],[-122.4488196,37.7080873],[-122.4488467,37.7081378],[-122.4486562,37.708203],[-122.4486698,37.7082282],[-122.4485745,37.7082608],[-122.4486087,37.7083245],[-122.4485198,37.7083549],[-122.4485374,37.7083877],[-122.4481596,37.7085169],[-122.4481505,37.7085],[-122.4481006,37.7085171],[-122.4480278,37.7083821],[-122.4478753,37.7084343],[-122.4478391,37.7083671],[-122.4477914,37.7083833],[-122.447696,37.7082485],[-122.4473976,37.7083506],[-122.4473526,37.7082658],[-122.4474005,37.7082495],[-122.4473319,37.7081231],[-122.4472948,37.7081242],[-122.4472638,37.7081015],[-122.4470725,37.7081667],[-122.4471021,37.7082214],[-122.446536,37.7084149],[-122.4463096,37.7079951],[-122.4454611,37.7082831],[-122.4453162,37.7080142],[-122.4450683,37.7080984],[-122.4451404,37.7082322],[-122.4447265,37.7083727],[-122.444555,37.7080508],[-122.4438928,37.7082756],[-122.4438489,37.7081943],[-122.4435914,37.7082817],[-122.4435533,37.708211],[-122.443245,37.7083156],[-122.4431395,37.7081198],[-122.4430441,37.7081522],[-122.4430929,37.7082501],[-122.4430488,37.7082972],[-122.4430211,37.7083609],[-122.4428915,37.708125],[-122.4428192,37.7081496],[-122.442811,37.7081344],[-122.4425752,37.7082145],[-122.4426093,37.7082776],[-122.4422787,37.7083898],[-122.4421197,37.7080957],[-122.4419292,37.7081606],[-122.4419587,37.7082153],[-122.4417616,37.7082801],[-122.441578,37.7082804],[-122.4415141,37.7081608],[-122.4412515,37.7082443],[-122.4410027,37.708268],[-122.4407537,37.7082331],[-122.440497,37.7081337],[-122.4402648,37.708471],[-122.4400576,37.7083809],[-122.4398522,37.7083949],[-122.4390967,37.7080666],[-122.4389732,37.7082848],[-122.4388067,37.708226],[-122.4387496,37.7082316],[-122.4386703,37.7083532],[-122.438337,37.708216],[-122.4381791,37.7084653],[-122.4367799,37.7079188],[-122.4367708,37.7079442],[-122.4363533,37.7083507],[-122.4361299,37.7081664],[-122.4357325,37.7084378],[-122.4356155,37.7083243],[-122.4353654,37.7081648],[-122.4350446,37.7083629],[-122.434978,37.708292],[-122.4347726,37.707988],[-122.4342545,37.7081073],[-122.4340238,37.7080639],[-122.4338271,37.7079894],[-122.433743,37.7081056],[-122.4337859,37.7081541],[-122.4337652,37.7082111],[-122.4334252,37.7083305],[-122.4331551,37.7081579],[-122.4327975,37.7081794],[-122.4327027,37.7083515],[-122.4322002,37.7081537],[-122.432089,37.7084171],[-122.4318485,37.7083558],[-122.431749,37.7084632],[-122.4315029,37.7081699],[-122.431382,37.7082251],[-122.430387,37.708346],[-122.430179,37.70842],[-122.430013,37.708529],[-122.4298418,37.7085303],[-122.4299243,37.7083424],[-122.429267,37.7083835],[-122.4289161,37.7083655],[-122.4284588,37.708193],[-122.4283497,37.7083599],[-122.4279545,37.7081913],[-122.4278794,37.7083023],[-122.4254214,37.7083077],[-122.4253597,37.7086125],[-122.4238494,37.7081814],[-122.423353,37.709251],[-122.4192504,37.7080876],[-122.4190686,37.7084824],[-122.4180992,37.7082132],[-122.4180414,37.7083428],[-122.4177143,37.7082508],[-122.4176566,37.7083802],[-122.4171352,37.7082335],[-122.4170774,37.708363],[-122.4167364,37.7082671],[-122.4167075,37.7083318],[-122.4161691,37.7081803],[-122.4160824,37.7083745],[-122.4157394,37.708278],[-122.4156817,37.7084075],[-122.4151432,37.7082559],[-122.4150854,37.7083854],[-122.4143537,37.7081796],[-122.4142137,37.7085033],[-122.4133681,37.7082653],[-122.4133398,37.7083288],[-122.4124808,37.7083285],[-122.4123731,37.7082984],[-122.4123014,37.7084604],[-122.4118308,37.7083284],[-122.4081117,37.7083273],[-122.4077537,37.708342],[-122.4077742,37.7083478],[-122.4077451,37.7084124],[-122.4074191,37.708321],[-122.4072336,37.7083417],[-122.4069619,37.7082656],[-122.4069272,37.7083428],[-122.406249,37.7083439],[-122.4061716,37.7085174],[-122.4051588,37.7082363],[-122.4050787,37.7084157],[-122.4047346,37.7083185],[-122.4047145,37.7083635],[-122.3932013,37.7084023],[-122.392112,37.709253],[-122.391716,37.709607],[-122.39151,37.709695],[-122.391479,37.709698],[-122.391263,37.709593],[-122.390671,37.70925],[-122.39062,37.709205],[-122.390463,37.709202],[-122.390413,37.709227],[-122.39026,37.709367],[-122.390033,37.70952],[-122.389819,37.709615],[-122.389718,37.70962],[-122.38967,37.709599],[-122.389476,37.709425],[-122.389224,37.709261],[-122.389081,37.709191],[-122.388719,37.708916],[-122.388555,37.708844],[-122.388399,37.708827],[-122.388318,37.708796],[-122.388195,37.708712],[-122.388108,37.708673],[-122.388063,37.708673],[-122.388032,37.708688],[-122.387972,37.708774],[-122.387896,37.708821],[-122.387768,37.709005],[-122.387639,37.709095],[-122.387577,37.70918],[-122.387427,37.709324],[-122.38729,37.709434],[-122.387087,37.709561],[-122.386837,37.709656],[-122.386819,37.709677],[-122.386829,37.70973],[-122.386816,37.709756],[-122.386739,37.709803],[-122.386413,37.709936],[-122.386272,37.709972],[-122.385984,37.709998],[-122.385909,37.709979],[-122.385657,37.709804],[-122.385072,37.7095],[-122.384515,37.709295],[-122.384233,37.709282],[-122.383684,37.70919],[-122.38339,37.70919],[-122.383159,37.709157],[-122.382866,37.70914],[-122.38247,37.709069],[-122.382201,37.709057],[-122.382032,37.708989],[-122.381926,37.708909],[-122.381782,37.708865],[-122.381585,37.708864],[-122.381506,37.708893],[-122.381404,37.708868],[-122.381248,37.708868],[-122.380975,37.708827],[-122.38045,37.708788],[-122.380172,37.708705],[-122.379993,37.708618],[-122.379763,37.708537],[-122.379787,37.708523],[-122.37973,37.708526],[-122.379591,37.708494],[-122.379479,37.708438],[-122.3794,37.70842],[-122.379201,37.70842],[-122.378876,37.708465],[-122.378749,37.708465],[-122.378449,37.70843],[-122.377289,37.708425],[-122.376821,37.708399],[-122.376492,37.708407],[-122.376063,37.708384],[-122.375632,37.708405],[-122.375306,37.708456],[-122.374733,37.708503],[-122.374563,37.708542],[-122.37443,37.70863],[-122.374375,37.70871],[-122.374374,37.708759],[-122.374446,37.708903],[-122.374546,37.709004],[-122.374706,37.7091],[-122.375047,37.709238],[-122.375181,37.709319],[-122.375347,37.709392],[-122.375581,37.709588],[-122.375783,37.709659],[-122.376022,37.709691],[-122.376182,37.709685],[-122.376352,37.709658],[-122.376394,37.709638],[-122.376403,37.709613],[-122.376388,37.709566],[-122.376497,37.70936],[-122.376619,37.709206],[-122.376656,37.709119],[-122.376702,37.709082],[-122.376719,37.709024],[-122.376867,37.708899],[-122.376975,37.708869],[-122.377123,37.708789],[-122.377508,37.708677],[-122.377741,37.70858],[-122.37787,37.708586],[-122.377942,37.708608],[-122.378073,37.708684],[-122.378262,37.708764],[-122.378358,37.708868],[-122.378424,37.709012],[-122.378454,37.709274],[-122.378517,37.709353],[-122.378583,37.709395],[-122.378622,37.709458],[-122.37868,37.709487],[-122.378811,37.709742],[-122.378886,37.709767],[-122.378924,37.709907],[-122.378976,37.709977],[-122.379216,37.710149],[-122.379347,37.710275],[-122.379424,37.710322],[-122.379587,37.710378],[-122.379756,37.710502],[-122.379861,37.710489],[-122.379984,37.710553],[-122.380059,37.710635],[-122.380096,37.710743],[-122.380119,37.710871],[-122.380111,37.711188],[-122.38008,37.711417],[-122.380017,37.711554],[-122.37992,37.711633],[-122.37978,37.711696],[-122.37972,37.711768]]}}]}