{"type":"FeatureCollection","features":[{"type":"Feature","id":"museums-317081601","properties":{"id":"museums-317081601","name":"California Society of Pioneers Museum and Library"},"geometry":{"type":"Point","coordinates":[-122.4596162,37.7999996]}},{"type":"Feature","id":"museums-368166365","properties":{"id":"museums-368166365","name":"Musée Mécanique"},"geometry":{"type":"Point","coordinates":[-122.415794,37.8092456]}},{"type":"Feature","id":"museums-368173972","properties":{"id":"museums-368173972","name":"Truhlsen-Marmor Museum of the Eye"},"geometry":{"type":"Point","coordinates":[-122.4202491,37.8065952]}},{"type":"Feature","id":"museums-368173975","properties":{"id":"museums-368173975","name":"Museum of Russian Culture"},"geometry":{"type":"Point","coordinates":[-122.44136,37.7852071]}},{"type":"Feature","id":"museums-368173977","properties":{"id":"museums-368173977","name":"San Francisco Historical Society Museum"},"geometry":{"type":"Point","coordinates":[-122.4036121,37.794275]}},{"type":"Feature","id":"museums-386591692","properties":{"id":"museums-386591692","name":"San Francisco Railway Museum"},"geometry":{"type":"Point","coordinates":[-122.3936744,37.7938022]}},{"type":"Feature","id":"museums-415567011","properties":{"id":"museums-415567011","name":"California Historical Society Museum & Bookstore"},"geometry":{"type":"Point","coordinates":[-122.4015219,37.7868729]}},{"type":"Feature","id":"museums-415567060","properties":{"id":"museums-415567060","name":"Museum of the African Diaspora"},"geometry":{"type":"Point","coordinates":[-122.4014732,37.7864689]}},{"type":"Feature","id":"museums-417275631","properties":{"id":"museums-417275631","name":"San Francisco Sea Scout Base"},"geometry":{"type":"Point","coordinates":[-122.42618,37.8074682]}},{"type":"Feature","id":"museums-621529017","properties":{"id":"museums-621529017","name":"Exploratorium"},"geometry":{"type":"Point","coordinates":[-122.3985255,37.8008982]}},{"type":"Feature","id":"museums-806240639","properties":{"id":"museums-806240639","name":"Chinese Historical Society of America"},"geometry":{"type":"Point","coordinates":[-122.4088198,37.7938567]}},{"type":"Feature","id":"museums-2321383070","properties":{"id":"museums-2321383070","name":"GLBT History Museum"},"geometry":{"type":"Point","coordinates":[-122.435607,37.7607664]}},{"type":"Feature","id":"museums-4022645781","properties":{"id":"museums-4022645781","name":"Museo Italo Americano"},"geometry":{"type":"Point","coordinates":[-122.4314174,37.8069681]}},{"type":"Feature","id":"museums-4057348983","properties":{"id":"museums-4057348983","name":"Museum of Craft and Design"},"geometry":{"type":"Point","coordinates":[-122.387959,37.7569273]}},{"type":"Feature","id":"museums-4359145394","properties":{"id":"museums-4359145394","name":"Counterculture Museum"},"geometry":{"type":"Point","coordinates":[-122.4467696,37.7699366]}},{"type":"Feature","id":"museums-5038430321","properties":{"id":"museums-5038430321","name":"Cartoon Art Museum"},"geometry":{"type":"Point","coordinates":[-122.4217874,37.8063768]}},{"type":"Feature","id":"museums-5128563699","properties":{"id":"museums-5128563699","name":"Southern Exposure"},"geometry":{"type":"Point","coordinates":[-122.4114628,37.759331]}},{"type":"Feature","id":"museums-5134506932","properties":{"id":"museums-5134506932","name":"International Art Museum of America"},"geometry":{"type":"Point","coordinates":[-122.4107385,37.7814568]}},{"type":"Feature","id":"museums-5134621034","properties":{"id":"museums-5134621034","name":"Tenderloin Museum"},"geometry":{"type":"Point","coordinates":[-122.4141209,37.783915]}},{"type":"Feature","id":"museums-5581588797","properties":{"id":"museums-5581588797","name":"The Beat Museum"},"geometry":{"type":"Point","coordinates":[-122.4061837,37.7980642]}},{"type":"Feature","id":"museums-6693646147","properties":{"id":"museums-6693646147","name":"Japantown Peace Gallery"},"geometry":{"type":"Point","coordinates":[-122.4294507,37.7857378]}},{"type":"Feature","id":"museums-6960980687","properties":{"id":"museums-6960980687","name":"WWII Pacific War Memorial Hall"},"geometry":{"type":"Point","coordinates":[-122.4063714,37.793272]}},{"type":"Feature","id":"museums-7045575485","properties":{"id":"museums-7045575485","name":"San Francisco Maritime Visitor Center"},"geometry":{"type":"Point","coordinates":[-122.420543,37.8075021]}},{"type":"Feature","id":"museums-8973091799","properties":{"id":"museums-8973091799","name":"Letterform Archive"},"geometry":{"type":"Point","coordinates":[-122.388244,37.7598247]}},{"type":"Feature","id":"museums-10991177405","properties":{"id":"museums-10991177405","name":"Museum of 3D Illusions"},"geometry":{"type":"Point","coordinates":[-122.4132113,37.8084086]}},{"type":"Feature","id":"museums-11590449585","properties":{"id":"museums-11590449585","name":"Misalignment Museum"},"geometry":{"type":"Point","coordinates":[-122.38891,37.7679085]}},{"type":"Feature","id":"museums-12964918428","properties":{"id":"museums-12964918428","name":"John Wickett Museum of Exotica"},"geometry":{"type":"Point","coordinates":[-122.4443124,37.7845909]}},{"type":"Feature","id":"museums-13109439483","properties":{"id":"museums-13109439483","name":"Antique Vibrator Museum"},"geometry":{"type":"Point","coordinates":[-122.4207653,37.7918896]}},{"type":"Feature","id":"museums-14085937952","properties":{"id":"museums-14085937952","name":"CCA Wattis Institute for Contemporary Arts"},"geometry":{"type":"Point","coordinates":[-122.3982327,37.7680486]}},{"type":"Feature","id":"museums-24563073","properties":{"id":"museums-24563073","name":"Yerba Buena Center for the Arts Gallery"},"geometry":{"type":"Point","coordinates":[-122.4021006,37.7855957]}},{"type":"Feature","id":"museums-24588037","properties":{"id":"museums-24588037","name":"Asian Art Museum of San Francisco"},"geometry":{"type":"Point","coordinates":[-122.4159975,37.7802455]}},{"type":"Feature","id":"museums-28695389","properties":{"id":"museums-28695389","name":"California Academy of Sciences"},"geometry":{"type":"Point","coordinates":[-122.4660916,37.7698269]}},{"type":"Feature","id":"museums-30029681","properties":{"id":"museums-30029681","name":"Cable Car Powerhouse and Barn"},"geometry":{"type":"Point","coordinates":[-122.4119197,37.7948846]}},{"type":"Feature","id":"museums-32839686","properties":{"id":"museums-32839686","name":"National Maritime Museum"},"geometry":{"type":"Point","coordinates":[-122.4238997,37.80641]}},{"type":"Feature","id":"museums-36950438","properties":{"id":"museums-36950438","name":"San Francisco Fire Department Pioneer Museum"},"geometry":{"type":"Point","coordinates":[-122.4467992,37.785769]}},{"type":"Feature","id":"museums-41692824","properties":{"id":"museums-41692824","name":"San Francisco Museum of Modern Art"},"geometry":{"type":"Point","coordinates":[-122.4006294,37.7859355]}},{"type":"Feature","id":"museums-173886707","properties":{"id":"museums-173886707","name":"American Bookbinders Museum"},"geometry":{"type":"Point","coordinates":[-122.4027103,37.7812921]}},{"type":"Feature","id":"museums-186071977","properties":{"id":"museums-186071977","name":"Pier 24"},"geometry":{"type":"Point","coordinates":[-122.3877314,37.7894816]}},{"type":"Feature","id":"museums-256993595","properties":{"id":"museums-256993595","name":"Haas-Lilienthal House"},"geometry":{"type":"Point","coordinates":[-122.4249633,37.7932788]}},{"type":"Feature","id":"museums-273575059","properties":{"id":"museums-273575059","name":"Gadar Memorial"},"geometry":{"type":"Point","coordinates":[-122.4496171,37.7836016]}},{"type":"Feature","id":"museums-288340246","properties":{"id":"museums-288340246","name":"Walt Disney Family Museum"},"geometry":{"type":"Point","coordinates":[-122.4587099,37.8013693]}},{"type":"Feature","id":"museums-288365549","properties":{"id":"museums-288365549","name":"Greater Farallones Marine Sanctuary Visitor Center"},"geometry":{"type":"Point","coordinates":[-122.4670591,37.805428]}},{"type":"Feature","id":"museums-288376862","properties":{"id":"museums-288376862","name":"Military Intelligence Service Historic Learning Center"},"geometry":{"type":"Point","coordinates":[-122.4627073,37.8028313]}},{"type":"Feature","id":"museums-288473102","properties":{"id":"museums-288473102","name":"Ripley's Believe it or Not"},"geometry":{"type":"Point","coordinates":[-122.4154203,37.8079817]}},{"type":"Feature","id":"museums-288511103","properties":{"id":"museums-288511103","name":"Institute of Contemporary Art San Francisco"},"geometry":{"type":"Point","coordinates":[-122.4030236,37.7925321]}},{"type":"Feature","id":"museums-288716388","properties":{"id":"museums-288716388","name":"Children's Creativity Museum"},"geometry":{"type":"Point","coordinates":[-122.4016798,37.7830728]}},{"type":"Feature","id":"museums-705309578","properties":{"id":"museums-705309578","name":"Randall Museum"},"geometry":{"type":"Point","coordinates":[-122.4381827,37.7643906]}},{"type":"Feature","id":"museums-1078027190","properties":{"id":"museums-1078027190","name":"Field Station"},"geometry":{"type":"Point","coordinates":[-122.4557607,37.8036624]}},{"type":"Feature","id":"museums-1652482","properties":{"id":"museums-1652482","name":"de Young Museum"},"geometry":{"type":"Point","coordinates":[-122.4687203,37.7714977]}},{"type":"Feature","id":"museums-21115818","properties":{"id":"museums-21115818","name":"Legion of Honor"},"geometry":{"type":"Point","coordinates":[-122.5007351,37.7845503]}}]}