{"type":"FeatureCollection","features":[{"type":"Feature","id":"parks-358767175","properties":{"id":"parks-358767175","name":"Harding Park"},"geometry":{"type":"Point","coordinates":[-122.4908797,37.722374]}},{"type":"Feature","id":"parks-358803668","properties":{"id":"parks-358803668","name":"Lake Merced Sports Center"},"geometry":{"type":"Point","coordinates":[-122.4994167,37.7254875]}},{"type":"Feature","id":"parks-358803681","properties":{"id":"parks-358803681","name":"Louis Sutter Playground"},"geometry":{"type":"Point","coordinates":[-122.4136718,37.7224769]}},{"type":"Feature","id":"parks-358803706","properties":{"id":"parks-358803706","name":"Milton Myer Recreation Center"},"geometry":{"type":"Point","coordinates":[-122.376915,37.7296529]}},{"type":"Feature","id":"parks-358857214","properties":{"id":"parks-358857214","name":"Ulrich Field"},"geometry":{"type":"Point","coordinates":[-122.4477778,37.7769444]}},{"type":"Feature","id":"parks-358857215","properties":{"id":"parks-358857215","name":"Benedetti Diamond"},"geometry":{"type":"Point","coordinates":[-122.4480556,37.7769444]}},{"type":"Feature","id":"parks-2713436108","properties":{"id":"parks-2713436108","name":"Fairy Circle"},"geometry":{"type":"Point","coordinates":[-122.4781764,37.7229871]}},{"type":"Feature","id":"parks-2721828529","properties":{"id":"parks-2721828529","name":"Secret Garden"},"geometry":{"type":"Point","coordinates":[-122.4780564,37.7232459]}},{"type":"Feature","id":"parks-3640213359","properties":{"id":"parks-3640213359","name":"Annie St Plaza"},"geometry":{"type":"Point","coordinates":[-122.4014153,37.7869717]}},{"type":"Feature","id":"parks-12440345641","properties":{"id":"parks-12440345641","name":"Maritime Plaza"},"geometry":{"type":"Point","coordinates":[-122.3996226,37.7955872]}},{"type":"Feature","id":"parks-7459901","properties":{"id":"parks-7459901","name":"Buena Vista Park"},"geometry":{"type":"Point","coordinates":[-122.4411038,37.7683395]}},{"type":"Feature","id":"parks-16750270","properties":{"id":"parks-16750270","name":"McCoppin Square"},"geometry":{"type":"Point","coordinates":[-122.4800818,37.7438082]}},{"type":"Feature","id":"parks-16751151","properties":{"id":"parks-16751151","name":"Panhandle"},"geometry":{"type":"Point","coordinates":[-122.44742,37.7723094]}},{"type":"Feature","id":"parks-16751737","properties":{"id":"parks-16751737","name":"Alta Plaza Park"},"geometry":{"type":"Point","coordinates":[-122.4376738,37.7911812]}},{"type":"Feature","id":"parks-16751838","properties":{"id":"parks-16751838","name":"Lafayette Park"},"geometry":{"type":"Point","coordinates":[-122.427632,37.7915545]}},{"type":"Feature","id":"parks-16752188","properties":{"id":"parks-16752188","name":"Bernal Heights Park"},"geometry":{"type":"Point","coordinates":[-122.4135074,37.7434241]}},{"type":"Feature","id":"parks-16752409","properties":{"id":"parks-16752409","name":"Holly Park"},"geometry":{"type":"Point","coordinates":[-122.4199461,37.7372127]}},{"type":"Feature","id":"parks-16761472","properties":{"id":"parks-16761472","name":"Marina Green"},"geometry":{"type":"Point","coordinates":[-122.439129,37.8065987]}},{"type":"Feature","id":"parks-18583270","properties":{"id":"parks-18583270","name":"Washington Square Park"},"geometry":{"type":"Point","coordinates":[-122.4101227,37.8008456]}},{"type":"Feature","id":"parks-23750468","properties":{"id":"parks-23750468","name":"South Beach Park"},"geometry":{"type":"Point","coordinates":[-122.3881787,37.7808532]}},{"type":"Feature","id":"parks-23750483","properties":{"id":"parks-23750483","name":"Jackson Park"},"geometry":{"type":"Point","coordinates":[-122.3996264,37.7643289]}},{"type":"Feature","id":"parks-23871270","properties":{"id":"parks-23871270","name":"Mission Dolores Park"},"geometry":{"type":"Point","coordinates":[-122.4271323,37.7597615]}},{"type":"Feature","id":"parks-23881517","properties":{"id":"parks-23881517","name":"Rolph Playground"},"geometry":{"type":"Point","coordinates":[-122.4062282,37.7498326]}},{"type":"Feature","id":"parks-23908184","properties":{"id":"parks-23908184","name":"Precita Park"},"geometry":{"type":"Point","coordinates":[-122.4120434,37.7470735]}},{"type":"Feature","id":"parks-23916482","properties":{"id":"parks-23916482","name":"Sydney G. Walton Square"},"geometry":{"type":"Point","coordinates":[-122.3990256,37.7975142]}},{"type":"Feature","id":"parks-24052083","properties":{"id":"parks-24052083","name":"South Park"},"geometry":{"type":"Point","coordinates":[-122.3939711,37.7815913]}},{"type":"Feature","id":"parks-24253472","properties":{"id":"parks-24253472","name":"Garfield Square"},"geometry":{"type":"Point","coordinates":[-122.4122541,37.7502172]}},{"type":"Feature","id":"parks-24445970","properties":{"id":"parks-24445970","name":"Potrero Del Sol Park"},"geometry":{"type":"Point","coordinates":[-122.4051304,37.750457]}},{"type":"Feature","id":"parks-24547823","properties":{"id":"parks-24547823","name":"Franklin Square"},"geometry":{"type":"Point","coordinates":[-122.4093689,37.7650248]}},{"type":"Feature","id":"parks-24547834","properties":{"id":"parks-24547834","name":"McKinley Square"},"geometry":{"type":"Point","coordinates":[-122.4047716,37.7589605]}},{"type":"Feature","id":"parks-24562831","properties":{"id":"parks-24562831","name":"Balboa Park"},"geometry":{"type":"Point","coordinates":[-122.4444046,37.724891]}},{"type":"Feature","id":"parks-24562854","properties":{"id":"parks-24562854","name":"Duboce Park"},"geometry":{"type":"Point","coordinates":[-122.4334013,37.7698484]}},{"type":"Feature","id":"parks-24562872","properties":{"id":"parks-24562872","name":"Moscone Recreation Center"},"geometry":{"type":"Point","coordinates":[-122.4331496,37.8021343]}},{"type":"Feature","id":"parks-25004325","properties":{"id":"parks-25004325","name":"Kid Power Park"},"geometry":{"type":"Point","coordinates":[-122.4202908,37.7641656]}},{"type":"Feature","id":"parks-25278818","properties":{"id":"parks-25278818","name":"Union Square"},"geometry":{"type":"Point","coordinates":[-122.4075174,37.7879341]}},{"type":"Feature","id":"parks-25751184","properties":{"id":"parks-25751184","name":"Levi's Plaza"},"geometry":{"type":"Point","coordinates":[-122.401338,37.8026552]}},{"type":"Feature","id":"parks-26278429","properties":{"id":"parks-26278429","name":"Tank Hill"},"geometry":{"type":"Point","coordinates":[-122.4475812,37.7598663]}},{"type":"Feature","id":"parks-27092661","properties":{"id":"parks-27092661","name":"Grattan Playground"},"geometry":{"type":"Point","coordinates":[-122.4514978,37.7626013]}},{"type":"Feature","id":"parks-27146063","properties":{"id":"parks-27146063","name":"Embarcadero Plaza"},"geometry":{"type":"Point","coordinates":[-122.3946478,37.7949007]}},{"type":"Feature","id":"parks-27239292","properties":{"id":"parks-27239292","name":"Warm Water Cove Park"},"geometry":{"type":"Point","coordinates":[-122.3833236,37.7539713]}},{"type":"Feature","id":"parks-27239372","properties":{"id":"parks-27239372","name":"Esprit Park"},"geometry":{"type":"Point","coordinates":[-122.3910233,37.7610054]}},{"type":"Feature","id":"parks-27369705","properties":{"id":"parks-27369705","name":"Mission Creek Park"},"geometry":{"type":"Point","coordinates":[-122.3952254,37.7722816]}},{"type":"Feature","id":"parks-27369817","properties":{"id":"parks-27369817","name":"Minnesota Grove"},"geometry":{"type":"Point","coordinates":[-122.389763,37.7536073]}},{"type":"Feature","id":"parks-27656676","properties":{"id":"parks-27656676","name":"China Basin Park"},"geometry":{"type":"Point","coordinates":[-122.3884958,37.7761309]}},{"type":"Feature","id":"parks-27657304","properties":{"id":"parks-27657304","name":"Juri Commons"},"geometry":{"type":"Point","coordinates":[-122.4219967,37.7494828]}},{"type":"Feature","id":"parks-28015862","properties":{"id":"parks-28015862","name":"Patricia's Green"},"geometry":{"type":"Point","coordinates":[-122.4244348,37.7762302]}},{"type":"Feature","id":"parks-28689198","properties":{"id":"parks-28689198","name":"Tulare Park"},"geometry":{"type":"Point","coordinates":[-122.3906435,37.7482359]}},{"type":"Feature","id":"parks-28716696","properties":{"id":"parks-28716696","name":"John McLaren Park"},"geometry":{"type":"Point","coordinates":[-122.4181057,37.7175539]}},{"type":"Feature","id":"parks-28841124","properties":{"id":"parks-28841124","name":"Saint Mary's Square"},"geometry":{"type":"Point","coordinates":[-122.4050094,37.7920416]}},{"type":"Feature","id":"parks-28842443","properties":{"id":"parks-28842443","name":"Yerba Buena Gardens"},"geometry":{"type":"Point","coordinates":[-122.4024042,37.7846498]}},{"type":"Feature","id":"parks-28844805","properties":{"id":"parks-28844805","name":"The Crossing at East Cut"},"geometry":{"type":"Point","coordinates":[-122.3933129,37.7898462]}},{"type":"Feature","id":"parks-29285191","properties":{"id":"parks-29285191","name":"Silver Terrace Playground"},"geometry":{"type":"Point","coordinates":[-122.4031382,37.7329239]}},{"type":"Feature","id":"parks-30029902","properties":{"id":"parks-30029902","name":"Joseph Conrad Square"},"geometry":{"type":"Point","coordinates":[-122.4191372,37.8066119]}},{"type":"Feature","id":"parks-30899551","properties":{"id":"parks-30899551","name":"Music Concourse"},"geometry":{"type":"Point","coordinates":[-122.4676281,37.7705478]}},{"type":"Feature","id":"parks-32857635","properties":{"id":"parks-32857635","name":"Marini Plaza"},"geometry":{"type":"Point","coordinates":[-122.4106512,37.8004625]}},{"type":"Feature","id":"parks-32862802","properties":{"id":"parks-32862802","name":"Rincon Park"},"geometry":{"type":"Point","coordinates":[-122.3896091,37.7912194]}},{"type":"Feature","id":"parks-32946958","properties":{"id":"parks-32946958","name":"Huntington Park"},"geometry":{"type":"Point","coordinates":[-122.4121766,37.7921736]}},{"type":"Feature","id":"parks-33619301","properties":{"id":"parks-33619301","name":"Boeddeker Park"},"geometry":{"type":"Point","coordinates":[-122.4121194,37.7844987]}},{"type":"Feature","id":"parks-34856612","properties":{"id":"parks-34856612","name":"Kite Hill Open Space"},"geometry":{"type":"Point","coordinates":[-122.4415858,37.7583453]}},{"type":"Feature","id":"parks-35049434","properties":{"id":"parks-35049434","name":"Willie \"Woo Woo\" Wong Park"},"geometry":{"type":"Point","coordinates":[-122.4071041,37.7935842]}},{"type":"Feature","id":"parks-35050562","properties":{"id":"parks-35050562","name":"Sergeant John Macaulay Park"},"geometry":{"type":"Point","coordinates":[-122.4182205,37.7854071]}},{"type":"Feature","id":"parks-35065721","properties":{"id":"parks-35065721","name":"Joe DiMaggio Playground"},"geometry":{"type":"Point","coordinates":[-122.4121593,37.802492]}},{"type":"Feature","id":"parks-35800082","properties":{"id":"parks-35800082","name":"Glen Canyon Park"},"geometry":{"type":"Point","coordinates":[-122.4438302,37.740365]}},{"type":"Feature","id":"parks-36949360","properties":{"id":"parks-36949360","name":"Cottage Row Mini Park"},"geometry":{"type":"Point","coordinates":[-122.4323255,37.7864568]}},{"type":"Feature","id":"parks-36950468","properties":{"id":"parks-36950468","name":"Baker & Broderick Mini Park"},"geometry":{"type":"Point","coordinates":[-122.4425677,37.785635]}},{"type":"Feature","id":"parks-37191966","properties":{"id":"parks-37191966","name":"Turk-Hyde Mini Park"},"geometry":{"type":"Point","coordinates":[-122.4159872,37.7827484]}},{"type":"Feature","id":"parks-38224213","properties":{"id":"parks-38224213","name":"Sunset Tunnel Park"},"geometry":{"type":"Point","coordinates":[-122.4488064,37.7662984]}},{"type":"Feature","id":"parks-39335773","properties":{"id":"parks-39335773","name":"Excelsior Playground"},"geometry":{"type":"Point","coordinates":[-122.433238,37.7203442]}},{"type":"Feature","id":"parks-39997532","properties":{"id":"parks-39997532","name":"Palega Recreation Center"},"geometry":{"type":"Point","coordinates":[-122.4098023,37.729346]}},{"type":"Feature","id":"parks-40060675","properties":{"id":"parks-40060675","name":"Candlestick Point State Recreation Area"},"geometry":{"type":"Point","coordinates":[-122.3829973,37.7171518]}},{"type":"Feature","id":"parks-43100742","properties":{"id":"parks-43100742","name":"Victoria Manalo Draves Park"},"geometry":{"type":"Point","coordinates":[-122.4059704,37.7770139]}},{"type":"Feature","id":"parks-47971227","properties":{"id":"parks-47971227","name":"Marietta Green Space"},"geometry":{"type":"Point","coordinates":[-122.4487997,37.7416561]}},{"type":"Feature","id":"parks-48435252","properties":{"id":"parks-48435252","name":"Aptos Playground"},"geometry":{"type":"Point","coordinates":[-122.4664882,37.7284428]}},{"type":"Feature","id":"parks-48435281","properties":{"id":"parks-48435281","name":"Terrace Green Park"},"geometry":{"type":"Point","coordinates":[-122.4648869,37.7367601]}},{"type":"Feature","id":"parks-48537425","properties":{"id":"parks-48537425","name":"Junipero Serra Playground"},"geometry":{"type":"Point","coordinates":[-122.4737813,37.7247443]}},{"type":"Feature","id":"parks-48569996","properties":{"id":"parks-48569996","name":"Mission Bay Commons"},"geometry":{"type":"Point","coordinates":[-122.3879715,37.770984]}},{"type":"Feature","id":"parks-52243885","properties":{"id":"parks-52243885","name":"Rochambeau Playground"},"geometry":{"type":"Point","coordinates":[-122.4845589,37.784843]}},{"type":"Feature","id":"parks-56656116","properties":{"id":"parks-56656116","name":"Mission Creek Park"},"geometry":{"type":"Point","coordinates":[-122.3961069,37.7726878]}},{"type":"Feature","id":"parks-68705976","properties":{"id":"parks-68705976","name":"Allyne Park"},"geometry":{"type":"Point","coordinates":[-122.4276609,37.7974664]}},{"type":"Feature","id":"parks-68854101","properties":{"id":"parks-68854101","name":"Cayuga Park"},"geometry":{"type":"Point","coordinates":[-122.450369,37.7139607]}},{"type":"Feature","id":"parks-68881693","properties":{"id":"parks-68881693","name":"Parque Niños Unidos"},"geometry":{"type":"Point","coordinates":[-122.4136951,37.7544866]}},{"type":"Feature","id":"parks-68882142","properties":{"id":"parks-68882142","name":"24th & York Mini Park"},"geometry":{"type":"Point","coordinates":[-122.4085977,37.7530704]}},{"type":"Feature","id":"parks-68883459","properties":{"id":"parks-68883459","name":"Adam Rodgers Park"},"geometry":{"type":"Point","coordinates":[-122.3839421,37.7310335]}},{"type":"Feature","id":"parks-68886068","properties":{"id":"parks-68886068","name":"Alice Chalmers Playground"},"geometry":{"type":"Point","coordinates":[-122.4466811,37.7098257]}},{"type":"Feature","id":"parks-69020319","properties":{"id":"parks-69020319","name":"Little Marina Green"},"geometry":{"type":"Point","coordinates":[-122.4478999,37.8058032]}},{"type":"Feature","id":"parks-69029501","properties":{"id":"parks-69029501","name":"Alioto Mini Park"},"geometry":{"type":"Point","coordinates":[-122.418241,37.7589211]}},{"type":"Feature","id":"parks-69032470","properties":{"id":"parks-69032470","name":"Angelo Rossi Park"},"geometry":{"type":"Point","coordinates":[-122.4574369,37.7788208]}},{"type":"Feature","id":"parks-69060030","properties":{"id":"parks-69060030","name":"Helen Wills Park"},"geometry":{"type":"Point","coordinates":[-122.420665,37.7957654]}},{"type":"Feature","id":"parks-72024278","properties":{"id":"parks-72024278","name":"Broadway Tunnel West Mini Park"},"geometry":{"type":"Point","coordinates":[-122.4174368,37.7964407]}},{"type":"Feature","id":"parks-82207054","properties":{"id":"parks-82207054","name":"Fort Mason"},"geometry":{"type":"Point","coordinates":[-122.4289965,37.8063306]}},{"type":"Feature","id":"parks-82480067","properties":{"id":"parks-82480067","name":"Bayview Playground"},"geometry":{"type":"Point","coordinates":[-122.3932436,37.7259727]}},{"type":"Feature","id":"parks-82480273","properties":{"id":"parks-82480273","name":"Crocker Amazon Playground"},"geometry":{"type":"Point","coordinates":[-122.430344,37.71425]}},{"type":"Feature","id":"parks-82480966","properties":{"id":"parks-82480966","name":"Bayview Park"},"geometry":{"type":"Point","coordinates":[-122.3926911,37.7151452]}},{"type":"Feature","id":"parks-84821725","properties":{"id":"parks-84821725","name":"Koret Quad"},"geometry":{"type":"Point","coordinates":[-122.3918695,37.7681667]}},{"type":"Feature","id":"parks-85676254","properties":{"id":"parks-85676254","name":"Edgehill Mountain Open Space"},"geometry":{"type":"Point","coordinates":[-122.4598405,37.741928]}},{"type":"Feature","id":"parks-85684053","properties":{"id":"parks-85684053","name":"Douglass Playground"},"geometry":{"type":"Point","coordinates":[-122.4387947,37.7478492]}},{"type":"Feature","id":"parks-85686582","properties":{"id":"parks-85686582","name":"Dorothy W. Erskine Park"},"geometry":{"type":"Point","coordinates":[-122.4394592,37.7338785]}},{"type":"Feature","id":"parks-85687774","properties":{"id":"parks-85687774","name":"Noe Valley Courts"},"geometry":{"type":"Point","coordinates":[-122.4389214,37.7514069]}},{"type":"Feature","id":"parks-85689113","properties":{"id":"parks-85689113","name":"Duncan-Castro Open Space"},"geometry":{"type":"Point","coordinates":[-122.4334138,37.7460853]}},{"type":"Feature","id":"parks-85796801","properties":{"id":"parks-85796801","name":"Fulton Playground"},"geometry":{"type":"Point","coordinates":[-122.4869387,37.7733869]}},{"type":"Feature","id":"parks-85796807","properties":{"id":"parks-85796807","name":"Richmond Playground"},"geometry":{"type":"Point","coordinates":[-122.4781277,37.7851396]}},{"type":"Feature","id":"parks-85796808","properties":{"id":"parks-85796808","name":"Richmond Recreation Center"},"geometry":{"type":"Point","coordinates":[-122.4779867,37.783272]}},{"type":"Feature","id":"parks-85880982","properties":{"id":"parks-85880982","name":"George Christopher Playground"},"geometry":{"type":"Point","coordinates":[-122.4398657,37.743635]}},{"type":"Feature","id":"parks-85888165","properties":{"id":"parks-85888165","name":"29th & Diamond Open Space"},"geometry":{"type":"Point","coordinates":[-122.4352533,37.7436523]}},{"type":"Feature","id":"parks-85891396","properties":{"id":"parks-85891396","name":"Walter Haas Playground"},"geometry":{"type":"Point","coordinates":[-122.434376,37.7406345]}},{"type":"Feature","id":"parks-85891397","properties":{"id":"parks-85891397","name":"Billy Goat Hill"},"geometry":{"type":"Point","coordinates":[-122.4331951,37.7413233]}},{"type":"Feature","id":"parks-85891868","properties":{"id":"parks-85891868","name":"Topaz Open Space"},"geometry":{"type":"Point","coordinates":[-122.4361222,37.7417356]}},{"type":"Feature","id":"parks-86023454","properties":{"id":"parks-86023454","name":"Fairmount Open Space"},"geometry":{"type":"Point","coordinates":[-122.4291652,37.7384253]}},{"type":"Feature","id":"parks-86124597","properties":{"id":"parks-86124597","name":"Argonne Playground"},"geometry":{"type":"Point","coordinates":[-122.4777096,37.7794183]}},{"type":"Feature","id":"parks-86124617","properties":{"id":"parks-86124617","name":"Sunset Playground"},"geometry":{"type":"Point","coordinates":[-122.4868689,37.756597]}},{"type":"Feature","id":"parks-86124618","properties":{"id":"parks-86124618","name":"West Portal Playground"},"geometry":{"type":"Point","coordinates":[-122.4650559,37.7418471]}},{"type":"Feature","id":"parks-86124624","properties":{"id":"parks-86124624","name":"West Sunset Playground"},"geometry":{"type":"Point","coordinates":[-122.4980607,37.7495277]}},{"type":"Feature","id":"parks-86303730","properties":{"id":"parks-86303730","name":"Fallen Bridge Park"},"geometry":{"type":"Point","coordinates":[-122.4060262,37.7623615]}},{"type":"Feature","id":"parks-86303734","properties":{"id":"parks-86303734","name":"Youngblood-Coleman Playground"},"geometry":{"type":"Point","coordinates":[-122.3846014,37.7387465]}},{"type":"Feature","id":"parks-91114607","properties":{"id":"parks-91114607","name":"Presidio Tunnel Tops"},"geometry":{"type":"Point","coordinates":[-122.4562926,37.8028951]}},{"type":"Feature","id":"parks-93703754","properties":{"id":"parks-93703754","name":"George Sterling Park"},"geometry":{"type":"Point","coordinates":[-122.4203426,37.8013881]}},{"type":"Feature","id":"parks-99687084","properties":{"id":"parks-99687084","name":"Presidio Heights Playground"},"geometry":{"type":"Point","coordinates":[-122.449617,37.7884749]}},{"type":"Feature","id":"parks-99687086","properties":{"id":"parks-99687086","name":"Laurel Hill Playground"},"geometry":{"type":"Point","coordinates":[-122.4509441,37.7839773]}},{"type":"Feature","id":"parks-103637554","properties":{"id":"parks-103637554","name":"Sigmund Stern Recreation Grove"},"geometry":{"type":"Point","coordinates":[-122.4785799,37.7360663]}},{"type":"Feature","id":"parks-103637565","properties":{"id":"parks-103637565","name":"Pine Lake Park"},"geometry":{"type":"Point","coordinates":[-122.4863802,37.7364926]}},{"type":"Feature","id":"parks-103637793","properties":{"id":"parks-103637793","name":"Parkside Square"},"geometry":{"type":"Point","coordinates":[-122.4839028,37.7379819]}},{"type":"Feature","id":"parks-103654951","properties":{"id":"parks-103654951","name":"Robert Pender Park"},"geometry":{"type":"Point","coordinates":[-122.4780018,37.7180664]}},{"type":"Feature","id":"parks-106952544","properties":{"id":"parks-106952544","name":"Kelloch-Velasco Park"},"geometry":{"type":"Point","coordinates":[-122.4131634,37.708542]}},{"type":"Feature","id":"parks-111573499","properties":{"id":"parks-111573499","name":"Rolph Nicol Jr Playground"},"geometry":{"type":"Point","coordinates":[-122.4802647,37.7306268]}},{"type":"Feature","id":"parks-114151111","properties":{"id":"parks-114151111","name":"Michelangelo Playground"},"geometry":{"type":"Point","coordinates":[-122.4169145,37.801107]}},{"type":"Feature","id":"parks-114151121","properties":{"id":"parks-114151121","name":"Ina Coolbrith Park"},"geometry":{"type":"Point","coordinates":[-122.4132985,37.7982265]}},{"type":"Feature","id":"parks-115433818","properties":{"id":"parks-115433818","name":"Noe & Beaver Mini Park Community Garden"},"geometry":{"type":"Point","coordinates":[-122.4334573,37.7649315]}},{"type":"Feature","id":"parks-116771007","properties":{"id":"parks-116771007","name":"Potrero Hill Recreation Center"},"geometry":{"type":"Point","coordinates":[-122.3969203,37.7562283]}},{"type":"Feature","id":"parks-128241105","properties":{"id":"parks-128241105","name":"Golden Gate Heights Park"},"geometry":{"type":"Point","coordinates":[-122.4695653,37.7499585]}},{"type":"Feature","id":"parks-133399685","properties":{"id":"parks-133399685","name":"Islais Landing"},"geometry":{"type":"Point","coordinates":[-122.3881044,37.7467633]}},{"type":"Feature","id":"parks-137911952","properties":{"id":"parks-137911952","name":"Page & Laguna Mini Park"},"geometry":{"type":"Point","coordinates":[-122.4252695,37.7734808]}},{"type":"Feature","id":"parks-138662530","properties":{"id":"parks-138662530","name":"Seward Mini Park"},"geometry":{"type":"Point","coordinates":[-122.4400041,37.7576361]}},{"type":"Feature","id":"parks-147777246","properties":{"id":"parks-147777246","name":"Mission Playground"},"geometry":{"type":"Point","coordinates":[-122.4221578,37.7593888]}},{"type":"Feature","id":"parks-148288769","properties":{"id":"parks-148288769","name":"Rooftop Park"},"geometry":{"type":"Point","coordinates":[-122.397894,37.7890489]}},{"type":"Feature","id":"parks-153905784","properties":{"id":"parks-153905784","name":"Koshland Park"},"geometry":{"type":"Point","coordinates":[-122.4267327,37.7732544]}},{"type":"Feature","id":"parks-156681276","properties":{"id":"parks-156681276","name":"Community Park"},"geometry":{"type":"Point","coordinates":[-122.4404452,37.7608053]}},{"type":"Feature","id":"parks-158602261","properties":{"id":"parks-158602261","name":"Golden Gate Park"},"geometry":{"type":"Point","coordinates":[-122.4820237,37.7693969]}},{"type":"Feature","id":"parks-160025743","properties":{"id":"parks-160025743","name":"Sutro Heights Park"},"geometry":{"type":"Point","coordinates":[-122.5114115,37.7774649]}},{"type":"Feature","id":"parks-161843741","properties":{"id":"parks-161843741","name":"Fay Park"},"geometry":{"type":"Point","coordinates":[-122.4178775,37.8029028]}},{"type":"Feature","id":"parks-162056252","properties":{"id":"parks-162056252","name":"Woh Hei Yuen Recreation Center"},"geometry":{"type":"Point","coordinates":[-122.4103602,37.795889]}},{"type":"Feature","id":"parks-162518010","properties":{"id":"parks-162518010","name":"Muriel Leff Mini Park"},"geometry":{"type":"Point","coordinates":[-122.4650128,37.7800704]}},{"type":"Feature","id":"parks-162518012","properties":{"id":"parks-162518012","name":"Cabrillo Playground"},"geometry":{"type":"Point","coordinates":[-122.4987387,37.7728898]}},{"type":"Feature","id":"parks-162651463","properties":{"id":"parks-162651463","name":"Merced Heights Playground"},"geometry":{"type":"Point","coordinates":[-122.4702815,37.7175067]}},{"type":"Feature","id":"parks-162651466","properties":{"id":"parks-162651466","name":"Ocean View Park"},"geometry":{"type":"Point","coordinates":[-122.4575968,37.7157682]}},{"type":"Feature","id":"parks-188964531","properties":{"id":"parks-188964531","name":"San Jose/Guerrero Park"},"geometry":{"type":"Point","coordinates":[-122.4220495,37.7456133]}},{"type":"Feature","id":"parks-188964533","properties":{"id":"parks-188964533","name":"Naples Green"},"geometry":{"type":"Point","coordinates":[-122.4363032,37.7140634]}},{"type":"Feature","id":"parks-188964535","properties":{"id":"parks-188964535","name":"Naples Green"},"geometry":{"type":"Point","coordinates":[-122.43651,37.7137978]}},{"type":"Feature","id":"parks-193055100","properties":{"id":"parks-193055100","name":"Brooks Park"},"geometry":{"type":"Point","coordinates":[-122.4668938,37.717259]}},{"type":"Feature","id":"parks-195274553","properties":{"id":"parks-195274553","name":"Cayuga & Lamartine mini park"},"geometry":{"type":"Point","coordinates":[-122.432957,37.7303526]}},{"type":"Feature","id":"parks-207811319","properties":{"id":"parks-207811319","name":"Brannan Street Wharf"},"geometry":{"type":"Point","coordinates":[-122.3876543,37.7843426]}},{"type":"Feature","id":"parks-215139414","properties":{"id":"parks-215139414","name":"Pier 94 Wetlands"},"geometry":{"type":"Point","coordinates":[-122.3753252,37.7457771]}},{"type":"Feature","id":"parks-217583813","properties":{"id":"parks-217583813","name":"Little Hollywood Park"},"geometry":{"type":"Point","coordinates":[-122.3981991,37.7099855]}},{"type":"Feature","id":"parks-218917064","properties":{"id":"parks-218917064","name":"Sunnyside Conservatory"},"geometry":{"type":"Point","coordinates":[-122.4407803,37.7320221]}},{"type":"Feature","id":"parks-219036309","properties":{"id":"parks-219036309","name":"Pink Triangle Memorial"},"geometry":{"type":"Point","coordinates":[-122.4361469,37.7623451]}},{"type":"Feature","id":"parks-219166342","properties":{"id":"parks-219166342","name":"Baden-Joost Mini Park"},"geometry":{"type":"Point","coordinates":[-122.4408553,37.7327466]}},{"type":"Feature","id":"parks-222822105","properties":{"id":"parks-222822105","name":"Coso Square"},"geometry":{"type":"Point","coordinates":[-122.4181006,37.7462769]}},{"type":"Feature","id":"parks-224941774","properties":{"id":"parks-224941774","name":"Pioneer Park"},"geometry":{"type":"Point","coordinates":[-122.4056779,37.8027472]}},{"type":"Feature","id":"parks-225182880","properties":{"id":"parks-225182880","name":"Corona Heights Park"},"geometry":{"type":"Point","coordinates":[-122.4388981,37.7647693]}},{"type":"Feature","id":"parks-225526801","properties":{"id":"parks-225526801","name":"Harvey Milk Plaza"},"geometry":{"type":"Point","coordinates":[-122.4356915,37.7622753]}},{"type":"Feature","id":"parks-226290099","properties":{"id":"parks-226290099","name":"Sunnyside Playground"},"geometry":{"type":"Point","coordinates":[-122.4475023,37.7335513]}},{"type":"Feature","id":"parks-233459930","properties":{"id":"parks-233459930","name":"India Basin Open Space"},"geometry":{"type":"Point","coordinates":[-122.3720371,37.7331255]}},{"type":"Feature","id":"parks-243571693","properties":{"id":"parks-243571693","name":"The Parks at 5M"},"geometry":{"type":"Point","coordinates":[-122.4066388,37.7813912]}},{"type":"Feature","id":"parks-256784864","properties":{"id":"parks-256784864","name":"Noe Valley Town Square"},"geometry":{"type":"Point","coordinates":[-122.4289796,37.751374]}},{"type":"Feature","id":"parks-257344295","properties":{"id":"parks-257344295","name":"Agua Vista Park"},"geometry":{"type":"Point","coordinates":[-122.3861266,37.7661934]}},{"type":"Feature","id":"parks-259774228","properties":{"id":"parks-259774228","name":"Coleridge Mini Park"},"geometry":{"type":"Point","coordinates":[-122.4195069,37.7443548]}},{"type":"Feature","id":"parks-259775230","properties":{"id":"parks-259775230","name":"Coleridge Park"},"geometry":{"type":"Point","coordinates":[-122.4203012,37.7432024]}},{"type":"Feature","id":"parks-259849026","properties":{"id":"parks-259849026","name":"Argonne Community Garden"},"geometry":{"type":"Point","coordinates":[-122.4740745,37.7739909]}},{"type":"Feature","id":"parks-260924230","properties":{"id":"parks-260924230","name":"Empire Park"},"geometry":{"type":"Point","coordinates":[-122.4038503,37.7942695]}},{"type":"Feature","id":"parks-261129576","properties":{"id":"parks-261129576","name":"Midtown Terrace Park and Sutro Recreation Center"},"geometry":{"type":"Point","coordinates":[-122.4553815,37.7517528]}},{"type":"Feature","id":"parks-261988292","properties":{"id":"parks-261988292","name":"Transamerica Redwood Park"},"geometry":{"type":"Point","coordinates":[-122.4022419,37.7952428]}},{"type":"Feature","id":"parks-266694696","properties":{"id":"parks-266694696","name":"Woods Yard Park"},"geometry":{"type":"Point","coordinates":[-122.3906932,37.7576578]}},{"type":"Feature","id":"parks-272711313","properties":{"id":"parks-272711313","name":"Hippie Hill"},"geometry":{"type":"Point","coordinates":[-122.457878,37.7698546]}},{"type":"Feature","id":"parks-278139342","properties":{"id":"parks-278139342","name":"Green Hairstreak Corridor - Quintara Steps"},"geometry":{"type":"Point","coordinates":[-122.471542,37.7488148]}},{"type":"Feature","id":"parks-278139776","properties":{"id":"parks-278139776","name":"Green Hairstreak Corridor - 14th Avenue & Pacheco"},"geometry":{"type":"Point","coordinates":[-122.4707497,37.7522533]}},{"type":"Feature","id":"parks-278139938","properties":{"id":"parks-278139938","name":"Green Hairstreak Corridor - 12th and Pacheco"},"geometry":{"type":"Point","coordinates":[-122.4687292,37.7519803]}},{"type":"Feature","id":"parks-278140586","properties":{"id":"parks-278140586","name":"Green Hairstreak Corridor - Aerial Steps (access point)"},"geometry":{"type":"Point","coordinates":[-122.4705781,37.7524594]}},{"type":"Feature","id":"parks-278140657","properties":{"id":"parks-278140657","name":"Green Hairstreak Corridor - Aloha & Lomita"},"geometry":{"type":"Point","coordinates":[-122.4727022,37.7580106]}},{"type":"Feature","id":"parks-278140838","properties":{"id":"parks-278140838","name":"Green Hairstreak Corridor - Mount Steps (access point)"},"geometry":{"type":"Point","coordinates":[-122.471326,37.7542454]}},{"type":"Feature","id":"parks-284764947","properties":{"id":"parks-284764947","name":"Civic Center Plaza"},"geometry":{"type":"Point","coordinates":[-122.4176099,37.7794895]}},{"type":"Feature","id":"parks-303422138","properties":{"id":"parks-303422138","name":"Rocky Outcrop"},"geometry":{"type":"Point","coordinates":[-122.4708465,37.7537993]}},{"type":"Feature","id":"parks-306787829","properties":{"id":"parks-306787829","name":"Starr King Open Space"},"geometry":{"type":"Point","coordinates":[-122.4000212,37.7535769]}},{"type":"Feature","id":"parks-310027918","properties":{"id":"parks-310027918","name":"McCoppin Hub"},"geometry":{"type":"Point","coordinates":[-122.4228652,37.7715589]}},{"type":"Feature","id":"parks-330694199","properties":{"id":"parks-330694199","name":"Palou Community Garden"},"geometry":{"type":"Point","coordinates":[-122.3951671,37.7367007]}},{"type":"Feature","id":"parks-330695712","properties":{"id":"parks-330695712","name":"Palou Phelps Mini Park"},"geometry":{"type":"Point","coordinates":[-122.3947524,37.7355655]}},{"type":"Feature","id":"parks-352690312","properties":{"id":"parks-352690312","name":"Mariposa Park"},"geometry":{"type":"Point","coordinates":[-122.3915526,37.7646208]}},{"type":"Feature","id":"parks-353551814","properties":{"id":"parks-353551814","name":"J.P. Murphy Playground"},"geometry":{"type":"Point","coordinates":[-122.4649159,37.7517695]}},{"type":"Feature","id":"parks-369601560","properties":{"id":"parks-369601560","name":"Benches Park"},"geometry":{"type":"Point","coordinates":[-122.4054317,37.7619473]}},{"type":"Feature","id":"parks-375747149","properties":{"id":"parks-375747149","name":"Mission Bay Kids Park"},"geometry":{"type":"Point","coordinates":[-122.392719,37.7723264]}},{"type":"Feature","id":"parks-381074858","properties":{"id":"parks-381074858","name":"Bernal Recreation Center"},"geometry":{"type":"Point","coordinates":[-122.416177,37.7384647]}},{"type":"Feature","id":"parks-382085366","properties":{"id":"parks-382085366","name":"Progress Park"},"geometry":{"type":"Point","coordinates":[-122.3912037,37.7537432]}},{"type":"Feature","id":"parks-382113061","properties":{"id":"parks-382113061","name":"Mt. Olympus"},"geometry":{"type":"Point","coordinates":[-122.4455431,37.7633216]}},{"type":"Feature","id":"parks-382816207","properties":{"id":"parks-382816207","name":"Greenie's Conservation Corner"},"geometry":{"type":"Point","coordinates":[-122.5026769,37.7322306]}},{"type":"Feature","id":"parks-389247006","properties":{"id":"parks-389247006","name":"Randolph & Bright Mini Park"},"geometry":{"type":"Point","coordinates":[-122.4637039,37.714515]}},{"type":"Feature","id":"parks-389247009","properties":{"id":"parks-389247009","name":"Lessing & Sears Mini Park"},"geometry":{"type":"Point","coordinates":[-122.4553506,37.708645]}},{"type":"Feature","id":"parks-389262420","properties":{"id":"parks-389262420","name":"Yik Oi Huang Peace and Friendship Park"},"geometry":{"type":"Point","coordinates":[-122.4090258,37.7123882]}},{"type":"Feature","id":"parks-389262854","properties":{"id":"parks-389262854","name":"Visitacion Valley Greenway"},"geometry":{"type":"Point","coordinates":[-122.4058532,37.7147743]}},{"type":"Feature","id":"parks-389991180","properties":{"id":"parks-389991180","name":"Hayes Valley Playground"},"geometry":{"type":"Point","coordinates":[-122.4273831,37.7760675]}},{"type":"Feature","id":"parks-396637684","properties":{"id":"parks-396637684","name":"Lakeview and Ashton Mini Park"},"geometry":{"type":"Point","coordinates":[-122.4626647,37.7180817]}},{"type":"Feature","id":"parks-400948942","properties":{"id":"parks-400948942","name":"La Playa Park"},"geometry":{"type":"Point","coordinates":[-122.5093254,37.7606267]}},{"type":"Feature","id":"parks-401354283","properties":{"id":"parks-401354283","name":"Mountain Lake Park"},"geometry":{"type":"Point","coordinates":[-122.4694492,37.7872473]}},{"type":"Feature","id":"parks-401508551","properties":{"id":"parks-401508551","name":"Miraloma Playground"},"geometry":{"type":"Point","coordinates":[-122.44934,37.7386308]}},{"type":"Feature","id":"parks-402061421","properties":{"id":"parks-402061421","name":"Grand View Park"},"geometry":{"type":"Point","coordinates":[-122.4718395,37.7564502]}},{"type":"Feature","id":"parks-402978882","properties":{"id":"parks-402978882","name":"Larsen Park"},"geometry":{"type":"Point","coordinates":[-122.4760098,37.7393058]}},{"type":"Feature","id":"parks-404847043","properties":{"id":"parks-404847043","name":"Lake Merced Park"},"geometry":{"type":"Point","coordinates":[-122.4934893,37.7199319]}},{"type":"Feature","id":"parks-412695135","properties":{"id":"parks-412695135","name":"Emerald Park"},"geometry":{"type":"Point","coordinates":[-122.3915259,37.7867988]}},{"type":"Feature","id":"parks-414033716","properties":{"id":"parks-414033716","name":"Hilltop Park"},"geometry":{"type":"Point","coordinates":[-122.3834937,37.732887]}},{"type":"Feature","id":"parks-414035525","properties":{"id":"parks-414035525","name":"Shoreview Park"},"geometry":{"type":"Point","coordinates":[-122.3810894,37.7318424]}},{"type":"Feature","id":"parks-414887522","properties":{"id":"parks-414887522","name":"In Chan Kaajal Park"},"geometry":{"type":"Point","coordinates":[-122.4157591,37.7639429]}},{"type":"Feature","id":"parks-429792025","properties":{"id":"parks-429792025","name":"Tara Street Park"},"geometry":{"type":"Point","coordinates":[-122.4486314,37.7212352]}},{"type":"Feature","id":"parks-432386653","properties":{"id":"parks-432386653","name":"Athens Avalon Greens Terace"},"geometry":{"type":"Point","coordinates":[-122.4259715,37.7249694]}},{"type":"Feature","id":"parks-436484314","properties":{"id":"parks-436484314","name":"50 Beale Street Plaza"},"geometry":{"type":"Point","coordinates":[-122.3969783,37.7916178]}},{"type":"Feature","id":"parks-443135450","properties":{"id":"parks-443135450","name":"Bayview Gateway"},"geometry":{"type":"Point","coordinates":[-122.3866349,37.7463152]}},{"type":"Feature","id":"parks-446183018","properties":{"id":"parks-446183018","name":"Parklab"},"geometry":{"type":"Point","coordinates":[-122.3920774,37.7707432]}},{"type":"Feature","id":"parks-446717984","properties":{"id":"parks-446717984","name":"Jack Early Park"},"geometry":{"type":"Point","coordinates":[-122.4081699,37.8048739]}},{"type":"Feature","id":"parks-461786910","properties":{"id":"parks-461786910","name":"Mission Valencia Plaza"},"geometry":{"type":"Point","coordinates":[-122.4201123,37.7455471]}},{"type":"Feature","id":"parks-462144467","properties":{"id":"parks-462144467","name":"Mullen & Peralta Mini Park"},"geometry":{"type":"Point","coordinates":[-122.4087664,37.7461307]}},{"type":"Feature","id":"parks-479424639","properties":{"id":"parks-479424639","name":"Bosworth Street Open Space"},"geometry":{"type":"Point","coordinates":[-122.4374179,37.7345531]}},{"type":"Feature","id":"parks-480114806","properties":{"id":"parks-480114806","name":"Adah's Stairway Garden"},"geometry":{"type":"Point","coordinates":[-122.438917,37.7700916]}},{"type":"Feature","id":"parks-534610947","properties":{"id":"parks-534610947","name":"Tunnel Top Park"},"geometry":{"type":"Point","coordinates":[-122.3929026,37.7521411]}},{"type":"Feature","id":"parks-534677321","properties":{"id":"parks-534677321","name":"Daggett Park"},"geometry":{"type":"Point","coordinates":[-122.3964437,37.7668918]}},{"type":"Feature","id":"parks-545363150","properties":{"id":"parks-545363150","name":"Fillmore & Turk Mini Park"},"geometry":{"type":"Point","coordinates":[-122.4318646,37.7801597]}},{"type":"Feature","id":"parks-545408838","properties":{"id":"parks-545408838","name":"Raymond Kimbell Playground"},"geometry":{"type":"Point","coordinates":[-122.4352045,37.7829904]}},{"type":"Feature","id":"parks-546510348","properties":{"id":"parks-546510348","name":"Japan Town Peace Plaza"},"geometry":{"type":"Point","coordinates":[-122.4297624,37.7852196]}},{"type":"Feature","id":"parks-546784745","properties":{"id":"parks-546784745","name":"Golden Gate & Steiner Mini Park"},"geometry":{"type":"Point","coordinates":[-122.433488,37.7795886]}},{"type":"Feature","id":"parks-552549335","properties":{"id":"parks-552549335","name":"Mary Ellen Pleasant Memorial Park"},"geometry":{"type":"Point","coordinates":[-122.4269192,37.787538]}},{"type":"Feature","id":"parks-565996157","properties":{"id":"parks-565996157","name":"Hillpoint Park"},"geometry":{"type":"Point","coordinates":[-122.3667904,37.7269228]}},{"type":"Feature","id":"parks-570773694","properties":{"id":"parks-570773694","name":"Redwood Grove"},"geometry":{"type":"Point","coordinates":[-122.4037768,37.7720428]}},{"type":"Feature","id":"parks-579664205","properties":{"id":"parks-579664205","name":"Mission Creek Park"},"geometry":{"type":"Point","coordinates":[-122.3910954,37.7754547]}},{"type":"Feature","id":"parks-585640043","properties":{"id":"parks-585640043","name":"Tenderloin Children's Playground"},"geometry":{"type":"Point","coordinates":[-122.4153012,37.7848382]}},{"type":"Feature","id":"parks-605504214","properties":{"id":"parks-605504214","name":"Rossi Playground Edward St Annex"},"geometry":{"type":"Point","coordinates":[-122.4578276,37.777897]}},{"type":"Feature","id":"parks-609650218","properties":{"id":"parks-609650218","name":"Sunset Dunes"},"geometry":{"type":"Point","coordinates":[-122.5083713,37.7497668]}},{"type":"Feature","id":"parks-641734127","properties":{"id":"parks-641734127","name":"UCSF Mission Bay Park"},"geometry":{"type":"Point","coordinates":[-122.3921469,37.7688712]}},{"type":"Feature","id":"parks-651657468","properties":{"id":"parks-651657468","name":"Waterfront Plaza"},"geometry":{"type":"Point","coordinates":[-122.4061914,37.8059077]}},{"type":"Feature","id":"parks-675572533","properties":{"id":"parks-675572533","name":"La Playa Park"},"geometry":{"type":"Point","coordinates":[-122.5092238,37.7595953]}},{"type":"Feature","id":"parks-681436080","properties":{"id":"parks-681436080","name":"Margaret S. Hayward Playground"},"geometry":{"type":"Point","coordinates":[-122.4254976,37.780873]}},{"type":"Feature","id":"parks-681436082","properties":{"id":"parks-681436082","name":"Jefferson Square"},"geometry":{"type":"Point","coordinates":[-122.4256688,37.7818032]}},{"type":"Feature","id":"parks-690982876","properties":{"id":"parks-690982876","name":"Eureka Valley Recreation Center"},"geometry":{"type":"Point","coordinates":[-122.4365559,37.7598956]}},{"type":"Feature","id":"parks-692740286","properties":{"id":"parks-692740286","name":"Gilman Playground"},"geometry":{"type":"Point","coordinates":[-122.3881291,37.7172465]}},{"type":"Feature","id":"parks-710726117","properties":{"id":"parks-710726117","name":"Prentiss Mini-Park"},"geometry":{"type":"Point","coordinates":[-122.4118936,37.7402259]}},{"type":"Feature","id":"parks-745183964","properties":{"id":"parks-745183964","name":"Alamo Square"},"geometry":{"type":"Point","coordinates":[-122.4346963,37.7763606]}},{"type":"Feature","id":"parks-760887313","properties":{"id":"parks-760887313","name":"Dogpatch Arts Plaza"},"geometry":{"type":"Point","coordinates":[-122.3918145,37.7615964]}},{"type":"Feature","id":"parks-772905204","properties":{"id":"parks-772905204","name":"Francisco Park"},"geometry":{"type":"Point","coordinates":[-122.4208797,37.8039599]}},{"type":"Feature","id":"parks-817970857","properties":{"id":"parks-817970857","name":"Frank Cresci Plaza"},"geometry":{"type":"Point","coordinates":[-122.4153115,37.8071558]}},{"type":"Feature","id":"parks-817970858","properties":{"id":"parks-817970858","name":"Molinari Mana Park"},"geometry":{"type":"Point","coordinates":[-122.4152979,37.8000928]}},{"type":"Feature","id":"parks-827232079","properties":{"id":"parks-827232079","name":"15th Avenue Steps"},"geometry":{"type":"Point","coordinates":[-122.4723501,37.7595558]}},{"type":"Feature","id":"parks-853562207","properties":{"id":"parks-853562207","name":"Crane Cove Park"},"geometry":{"type":"Point","coordinates":[-122.3869691,37.7628344]}},{"type":"Feature","id":"parks-881786125","properties":{"id":"parks-881786125","name":"Hunters Point Community Youth Park"},"geometry":{"type":"Point","coordinates":[-122.3802517,37.7341024]}},{"type":"Feature","id":"parks-896246128","properties":{"id":"parks-896246128","name":"PG&E Plaza"},"geometry":{"type":"Point","coordinates":[-122.393955,37.7875204]}},{"type":"Feature","id":"parks-908050668","properties":{"id":"parks-908050668","name":"Ella Hill Hutch Community Center"},"geometry":{"type":"Point","coordinates":[-122.429298,37.7794323]}},{"type":"Feature","id":"parks-941913562","properties":{"id":"parks-941913562","name":"War Memorial Court"},"geometry":{"type":"Point","coordinates":[-122.4210744,37.7790394]}},{"type":"Feature","id":"parks-1019793323","properties":{"id":"parks-1019793323","name":"Deepistan National Parklet"},"geometry":{"type":"Point","coordinates":[-122.4211305,37.7578537]}},{"type":"Feature","id":"parks-1052763860","properties":{"id":"parks-1052763860","name":"Treat Plaza"},"geometry":{"type":"Point","coordinates":[-122.4132828,37.7652052]}},{"type":"Feature","id":"parks-1052927678","properties":{"id":"parks-1052927678","name":"Yosemite Slough"},"geometry":{"type":"Point","coordinates":[-122.3829129,37.7240731]}},{"type":"Feature","id":"parks-1059959157","properties":{"id":"parks-1059959157","name":"The Parks at 5M"},"geometry":{"type":"Point","coordinates":[-122.4063,37.7816241]}},{"type":"Feature","id":"parks-1117035593","properties":{"id":"parks-1117035593","name":"Grandview Open Space"},"geometry":{"type":"Point","coordinates":[-122.4724281,37.7549649]}},{"type":"Feature","id":"parks-1193456304","properties":{"id":"parks-1193456304","name":"Pier 29 Public Shore"},"geometry":{"type":"Point","coordinates":[-122.4012847,37.8072172]}},{"type":"Feature","id":"parks-1193867827","properties":{"id":"parks-1193867827","name":"The Commons"},"geometry":{"type":"Point","coordinates":[-122.4164266,37.7764648]}},{"type":"Feature","id":"parks-1214385020","properties":{"id":"parks-1214385020","name":"moscone dog play area"},"geometry":{"type":"Point","coordinates":[-122.434566,37.8016987]}},{"type":"Feature","id":"parks-1232563108","properties":{"id":"parks-1232563108","name":"Rincon Place"},"geometry":{"type":"Point","coordinates":[-122.3914939,37.7883842]}},{"type":"Feature","id":"parks-1257968471","properties":{"id":"parks-1257968471","name":"Ecker Square"},"geometry":{"type":"Point","coordinates":[-122.3987125,37.7896269]}},{"type":"Feature","id":"parks-1259165711","properties":{"id":"parks-1259165711","name":"Urban Alchemy Oasis"},"geometry":{"type":"Point","coordinates":[-122.4155574,37.7828319]}},{"type":"Feature","id":"parks-1286999777","properties":{"id":"parks-1286999777","name":"Urban Park"},"geometry":{"type":"Point","coordinates":[-122.3953235,37.7909754]}},{"type":"Feature","id":"parks-1293746220","properties":{"id":"parks-1293746220","name":"Mandalay Lane Park"},"geometry":{"type":"Point","coordinates":[-122.4714214,37.7507231]}},{"type":"Feature","id":"parks-1293746848","properties":{"id":"parks-1293746848","name":"Sunset Reservoir Park"},"geometry":{"type":"Point","coordinates":[-122.4837586,37.7501865]}},{"type":"Feature","id":"parks-1300623937","properties":{"id":"parks-1300623937","name":"Al's Park"},"geometry":{"type":"Point","coordinates":[-122.445436,37.7594665]}},{"type":"Feature","id":"parks-1329130170","properties":{"id":"parks-1329130170","name":"Bayfront Park"},"geometry":{"type":"Point","coordinates":[-122.3856329,37.7682045]}},{"type":"Feature","id":"parks-1475421299","properties":{"id":"parks-1475421299","name":"Corbett Slope Community Park"},"geometry":{"type":"Point","coordinates":[-122.4445566,37.7601565]}},{"type":"Feature","id":"parks-1485542870","properties":{"id":"parks-1485542870","name":"Outpost Meadow"},"geometry":{"type":"Point","coordinates":[-122.458105,37.8033975]}},{"type":"Feature","id":"parks-1504165512","properties":{"id":"parks-1504165512","name":"Pennsylvania Garden"},"geometry":{"type":"Point","coordinates":[-122.3933417,37.7631509]}},{"type":"Feature","id":"parks-2142026","properties":{"id":"parks-2142026","name":"Lands End"},"geometry":{"type":"Point","coordinates":[-122.5042552,37.7838469]}},{"type":"Feature","id":"parks-2173408","properties":{"id":"parks-2173408","name":"China Beach"},"geometry":{"type":"Point","coordinates":[-122.4912406,37.7880625]}},{"type":"Feature","id":"parks-6061042","properties":{"id":"parks-6061042","name":"Saint Mary's Park"},"geometry":{"type":"Point","coordinates":[-122.420733,37.7336725]}},{"type":"Feature","id":"parks-8346137","properties":{"id":"parks-8346137","name":"Presidio of San Francisco"},"geometry":{"type":"Point","coordinates":[-122.4661822,37.7989163]}},{"type":"Feature","id":"parks-8510184","properties":{"id":"parks-8510184","name":"Lincoln Park"},"geometry":{"type":"Point","coordinates":[-122.4992084,37.7842783]}},{"type":"Feature","id":"parks-8524888","properties":{"id":"parks-8524888","name":"Salesforce Park"},"geometry":{"type":"Point","coordinates":[-122.3968711,37.7891167]}},{"type":"Feature","id":"parks-8820057","properties":{"id":"parks-8820057","name":"Brotherhood-Head Mini Park"},"geometry":{"type":"Point","coordinates":[-122.4755768,37.7143223]}},{"type":"Feature","id":"parks-13790250","properties":{"id":"parks-13790250","name":"Sue Bierman Park"},"geometry":{"type":"Point","coordinates":[-122.3966001,37.7959389]}},{"type":"Feature","id":"parks-16800880","properties":{"id":"parks-16800880","name":"Mount Davidson Park"},"geometry":{"type":"Point","coordinates":[-122.4547898,37.7387791]}}]}