{"type":"FeatureCollection","features":[{"type":"Feature","id":"mountains-331937887","properties":{"id":"mountains-331937887","name":"Corona Heights"},"geometry":{"type":"Point","coordinates":[-122.4393677,37.7648857]}},{"type":"Feature","id":"mountains-358777608","properties":{"id":"mountains-358777608","name":"Noe Peak"},"geometry":{"type":"Point","coordinates":[-122.447749,37.7515972]}},{"type":"Feature","id":"mountains-358803211","properties":{"id":"mountains-358803211","name":"Bay View Hill"},"geometry":{"type":"Point","coordinates":[-122.3933867,37.7150483]}},{"type":"Feature","id":"mountains-358803216","properties":{"id":"mountains-358803216","name":"Buena Vista Heights"},"geometry":{"type":"Point","coordinates":[-122.4415675,37.7677606]}},{"type":"Feature","id":"mountains-358803302","properties":{"id":"mountains-358803302","name":"Ignatius Heights"},"geometry":{"type":"Point","coordinates":[-122.4510825,37.7763186]}},{"type":"Feature","id":"mountains-358803483","properties":{"id":"mountains-358803483","name":"Visitacion Knob"},"geometry":{"type":"Point","coordinates":[-122.4218131,37.7192828]}},{"type":"Feature","id":"mountains-358806089","properties":{"id":"mountains-358806089","name":"Bernal Hill"},"geometry":{"type":"Point","coordinates":[-122.415804,37.7429861]}},{"type":"Feature","id":"mountains-358806322","properties":{"id":"mountains-358806322","name":"Mount Davidson"},"geometry":{"type":"Point","coordinates":[-122.453304,37.7382643]}},{"type":"Feature","id":"mountains-358806769","properties":{"id":"mountains-358806769","name":"Lone Mountain"},"geometry":{"type":"Point","coordinates":[-122.4519159,37.7790963]}},{"type":"Feature","id":"mountains-358806914","properties":{"id":"mountains-358806914","name":"Nob Hill"},"geometry":{"type":"Point","coordinates":[-122.415249,37.7932622]}},{"type":"Feature","id":"mountains-358807008","properties":{"id":"mountains-358807008","name":"Mount Olympus"},"geometry":{"type":"Point","coordinates":[-122.445539,37.763318]}},{"type":"Feature","id":"mountains-358807125","properties":{"id":"mountains-358807125","name":"Potrero Hill"},"geometry":{"type":"Point","coordinates":[-122.3991374,37.7565834]}},{"type":"Feature","id":"mountains-358807183","properties":{"id":"mountains-358807183","name":"Rincon Hill"},"geometry":{"type":"Point","coordinates":[-122.3919152,37.7852068]}},{"type":"Feature","id":"mountains-358807215","properties":{"id":"mountains-358807215","name":"Russian Hill"},"geometry":{"type":"Point","coordinates":[-122.4149712,37.7977066]}},{"type":"Feature","id":"mountains-358807454","properties":{"id":"mountains-358807454","name":"Strawberry Hill"},"geometry":{"type":"Point","coordinates":[-122.475527,37.7685412]}},{"type":"Feature","id":"mountains-358807538","properties":{"id":"mountains-358807538","name":"Telegraph Hill"},"geometry":{"type":"Point","coordinates":[-122.405851,37.8027297]}},{"type":"Feature","id":"mountains-358849983","properties":{"id":"mountains-358849983","name":"Stony Hill"},"geometry":{"type":"Point","coordinates":[-122.3844151,37.734375]}},{"type":"Feature","id":"mountains-358851218","properties":{"id":"mountains-358851218","name":"Presidio Hill"},"geometry":{"type":"Point","coordinates":[-122.4643016,37.7937074]}},{"type":"Feature","id":"mountains-358851226","properties":{"id":"mountains-358851226","name":"Rob Hill"},"geometry":{"type":"Point","coordinates":[-122.4763609,37.7954848]}},{"type":"Feature","id":"mountains-7706067157","properties":{"id":"mountains-7706067157","name":"Gold Mine Hill"},"geometry":{"type":"Point","coordinates":[-122.4374384,37.741347]}},{"type":"Feature","id":"mountains-7706067158","properties":{"id":"mountains-7706067158","name":"Red Rock Hill"},"geometry":{"type":"Point","coordinates":[-122.4417717,37.7461887]}},{"type":"Feature","id":"mountains-7706067159","properties":{"id":"mountains-7706067159","name":"Duncan Hill"},"geometry":{"type":"Point","coordinates":[-122.4333891,37.7458736]}},{"type":"Feature","id":"mountains-7706067160","properties":{"id":"mountains-7706067160","name":"Castro Hill"},"geometry":{"type":"Point","coordinates":[-122.4355318,37.7550397]}},{"type":"Feature","id":"mountains-7706067161","properties":{"id":"mountains-7706067161","name":"Dolores Heights"},"geometry":{"type":"Point","coordinates":[-122.4309321,37.756118]}},{"type":"Feature","id":"mountains-7706067162","properties":{"id":"mountains-7706067162","name":"Edgehill Heights"},"geometry":{"type":"Point","coordinates":[-122.4593614,37.7428632]}},{"type":"Feature","id":"mountains-7707827580","properties":{"id":"mountains-7707827580","name":"Forest Hill"},"geometry":{"type":"Point","coordinates":[-122.4671678,37.7480759]}},{"type":"Feature","id":"mountains-7707827581","properties":{"id":"mountains-7707827581","name":"Larsen Peak"},"geometry":{"type":"Point","coordinates":[-122.4688588,37.7499334]}},{"type":"Feature","id":"mountains-7707827583","properties":{"id":"mountains-7707827583","name":"Grand View Hill"},"geometry":{"type":"Point","coordinates":[-122.4718262,37.756326]}},{"type":"Feature","id":"mountains-7707941355","properties":{"id":"mountains-7707941355","name":"Lafayette Heights"},"geometry":{"type":"Point","coordinates":[-122.4276604,37.7919294]}},{"type":"Feature","id":"mountains-7707941356","properties":{"id":"mountains-7707941356","name":"Cannon Hill"},"geometry":{"type":"Point","coordinates":[-122.4463105,37.7918925]}},{"type":"Feature","id":"mountains-7707941357","properties":{"id":"mountains-7707941357","name":"Laurel Hill"},"geometry":{"type":"Point","coordinates":[-122.4486936,37.7842629]}},{"type":"Feature","id":"mountains-7707941359","properties":{"id":"mountains-7707941359","name":"Alamo Heights"},"geometry":{"type":"Point","coordinates":[-122.4347984,37.7757831]}},{"type":"Feature","id":"mountains-7707941360","properties":{"id":"mountains-7707941360","name":"City College Hill"},"geometry":{"type":"Point","coordinates":[-122.4511596,37.7257953]}},{"type":"Feature","id":"mountains-7707941361","properties":{"id":"mountains-7707941361","name":"Tank Hill"},"geometry":{"type":"Point","coordinates":[-122.4475292,37.7600157]}},{"type":"Feature","id":"mountains-7707941362","properties":{"id":"mountains-7707941362","name":"Horner's Hill"},"geometry":{"type":"Point","coordinates":[-122.4254469,37.7510038]}},{"type":"Feature","id":"mountains-7707941363","properties":{"id":"mountains-7707941363","name":"Kite Hill"},"geometry":{"type":"Point","coordinates":[-122.4413602,37.7583261]}},{"type":"Feature","id":"mountains-7707959961","properties":{"id":"mountains-7707959961","name":"Clarendon Heights"},"geometry":{"type":"Point","coordinates":[-122.452872,37.755154]}},{"type":"Feature","id":"mountains-9763233966","properties":{"id":"mountains-9763233966","name":"Heidelberg Hill"},"geometry":{"type":"Point","coordinates":[-122.469061,37.7682394]}},{"type":"Feature","id":"mountains-10203187389","properties":{"id":"mountains-10203187389","name":"Hayes Hill"},"geometry":{"type":"Point","coordinates":[-122.4346201,37.775968]}},{"type":"Feature","id":"mountains-11778387241","properties":{"id":"mountains-11778387241","name":"Eureka Peak"},"geometry":{"type":"Point","coordinates":[-122.4474225,37.7533227]}},{"type":"Feature","id":"mountains-12056865382","properties":{"id":"mountains-12056865382","name":"Mount Sutro"},"geometry":{"type":"Point","coordinates":[-122.4571803,37.758106]}}]}