{"type":"FeatureCollection","features":[{"type":"Feature","id":"movieTheaters-140982581","properties":{"id":"movieTheaters-140982581","name":"Opera Plaza Cinema"},"geometry":{"type":"Point","coordinates":[-122.4215607,37.7813758]}},{"type":"Feature","id":"movieTheaters-302742486","properties":{"id":"movieTheaters-302742486","name":"AMC Loews Metreon 16"},"geometry":{"type":"Point","coordinates":[-122.4037068,37.784464]}},{"type":"Feature","id":"movieTheaters-420514871","properties":{"id":"movieTheaters-420514871","name":"AMC Dine-In Kabuki 8"},"geometry":{"type":"Point","coordinates":[-122.4325871,37.7850975]}},{"type":"Feature","id":"movieTheaters-1834964005","properties":{"id":"movieTheaters-1834964005","name":"Balboa Theatre"},"geometry":{"type":"Point","coordinates":[-122.4979651,37.7758105]}},{"type":"Feature","id":"movieTheaters-2042397283","properties":{"id":"movieTheaters-2042397283","name":"Roxie"},"geometry":{"type":"Point","coordinates":[-122.422363,37.7647569]}},{"type":"Feature","id":"movieTheaters-2074158492","properties":{"id":"movieTheaters-2074158492","name":"4 Star Theater"},"geometry":{"type":"Point","coordinates":[-122.482927,37.7822709]}},{"type":"Feature","id":"movieTheaters-2076966501","properties":{"id":"movieTheaters-2076966501","name":"Marina Theatre"},"geometry":{"type":"Point","coordinates":[-122.4385496,37.8003762]}},{"type":"Feature","id":"movieTheaters-2339601284","properties":{"id":"movieTheaters-2339601284","name":"Presidio Theater"},"geometry":{"type":"Point","coordinates":[-122.441971,37.800321]}},{"type":"Feature","id":"movieTheaters-4611835607","properties":{"id":"movieTheaters-4611835607","name":"7D Experience"},"geometry":{"type":"Point","coordinates":[-122.4103727,37.8107541]}},{"type":"Feature","id":"movieTheaters-9354357657","properties":{"id":"movieTheaters-9354357657","name":"Apple Cinemas Van Ness"},"geometry":{"type":"Point","coordinates":[-122.420949,37.7849617]}},{"type":"Feature","id":"movieTheaters-10610255657","properties":{"id":"movieTheaters-10610255657","name":"Regal Stonestown Galleria"},"geometry":{"type":"Point","coordinates":[-122.4765953,37.7292826]}},{"type":"Feature","id":"movieTheaters-14142758738","properties":{"id":"movieTheaters-14142758738","name":"New People Cinema"},"geometry":{"type":"Point","coordinates":[-122.4305919,37.7858178]}},{"type":"Feature","id":"movieTheaters-263646726","properties":{"id":"movieTheaters-263646726","name":"Vogue Theatre"},"geometry":{"type":"Point","coordinates":[-122.4467224,37.7884236]}},{"type":"Feature","id":"movieTheaters-783516370","properties":{"id":"movieTheaters-783516370","name":"Phyllis Wattis Theater"},"geometry":{"type":"Point","coordinates":[-122.400538,37.7860566]}},{"type":"Feature","id":"movieTheaters-1206216224","properties":{"id":"movieTheaters-1206216224","name":"Castro Theatre"},"geometry":{"type":"Point","coordinates":[-122.434748,37.7619998]}},{"type":"Feature","id":"movieTheaters-20579467","properties":{"id":"movieTheaters-20579467","name":"Alamo Drafthouse Cinema"},"geometry":{"type":"Point","coordinates":[-122.4194045,37.7560991]}}]}