{"type":"FeatureCollection","features":[{"type":"Feature","id":"golfCourses-16650363","properties":{"id":"golfCourses-16650363","name":"Presidio Golf Course"},"geometry":{"type":"Point","coordinates":[-122.4665358,37.7916311]}},{"type":"Feature","id":"golfCourses-16753068","properties":{"id":"golfCourses-16753068","name":"TPC Harding Park"},"geometry":{"type":"Point","coordinates":[-122.4916277,37.7218116]}},{"type":"Feature","id":"golfCourses-16753994","properties":{"id":"golfCourses-16753994","name":"San Francisco Golf Club"},"geometry":{"type":"Point","coordinates":[-122.4777811,37.7097025]}},{"type":"Feature","id":"golfCourses-24569234","properties":{"id":"golfCourses-24569234","name":"Gleneagles Golf Course"},"geometry":{"type":"Point","coordinates":[-122.4200383,37.7151219]}},{"type":"Feature","id":"golfCourses-30903221","properties":{"id":"golfCourses-30903221","name":"Golden Gate Park Golf Course"},"geometry":{"type":"Point","coordinates":[-122.5050409,37.7683329]}},{"type":"Feature","id":"golfCourses-1417078425","properties":{"id":"golfCourses-1417078425","name":"Olympic Club Lake Course"},"geometry":{"type":"Point","coordinates":[-122.4923835,37.7104327]}},{"type":"Feature","id":"golfCourses-2142043","properties":{"id":"golfCourses-2142043","name":"Lincoln Park Golf Course"},"geometry":{"type":"Point","coordinates":[-122.4991476,37.7841885]}},{"type":"Feature","id":"golfCourses-3573537","properties":{"id":"golfCourses-3573537","name":"Olympic Club Golf Course"},"geometry":{"type":"Point","coordinates":[-122.4936757,37.7090626]}}]}