{"type":"FeatureCollection","features":[{"type":"Feature","id":"water-358803314","properties":{"id":"water-358803314","name":"Lombard Street Reservoir"},"geometry":{"type":"Point","coordinates":[-122.4199713,37.8013176]}},{"type":"Feature","id":"water-16650677","properties":{"id":"water-16650677","name":"Mountain Lake"},"geometry":{"type":"Point","coordinates":[-122.4708282,37.7882551]}},{"type":"Feature","id":"water-16750564","properties":{"id":"water-16750564","name":"Spreckels Lake"},"geometry":{"type":"Point","coordinates":[-122.4939946,37.7709967]}},{"type":"Feature","id":"water-24295266","properties":{"id":"water-24295266","name":"Twin Peaks Reservoir"},"geometry":{"type":"Point","coordinates":[-122.4485354,37.7562478]}},{"type":"Feature","id":"water-24308365","properties":{"id":"water-24308365","name":"Fly Casting Pools"},"geometry":{"type":"Point","coordinates":[-122.4967994,37.7675524]}},{"type":"Feature","id":"water-24569473","properties":{"id":"water-24569473","name":"Upper Reservoir"},"geometry":{"type":"Point","coordinates":[-122.4222674,37.7212949]}},{"type":"Feature","id":"water-30969894","properties":{"id":"water-30969894","name":"Laguna Honda"},"geometry":{"type":"Point","coordinates":[-122.4619036,37.7528492]}},{"type":"Feature","id":"water-31860201","properties":{"id":"water-31860201","name":"Pine Lake"},"geometry":{"type":"Point","coordinates":[-122.4887966,37.736167]}},{"type":"Feature","id":"water-32776540","properties":{"id":"water-32776540","name":"Main pool house"},"geometry":{"type":"Point","coordinates":[-122.513774,37.780036]}},{"type":"Feature","id":"water-55953943","properties":{"id":"water-55953943","name":"Upper Lake"},"geometry":{"type":"Point","coordinates":[-122.5017812,37.7342317]}},{"type":"Feature","id":"water-100844313","properties":{"id":"water-100844313","name":"Elk Glen Lake"},"geometry":{"type":"Point","coordinates":[-122.481986,37.7674684]}},{"type":"Feature","id":"water-100844604","properties":{"id":"water-100844604","name":"Lloyd Lake"},"geometry":{"type":"Point","coordinates":[-122.4819164,37.7706156]}},{"type":"Feature","id":"water-100844658","properties":{"id":"water-100844658","name":"Metson Lake"},"geometry":{"type":"Point","coordinates":[-122.4894395,37.7671238]}},{"type":"Feature","id":"water-265332416","properties":{"id":"water-265332416","name":"Lily Pond"},"geometry":{"type":"Point","coordinates":[-122.4615484,37.7708285]}},{"type":"Feature","id":"water-288512968","properties":{"id":"water-288512968","name":"Ruth Asawa’s San Francisco Fountain"},"geometry":{"type":"Point","coordinates":[-122.4070753,37.7888804]}},{"type":"Feature","id":"water-388991375","properties":{"id":"water-388991375","name":"Dwarf Conifer Pond"},"geometry":{"type":"Point","coordinates":[-122.4685417,37.7665215]}},{"type":"Feature","id":"water-388991378","properties":{"id":"water-388991378","name":"Bamboo Pond"},"geometry":{"type":"Point","coordinates":[-122.4685999,37.7661947]}},{"type":"Feature","id":"water-427296593","properties":{"id":"water-427296593","name":"Yosemite Marsh"},"geometry":{"type":"Point","coordinates":[-122.4188113,37.7232129]}},{"type":"Feature","id":"water-494480008","properties":{"id":"water-494480008","name":"Garden of Remembrance Waterfall"},"geometry":{"type":"Point","coordinates":[-122.4791206,37.7225144]}},{"type":"Feature","id":"water-579720319","properties":{"id":"water-579720319","name":"Mission Creek"},"geometry":{"type":"Point","coordinates":[-122.3944261,37.7734401]}},{"type":"Feature","id":"water-910257043","properties":{"id":"water-910257043","name":"Alvord Lake"},"geometry":{"type":"Point","coordinates":[-122.4544681,37.7691272]}},{"type":"Feature","id":"water-1062189335","properties":{"id":"water-1062189335","name":"Anelli Pond"},"geometry":{"type":"Point","coordinates":[-122.4680952,37.7666298]}},{"type":"Feature","id":"water-12908","properties":{"id":"water-12908","name":"Blue Heron Lake"},"geometry":{"type":"Point","coordinates":[-122.4745927,37.7689918]}},{"type":"Feature","id":"water-1439751","properties":{"id":"water-1439751","name":"Mallard Lake"},"geometry":{"type":"Point","coordinates":[-122.4864007,37.7663986]}},{"type":"Feature","id":"water-1439752","properties":{"id":"water-1439752","name":"Middle Lake"},"geometry":{"type":"Point","coordinates":[-122.4992702,37.7670312]}},{"type":"Feature","id":"water-1439753","properties":{"id":"water-1439753","name":"South Lake"},"geometry":{"type":"Point","coordinates":[-122.4998265,37.7652635]}},{"type":"Feature","id":"water-2165709","properties":{"id":"water-2165709","name":"North Lake"},"geometry":{"type":"Point","coordinates":[-122.5024121,37.7696033]}},{"type":"Feature","id":"water-2792384","properties":{"id":"water-2792384","name":"McBean Wildfowl Pond"},"geometry":{"type":"Point","coordinates":[-122.469921,37.7683326]}},{"type":"Feature","id":"water-5695999","properties":{"id":"water-5695999","name":"Lower Lake"},"geometry":{"type":"Point","coordinates":[-122.4991658,37.7328016]}},{"type":"Feature","id":"water-6399236","properties":{"id":"water-6399236","name":"McNab Lake"},"geometry":{"type":"Point","coordinates":[-122.4145255,37.7219931]}},{"type":"Feature","id":"water-16308125","properties":{"id":"water-16308125","name":"Lake Merced"},"geometry":{"type":"Point","coordinates":[-122.493704,37.7196985]}}]}