{"type":"FeatureCollection","features":[{"type":"Feature","id":"libraries-317124778","properties":{"id":"libraries-317124778","name":"Mission Bay Branch Library"},"geometry":{"type":"Point","coordinates":[-122.3932,37.7753882]}},{"type":"Feature","id":"libraries-368168766","properties":{"id":"libraries-368168766","name":"Far West Library for Educational Research and Development"},"geometry":{"type":"Point","coordinates":[-122.414971,37.7671519]}},{"type":"Feature","id":"libraries-368168767","properties":{"id":"libraries-368168767","name":"Anne Bremer Memorial Library"},"geometry":{"type":"Point","coordinates":[-122.4169157,37.8035397]}},{"type":"Feature","id":"libraries-392199341","properties":{"id":"libraries-392199341","name":"Mechanics' Institute Library and Chess Room"},"geometry":{"type":"Point","coordinates":[-122.403035,37.7888454]}},{"type":"Feature","id":"libraries-1350875345","properties":{"id":"libraries-1350875345","name":"Helen Crocker Russell Horticultural Library"},"geometry":{"type":"Point","coordinates":[-122.467438,37.766948]}},{"type":"Feature","id":"libraries-2156330481","properties":{"id":"libraries-2156330481","name":"Simpson Library"},"geometry":{"type":"Point","coordinates":[-122.3995791,37.7670248]}},{"type":"Feature","id":"libraries-2713423199","properties":{"id":"libraries-2713423199","name":"Geography Department Map Library"},"geometry":{"type":"Point","coordinates":[-122.4757211,37.7221747]}},{"type":"Feature","id":"libraries-3184077146","properties":{"id":"libraries-3184077146","name":"Mission Temporary Branch, San Francisco Public Library"},"geometry":{"type":"Point","coordinates":[-122.420946,37.7531416]}},{"type":"Feature","id":"libraries-3622668126","properties":{"id":"libraries-3622668126","name":"Christian Science Reading Room"},"geometry":{"type":"Point","coordinates":[-122.4684411,37.7387426]}},{"type":"Feature","id":"libraries-4343636457","properties":{"id":"libraries-4343636457","name":"St Francis Memorial Hospital Library"},"geometry":{"type":"Point","coordinates":[-122.4169478,37.7898079]}},{"type":"Feature","id":"libraries-4556518025","properties":{"id":"libraries-4556518025","name":"Erik Erikson Library"},"geometry":{"type":"Point","coordinates":[-122.4067378,37.7810853]}},{"type":"Feature","id":"libraries-5213342143","properties":{"id":"libraries-5213342143","name":"USF Seed Library"},"geometry":{"type":"Point","coordinates":[-122.4520869,37.7767261]}},{"type":"Feature","id":"libraries-5902652921","properties":{"id":"libraries-5902652921","name":"Maritime Research Center"},"geometry":{"type":"Point","coordinates":[-122.430486,37.8069312]}},{"type":"Feature","id":"libraries-6582592284","properties":{"id":"libraries-6582592284","name":"Salesforce Park Children’s Reading Room"},"geometry":{"type":"Point","coordinates":[-122.3964404,37.7895789]}},{"type":"Feature","id":"libraries-11701397826","properties":{"id":"libraries-11701397826","name":"Internet Archive"},"geometry":{"type":"Point","coordinates":[-122.4715708,37.7822888]}},{"type":"Feature","id":"libraries-14038495202","properties":{"id":"libraries-14038495202","name":"Prelinger Library"},"geometry":{"type":"Point","coordinates":[-122.4094877,37.7751827]}},{"type":"Feature","id":"libraries-14088907401","properties":{"id":"libraries-14088907401","name":"Prelinger Library"},"geometry":{"type":"Point","coordinates":[-122.4095031,37.7752393]}},{"type":"Feature","id":"libraries-24446086","properties":{"id":"libraries-24446086","name":"San Francisco Public Library - Main Library"},"geometry":{"type":"Point","coordinates":[-122.4157709,37.7791272]}},{"type":"Feature","id":"libraries-32146723","properties":{"id":"libraries-32146723","name":"Noe Valley / Sally Brunn Branch Library"},"geometry":{"type":"Point","coordinates":[-122.4351168,37.7501884]}},{"type":"Feature","id":"libraries-35065740","properties":{"id":"libraries-35065740","name":"North Beach Branch Library"},"geometry":{"type":"Point","coordinates":[-122.4132332,37.8025679]}},{"type":"Feature","id":"libraries-68876388","properties":{"id":"libraries-68876388","name":"Richmond / Senator Milton Marks Branch Library"},"geometry":{"type":"Point","coordinates":[-122.4681394,37.7818476]}},{"type":"Feature","id":"libraries-68876641","properties":{"id":"libraries-68876641","name":"Richmond Branch - San Francisco Public Library"},"geometry":{"type":"Point","coordinates":[-122.4681147,37.7818523]}},{"type":"Feature","id":"libraries-159024969","properties":{"id":"libraries-159024969","name":"Ingleside Branch Library"},"geometry":{"type":"Point","coordinates":[-122.4562484,37.7241348]}},{"type":"Feature","id":"libraries-160833249","properties":{"id":"libraries-160833249","name":"Presidio Branch Library"},"geometry":{"type":"Point","coordinates":[-122.4448527,37.7888849]}},{"type":"Feature","id":"libraries-160833254","properties":{"id":"libraries-160833254","name":"Western Addition Branch Library"},"geometry":{"type":"Point","coordinates":[-122.4375667,37.7841234]}},{"type":"Feature","id":"libraries-162056246","properties":{"id":"libraries-162056246","name":"Chinatown / Him Mark Lai Branch Library"},"geometry":{"type":"Point","coordinates":[-122.4102156,37.7952262]}},{"type":"Feature","id":"libraries-162470883","properties":{"id":"libraries-162470883","name":"Ortega Branch Library"},"geometry":{"type":"Point","coordinates":[-122.4980855,37.751172]}},{"type":"Feature","id":"libraries-162518029","properties":{"id":"libraries-162518029","name":"Anza Branch Library"},"geometry":{"type":"Point","coordinates":[-122.4972077,37.7785244]}},{"type":"Feature","id":"libraries-194904852","properties":{"id":"libraries-194904852","name":"Glen Park Branch Library"},"geometry":{"type":"Point","coordinates":[-122.4336409,37.7339779]}},{"type":"Feature","id":"libraries-195467121","properties":{"id":"libraries-195467121","name":"Portola Branch Library"},"geometry":{"type":"Point","coordinates":[-122.4063713,37.7271063]}},{"type":"Feature","id":"libraries-211233504","properties":{"id":"libraries-211233504","name":"Parkside Branch Library"},"geometry":{"type":"Point","coordinates":[-122.4793107,37.7431361]}},{"type":"Feature","id":"libraries-220601174","properties":{"id":"libraries-220601174","name":"Park Branch Library"},"geometry":{"type":"Point","coordinates":[-122.4510145,37.7701504]}},{"type":"Feature","id":"libraries-225063373","properties":{"id":"libraries-225063373","name":"Bernal Heights Branch Library"},"geometry":{"type":"Point","coordinates":[-122.4161484,37.738855]}},{"type":"Feature","id":"libraries-256447055","properties":{"id":"libraries-256447055","name":"Eureka Valley / Harvey Milk Memorial Branch Library"},"geometry":{"type":"Point","coordinates":[-122.4319056,37.7640473]}},{"type":"Feature","id":"libraries-259078177","properties":{"id":"libraries-259078177","name":"Golden Gate Valley Branch Library"},"geometry":{"type":"Point","coordinates":[-122.4290331,37.7967874]}},{"type":"Feature","id":"libraries-267263053","properties":{"id":"libraries-267263053","name":"Potrero Branch Library"},"geometry":{"type":"Point","coordinates":[-122.3976619,37.7601232]}},{"type":"Feature","id":"libraries-267733991","properties":{"id":"libraries-267733991","name":"Sunset Branch Library"},"geometry":{"type":"Point","coordinates":[-122.4763171,37.7633717]}},{"type":"Feature","id":"libraries-273587509","properties":{"id":"libraries-273587509","name":"Richard A Gleeson Library"},"geometry":{"type":"Point","coordinates":[-122.4519251,37.7765189]}},{"type":"Feature","id":"libraries-277741614","properties":{"id":"libraries-277741614","name":"Ocean View Branch Library"},"geometry":{"type":"Point","coordinates":[-122.4659961,37.714143]}},{"type":"Feature","id":"libraries-277743956","properties":{"id":"libraries-277743956","name":"Visitacion Valley Branch Library"},"geometry":{"type":"Point","coordinates":[-122.4078973,37.7124704]}},{"type":"Feature","id":"libraries-277744246","properties":{"id":"libraries-277744246","name":"Bayview Branch Library"},"geometry":{"type":"Point","coordinates":[-122.391148,37.7325508]}},{"type":"Feature","id":"libraries-288394771","properties":{"id":"libraries-288394771","name":"Marina Branch Library"},"geometry":{"type":"Point","coordinates":[-122.4341246,37.8014042]}},{"type":"Feature","id":"libraries-288633744","properties":{"id":"libraries-288633744","name":"Kalmanovitz Library"},"geometry":{"type":"Point","coordinates":[-122.4591646,37.7635352]}},{"type":"Feature","id":"libraries-288930678","properties":{"id":"libraries-288930678","name":"Merced Branch Library"},"geometry":{"type":"Point","coordinates":[-122.4744888,37.7266248]}},{"type":"Feature","id":"libraries-289915619","properties":{"id":"libraries-289915619","name":"Excelsior Branch Library"},"geometry":{"type":"Point","coordinates":[-122.4333058,37.7271266]}},{"type":"Feature","id":"libraries-338711158","properties":{"id":"libraries-338711158","name":"J. Paul Leonard Library"},"geometry":{"type":"Point","coordinates":[-122.4781324,37.7213854]}},{"type":"Feature","id":"libraries-415417770","properties":{"id":"libraries-415417770","name":"Dorraine Zief Law Library"},"geometry":{"type":"Point","coordinates":[-122.4517392,37.7748664]}},{"type":"Feature","id":"libraries-1213161847","properties":{"id":"libraries-1213161847","name":"West Portal Branch Library"},"geometry":{"type":"Point","coordinates":[-122.466169,37.7414019]}}]}