{"type":"FeatureCollection","features":[{"type":"Feature","id":"consulates-2495740311","properties":{"id":"consulates-2495740311","name":"French Consulate"},"geometry":{"type":"Point","coordinates":[-122.4034721,37.7887355]}},{"type":"Feature","id":"consulates-3135704977","properties":{"id":"consulates-3135704977","name":"Consulate General of Ukraine"},"geometry":{"type":"Point","coordinates":[-122.405996,37.7906404]}},{"type":"Feature","id":"consulates-3489778568","properties":{"id":"consulates-3489778568","name":"Consulate General of El Salvador"},"geometry":{"type":"Point","coordinates":[-122.4190293,37.7813621]}},{"type":"Feature","id":"consulates-3882858057","properties":{"id":"consulates-3882858057","name":"Consulate General of Switzerland in San Francisco"},"geometry":{"type":"Point","coordinates":[-122.4015926,37.7996898]}},{"type":"Feature","id":"consulates-4451241637","properties":{"id":"consulates-4451241637","name":"German Consulate General"},"geometry":{"type":"Point","coordinates":[-122.4273596,37.7936566]}},{"type":"Feature","id":"consulates-4696358427","properties":{"id":"consulates-4696358427","name":"The Netherlands Consulate General in San Francisco"},"geometry":{"type":"Point","coordinates":[-122.4033514,37.7892122]}},{"type":"Feature","id":"consulates-5463889676","properties":{"id":"consulates-5463889676","name":"Honorary Consulate General of the Czech Republic"},"geometry":{"type":"Point","coordinates":[-122.3951501,37.7911783]}},{"type":"Feature","id":"consulates-5734838623","properties":{"id":"consulates-5734838623","name":"British Consulate General San Francisco"},"geometry":{"type":"Point","coordinates":[-122.4013144,37.790359]}},{"type":"Feature","id":"consulates-6703901967","properties":{"id":"consulates-6703901967","name":"Consulate General of Luxembourg in San Francisco"},"geometry":{"type":"Point","coordinates":[-122.4011509,37.790484]}},{"type":"Feature","id":"consulates-7660999610","properties":{"id":"consulates-7660999610","name":"Consulate General of the Philippines"},"geometry":{"type":"Point","coordinates":[-122.4080214,37.78916]}},{"type":"Feature","id":"consulates-8086477049","properties":{"id":"consulates-8086477049","name":"Yemen Consulate"},"geometry":{"type":"Point","coordinates":[-122.420457,37.7878482]}},{"type":"Feature","id":"consulates-9039239245","properties":{"id":"consulates-9039239245","name":"Consulate General of the Republic of Korea"},"geometry":{"type":"Point","coordinates":[-122.4506929,37.7887758]}},{"type":"Feature","id":"consulates-9039259947","properties":{"id":"consulates-9039259947","name":"Consulate General of the Republic of Indonesia"},"geometry":{"type":"Point","coordinates":[-122.4166273,37.8045797]}},{"type":"Feature","id":"consulates-9456849306","properties":{"id":"consulates-9456849306","name":"Consulate General of Peru"},"geometry":{"type":"Point","coordinates":[-122.407303,37.7853991]}},{"type":"Feature","id":"consulates-9485438518","properties":{"id":"consulates-9485438518","name":"Consulado General De Guatemala"},"geometry":{"type":"Point","coordinates":[-122.4043153,37.7948949]}},{"type":"Feature","id":"consulates-9789013348","properties":{"id":"consulates-9789013348","name":"Consulate-General of Japan"},"geometry":{"type":"Point","coordinates":[-122.40029,37.7939753]}},{"type":"Feature","id":"consulates-10222803117","properties":{"id":"consulates-10222803117","name":"Consulate-General of Brazil"},"geometry":{"type":"Point","coordinates":[-122.4024634,37.7924176]}},{"type":"Feature","id":"consulates-11230135193","properties":{"id":"consulates-11230135193","name":"Consulate General of Estonia"},"geometry":{"type":"Point","coordinates":[-122.399023,37.7869631]}},{"type":"Feature","id":"consulates-11643636136","properties":{"id":"consulates-11643636136","name":"Australian Consulate-General"},"geometry":{"type":"Point","coordinates":[-122.4008605,37.7893464]}},{"type":"Feature","id":"consulates-12052087784","properties":{"id":"consulates-12052087784","name":"Taipei Economic and Cultural Office in San Francisco"},"geometry":{"type":"Point","coordinates":[-122.4003525,37.7816776]}},{"type":"Feature","id":"consulates-12278145475","properties":{"id":"consulates-12278145475","name":"Consulate General of Ireland"},"geometry":{"type":"Point","coordinates":[-122.4026634,37.788818]}},{"type":"Feature","id":"consulates-114709401","properties":{"id":"consulates-114709401","name":"Consulate General of Mexico, San Francisco"},"geometry":{"type":"Point","coordinates":[-122.3956796,37.7868334]}},{"type":"Feature","id":"consulates-175000613","properties":{"id":"consulates-175000613","name":"Consulate General of People's Republic of China"},"geometry":{"type":"Point","coordinates":[-122.427521,37.7846425]}},{"type":"Feature","id":"consulates-259266503","properties":{"id":"consulates-259266503","name":"Consulate General of Italy in San Francisco"},"geometry":{"type":"Point","coordinates":[-122.432957,37.7943133]}}]}