{"type":"FeatureCollection","features":[{"type":"Feature","id":"hospitals-5555408498","properties":{"id":"hospitals-5555408498","name":"UCSF Benioff Children's Hospital San Francisco"},"geometry":{"type":"Point","coordinates":[-122.3896641,37.7647716]}},{"type":"Feature","id":"hospitals-9865529017","properties":{"id":"hospitals-9865529017","name":"UC Medical Center Moffett & Long Hospitals"},"geometry":{"type":"Point","coordinates":[-122.4570483,37.7630641]}},{"type":"Feature","id":"hospitals-24446045","properties":{"id":"hospitals-24446045","name":"San Francisco General Hospital"},"geometry":{"type":"Point","coordinates":[-122.4052172,37.7567781]}},{"type":"Feature","id":"hospitals-112073351","properties":{"id":"hospitals-112073351","name":"CPMC Davies Campus"},"geometry":{"type":"Point","coordinates":[-122.4346212,37.7682569]}},{"type":"Feature","id":"hospitals-160702015","properties":{"id":"hospitals-160702015","name":"Saint Mary's Medical Center"},"geometry":{"type":"Point","coordinates":[-122.4536158,37.7739399]}},{"type":"Feature","id":"hospitals-160703804","properties":{"id":"hospitals-160703804","name":"Chinese Hospital"},"geometry":{"type":"Point","coordinates":[-122.4090035,37.7954771]}},{"type":"Feature","id":"hospitals-160705973","properties":{"id":"hospitals-160705973","name":"California Pacific Medical Center"},"geometry":{"type":"Point","coordinates":[-122.4322447,37.7906634]}},{"type":"Feature","id":"hospitals-160709337","properties":{"id":"hospitals-160709337","name":"CPMC Mission Bernal Campus"},"geometry":{"type":"Point","coordinates":[-122.4210918,37.7472485]}},{"type":"Feature","id":"hospitals-160710807","properties":{"id":"hospitals-160710807","name":"Saint Francis Memorial Hospital"},"geometry":{"type":"Point","coordinates":[-122.4168672,37.7896083]}},{"type":"Feature","id":"hospitals-160833241","properties":{"id":"hospitals-160833241","name":"CPMC California Campus"},"geometry":{"type":"Point","coordinates":[-122.4559321,37.7865654]}},{"type":"Feature","id":"hospitals-160833245","properties":{"id":"hospitals-160833245","name":"Kaiser Permanente Medical Center Geary Campus"},"geometry":{"type":"Point","coordinates":[-122.4418781,37.7828588]}},{"type":"Feature","id":"hospitals-160833250","properties":{"id":"hospitals-160833250","name":"UCSF Mount Zion Campus"},"geometry":{"type":"Point","coordinates":[-122.4393802,37.7848676]}},{"type":"Feature","id":"hospitals-160835902","properties":{"id":"hospitals-160835902","name":"Laguna Honda Hospital And Rehabilitation Center"},"geometry":{"type":"Point","coordinates":[-122.4573186,37.7492051]}},{"type":"Feature","id":"hospitals-288533921","properties":{"id":"hospitals-288533921","name":"CPMC Van Ness Campus"},"geometry":{"type":"Point","coordinates":[-122.4223676,37.7860517]}},{"type":"Feature","id":"hospitals-580277612","properties":{"id":"hospitals-580277612","name":"UCSF Medical Center at Mission Bay"},"geometry":{"type":"Point","coordinates":[-122.3907516,37.7655773]}},{"type":"Feature","id":"hospitals-2142027","properties":{"id":"hospitals-2142027","name":"San Francisco VA Medical Center"},"geometry":{"type":"Point","coordinates":[-122.505399,37.7824568]}}]}