{"type":"FeatureCollection","features":[{"type":"Feature","id":"theembarcaderostockton","properties":{"id":"theembarcaderostockton","name":"The Embarcadero & Stockton St"},"geometry":{"type":"Point","coordinates":[-122.410287,37.808351]}},{"type":"Feature","id":"kearnynorthpoint","properties":{"id":"kearnynorthpoint","name":"Kearny St & North Point St"},"geometry":{"type":"Point","coordinates":[-122.407211,37.807182]}},{"type":"Feature","id":"theembarcaderosansome","properties":{"id":"theembarcaderosansome","name":"The Embarcadero & Sansome St"},"geometry":{"type":"Point","coordinates":[-122.403314,37.805022]}},{"type":"Feature","id":"theembarcaderobroadway","properties":{"id":"theembarcaderobroadway","name":"The Embarcadero & Broadway"},"geometry":{"type":"Point","coordinates":[-122.397869,37.799552]}},{"type":"Feature","id":"doncheewaysteuart","properties":{"id":"doncheewaysteuart","name":"Don Chee Way/Steuart St"},"geometry":{"type":"Point","coordinates":[-122.393438,37.793918]}},{"type":"Feature","id":"theembarcaderofolsom","properties":{"id":"theembarcaderofolsom","name":"The Embarcadero & Folsom St"},"geometry":{"type":"Point","coordinates":[-122.389692,37.790481]}},{"type":"Feature","id":"theembarcaderotownsend","properties":{"id":"theembarcaderotownsend","name":"The Embarcadero & Townsend St"},"geometry":{"type":"Point","coordinates":[-122.38832,37.7836]}},{"type":"Feature","id":"king2nd","properties":{"id":"king2nd","name":"King St & 2nd St"},"geometry":{"type":"Point","coordinates":[-122.38955,37.7796]}},{"type":"Feature","id":"king4th","properties":{"id":"king4th","name":"King St & 4th St"},"geometry":{"type":"Point","coordinates":[-122.394173,37.776269]}},{"type":"Feature","id":"thirdmissionrock","properties":{"id":"thirdmissionrock","name":"Third Street & Mission Rock St"},"geometry":{"type":"Point","coordinates":[-122.389683,37.772984]}},{"type":"Feature","id":"ucsfchasecenter16th","properties":{"id":"ucsfchasecenter16th","name":"UCSF / Chase Center (16th Street)"},"geometry":{"type":"Point","coordinates":[-122.389366,37.768237]}},{"type":"Feature","id":"ucsfmedicalcentermariposa","properties":{"id":"ucsfmedicalcentermariposa","name":"UCSF Medical Center (Mariposa)"},"geometry":{"type":"Point","coordinates":[-122.388865,37.764239]}},{"type":"Feature","id":"third20th","properties":{"id":"third20th","name":"Third Street & 20th St"},"geometry":{"type":"Point","coordinates":[-122.388593,37.760367]}},{"type":"Feature","id":"thirdmarin","properties":{"id":"thirdmarin","name":"Third St & Marin St"},"geometry":{"type":"Point","coordinates":[-122.38741,37.748954]}},{"type":"Feature","id":"3rdevans","properties":{"id":"3rdevans","name":"3rd Street & Evans Ave"},"geometry":{"type":"Point","coordinates":[-122.387897,37.742521]}},{"type":"Feature","id":"gilman3rd","properties":{"id":"gilman3rd","name":"Gilman Ave & 3rd St"},"geometry":{"type":"Point","coordinates":[-122.395415,37.722458]}},{"type":"Feature","id":"thirdwilliams","properties":{"id":"thirdwilliams","name":"Third Street & Williams Ave"},"geometry":{"type":"Point","coordinates":[-122.392604,37.729291]}},{"type":"Feature","id":"3rdlasalle","properties":{"id":"3rdlasalle","name":"3rd St & La Salle Ave"},"geometry":{"type":"Point","coordinates":[-122.389803,37.737213]}},{"type":"Feature","id":"marketbeale","properties":{"id":"marketbeale","name":"Market St & Beale St"},"geometry":{"type":"Point","coordinates":[-122.397016,37.792572]}},{"type":"Feature","id":"metromontgomeryoutbound","properties":{"id":"metromontgomeryoutbound","name":"Metro Montgomery Station/Outbound"},"geometry":{"type":"Point","coordinates":[-122.402127,37.788791]}},{"type":"Feature","id":"metropowelldowntown","properties":{"id":"metropowelldowntown","name":"Metro Powell Station/Downtown"},"geometry":{"type":"Point","coordinates":[-122.407086,37.784653]}},{"type":"Feature","id":"market7th","properties":{"id":"market7th","name":"Market St & 7th St"},"geometry":{"type":"Point","coordinates":[-122.412441,37.780568]}},{"type":"Feature","id":"marketsouthvanness","properties":{"id":"marketsouthvanness","name":"Market St & South Van Ness Ave"},"geometry":{"type":"Point","coordinates":[-122.419321,37.775056]}},{"type":"Feature","id":"hydebeach","properties":{"id":"hydebeach","name":"Hyde St & Beach St"},"geometry":{"type":"Point","coordinates":[-122.420535,37.806642]}},{"type":"Feature","id":"jeffersontaylor","properties":{"id":"jeffersontaylor","name":"Jefferson St & Taylor St"},"geometry":{"type":"Point","coordinates":[-122.415514,37.80832]}},{"type":"Feature","id":"hydelombard","properties":{"id":"hydelombard","name":"Hyde St & Lombard St"},"geometry":{"type":"Point","coordinates":[-122.419562,37.801912]}},{"type":"Feature","id":"pacificleavenworth","properties":{"id":"pacificleavenworth","name":"Pacific Ave & Leavenworth St"},"geometry":{"type":"Point","coordinates":[-122.416744,37.795586]}},{"type":"Feature","id":"stocktonwashington","properties":{"id":"stocktonwashington","name":"Stockton St & Washington St"},"geometry":{"type":"Point","coordinates":[-122.408118,37.794707]}},{"type":"Feature","id":"sutterpowell","properties":{"id":"sutterpowell","name":"Sutter St & Powell St"},"geometry":{"type":"Point","coordinates":[-122.408677,37.789266]}},{"type":"Feature","id":"californialeavenworth","properties":{"id":"californialeavenworth","name":"California St & Leavenworth St"},"geometry":{"type":"Point","coordinates":[-122.415749,37.791133]}},{"type":"Feature","id":"16thmission","properties":{"id":"16thmission","name":"16th St & Mission St"},"geometry":{"type":"Point","coordinates":[-122.419611,37.765152]}},{"type":"Feature","id":"mission24th","properties":{"id":"mission24th","name":"Mission St & 24th St"},"geometry":{"type":"Point","coordinates":[-122.418528,37.751964]}},{"type":"Feature","id":"bayshoresunnydale","properties":{"id":"bayshoresunnydale","name":"Bayshore Blvd & Sunnydale Ave"},"geometry":{"type":"Point","coordinates":[-122.405113,37.70897]}},{"type":"Feature","id":"sunsettunneleastportal","properties":{"id":"sunsettunneleastportal","name":"Sunset Tunnel East Portal"},"geometry":{"type":"Point","coordinates":[-122.433511,37.769285]}},{"type":"Feature","id":"dubocechurch","properties":{"id":"dubocechurch","name":"Duboce Ave & Church St"},"geometry":{"type":"Point","coordinates":[-122.429351,37.769374]}},{"type":"Feature","id":"sunsetjudah","properties":{"id":"sunsetjudah","name":"Sunset Blvd & Judah St"},"geometry":{"type":"Point","coordinates":[-122.495646,37.76114]}},{"type":"Feature","id":"taraval30th","properties":{"id":"taraval30th","name":"Taraval St & 30th Ave"},"geometry":{"type":"Point","coordinates":[-122.487681,37.742494]}},{"type":"Feature","id":"sloat47th","properties":{"id":"sloat47th","name":"Sloat Blvd & 47th Ave"},"geometry":{"type":"Point","coordinates":[-122.50493,37.735394]}},{"type":"Feature","id":"taraval19th","properties":{"id":"taraval19th","name":"Taraval St & 19th Ave"},"geometry":{"type":"Point","coordinates":[-122.475444,37.74311]}},{"type":"Feature","id":"ulloa14th","properties":{"id":"ulloa14th","name":"Ulloa St & 14th Ave"},"geometry":{"type":"Point","coordinates":[-122.469969,37.7415]}},{"type":"Feature","id":"lagunahondaforesthillsta","properties":{"id":"lagunahondaforesthillsta","name":"Laguna Honda Blvd/Forest Hill Sta"},"geometry":{"type":"Point","coordinates":[-122.45887,37.748121]}},{"type":"Feature","id":"church18th","properties":{"id":"church18th","name":"Church St & 18th St"},"geometry":{"type":"Point","coordinates":[-122.428416,37.761467]}},{"type":"Feature","id":"24thchurch","properties":{"id":"24thchurch","name":"24th St & Church St"},"geometry":{"type":"Point","coordinates":[-122.427327,37.751778]}},{"type":"Feature","id":"castro17th","properties":{"id":"castro17th","name":"Castro St & 17th St"},"geometry":{"type":"Point","coordinates":[-122.43508,37.76237]}},{"type":"Feature","id":"19thwinstondr","properties":{"id":"19thwinstondr","name":"19th Ave & Winston Dr"},"geometry":{"type":"Point","coordinates":[-122.474846,37.727195]}},{"type":"Feature","id":"winstondr20th","properties":{"id":"winstondr20th","name":"Winston Dr & 20th Ave"},"geometry":{"type":"Point","coordinates":[-122.475922,37.727017]}},{"type":"Feature","id":"genevabalboaparkbart","properties":{"id":"genevabalboaparkbart","name":"Geneva Ave/Balboa Park BART"},"geometry":{"type":"Point","coordinates":[-122.446738,37.720801]}},{"type":"Feature","id":"citycollegeterminal","properties":{"id":"citycollegeterminal","name":"City College Terminal"},"geometry":{"type":"Point","coordinates":[-122.45259,37.723718]}},{"type":"Feature","id":"sanjosesantaynez","properties":{"id":"sanjosesantaynez","name":"San Jose Ave & Santa Ynez Ave"},"geometry":{"type":"Point","coordinates":[-122.442359,37.725877]}},{"type":"Feature","id":"randolphbright","properties":{"id":"randolphbright","name":"Randolph St & Bright St"},"geometry":{"type":"Point","coordinates":[-122.463392,37.714348]}},{"type":"Feature","id":"irving2nd","properties":{"id":"irving2nd","name":"Irving St & 2nd Ave"},"geometry":{"type":"Point","coordinates":[-122.458643,37.764441]}},{"type":"Feature","id":"9thjudah","properties":{"id":"9thjudah","name":"9th Ave & Judah St"},"geometry":{"type":"Point","coordinates":[-122.466241,37.76204]}},{"type":"Feature","id":"carlstanyan","properties":{"id":"carlstanyan","name":"Carl St & Stanyan St"},"geometry":{"type":"Point","coordinates":[-122.452928,37.765371]}},{"type":"Feature","id":"church26th","properties":{"id":"church26th","name":"Church St & 26th St"},"geometry":{"type":"Point","coordinates":[-122.42706,37.748416]}},{"type":"Feature","id":"oceanaptos","properties":{"id":"oceanaptos","name":"Ocean Ave & Aptos Ave"},"geometry":{"type":"Point","coordinates":[-122.467561,37.728285]}},{"type":"Feature","id":"22ndiowa","properties":{"id":"22ndiowa","name":"22nd St & Iowa St"},"geometry":{"type":"Point","coordinates":[-122.392308,37.757674]}}]}