{"type":"FeatureCollection","features":[{"type":"Feature","id":"theembarcaderostockton","properties":{"id":"theembarcaderostockton","name":"The Embarcadero & Stockton St","modes":["bus","metro"],"routes":["39","F","L-Owl"],"nameLength":29},"geometry":{"type":"Point","coordinates":[-122.410287,37.808351]}},{"type":"Feature","id":"kearnynorthpoint","properties":{"id":"kearnynorthpoint","name":"Kearny St & North Point St","modes":["bus","metro"],"routes":["114","132","154","172","F","L-Owl"],"nameLength":26},"geometry":{"type":"Point","coordinates":[-122.407211,37.807182]}},{"type":"Feature","id":"theembarcaderosansome","properties":{"id":"theembarcaderosansome","name":"The Embarcadero & Sansome St","modes":["bus","metro"],"routes":["F","L-Owl"],"nameLength":28},"geometry":{"type":"Point","coordinates":[-122.403314,37.805022]}},{"type":"Feature","id":"theembarcaderobroadway","properties":{"id":"theembarcaderobroadway","name":"The Embarcadero & Broadway","modes":["bus","metro"],"routes":["F","L-Owl"],"nameLength":26},"geometry":{"type":"Point","coordinates":[-122.397869,37.799552]}},{"type":"Feature","id":"doncheewaysteuart","properties":{"id":"doncheewaysteuart","name":"Don Chee Way/Steuart St","modes":["bus","metro"],"routes":["14","F","L-Owl","N-Owl"],"nameLength":23},"geometry":{"type":"Point","coordinates":[-122.393438,37.793918]}},{"type":"Feature","id":"theembarcaderofolsom","properties":{"id":"theembarcaderofolsom","name":"The Embarcadero & Folsom St","modes":["bus","metro"],"routes":["N","N-Owl","NBUS","S","TBUS"],"nameLength":27},"geometry":{"type":"Point","coordinates":[-122.389692,37.790481]}},{"type":"Feature","id":"theembarcaderotownsend","properties":{"id":"theembarcaderotownsend","name":"The Embarcadero & Townsend St","modes":["bus","metro"],"routes":["N","N-Owl","NBUS","S","TBUS"],"nameLength":29},"geometry":{"type":"Point","coordinates":[-122.38832,37.7836]}},{"type":"Feature","id":"king2nd","properties":{"id":"king2nd","name":"King St & 2nd St","modes":["bus","metro"],"routes":["N","S"],"nameLength":16},"geometry":{"type":"Point","coordinates":[-122.38955,37.7796]}},{"type":"Feature","id":"king4th","properties":{"id":"king4th","name":"King St & 4th St","modes":["bus","metro","rail"],"routes":["1XX","4XX","5XX","6XX","91","East","N","S","T","TBUS","Transbay","Weekend Post-Game","Weekend Pre-Game","West"],"nameLength":16},"geometry":{"type":"Point","coordinates":[-122.394173,37.776269]}},{"type":"Feature","id":"townsend7th","properties":{"id":"townsend7th","name":"Townsend St & 7th St","modes":["bus"],"routes":[],"nameLength":20},"geometry":{"type":"Point","coordinates":[-122.402383,37.771142]}},{"type":"Feature","id":"thirdmissionrock","properties":{"id":"thirdmissionrock","name":"Third Street & Mission Rock St","modes":["bus","metro"],"routes":["91","T","TBUS"],"nameLength":30},"geometry":{"type":"Point","coordinates":[-122.389683,37.772984]}},{"type":"Feature","id":"ucsfchasecenter16th","properties":{"id":"ucsfchasecenter16th","name":"UCSF / Chase Center (16th Street)","modes":["bus","metro"],"routes":["T"],"nameLength":33},"geometry":{"type":"Point","coordinates":[-122.389366,37.768237]}},{"type":"Feature","id":"ucsfmedicalcentermariposa","properties":{"id":"ucsfmedicalcentermariposa","name":"UCSF Medical Center (Mariposa)","modes":["bus","metro"],"routes":["91","T","TBUS"],"nameLength":30},"geometry":{"type":"Point","coordinates":[-122.388865,37.764239]}},{"type":"Feature","id":"third20th","properties":{"id":"third20th","name":"Third Street & 20th St","modes":["bus","metro"],"routes":["15","48","55","91","T","TBUS"],"nameLength":22},"geometry":{"type":"Point","coordinates":[-122.388593,37.760367]}},{"type":"Feature","id":"thirdmarin","properties":{"id":"thirdmarin","name":"Third St & Marin St","modes":["bus","metro"],"routes":["15","91","T","TBUS"],"nameLength":19},"geometry":{"type":"Point","coordinates":[-122.38741,37.748954]}},{"type":"Feature","id":"3rdevans","properties":{"id":"3rdevans","name":"3rd Street & Evans Ave","modes":["bus","metro"],"routes":["15","19","44","91","T","TBUS"],"nameLength":22},"geometry":{"type":"Point","coordinates":[-122.387897,37.742521]}},{"type":"Feature","id":"evanskeith","properties":{"id":"evanskeith","name":"Evans Ave & Keith St","modes":["bus"],"routes":[],"nameLength":20},"geometry":{"type":"Point","coordinates":[-122.380797,37.73877]}},{"type":"Feature","id":"hudsoningalls","properties":{"id":"hudsoningalls","name":"Hudson Ave & Ingalls St","modes":["bus"],"routes":[],"nameLength":23},"geometry":{"type":"Point","coordinates":[-122.37991,37.732497]}},{"type":"Feature","id":"galvezhill","properties":{"id":"galvezhill","name":"Galvez Ave & Hill Ave","modes":["bus"],"routes":[],"nameLength":21},"geometry":{"type":"Point","coordinates":[-122.367027,37.728795]}},{"type":"Feature","id":"earlkirkwood","properties":{"id":"earlkirkwood","name":"Earl St & Kirkwood Ave","modes":["bus"],"routes":[],"nameLength":22},"geometry":{"type":"Point","coordinates":[-122.37313,37.728779]}},{"type":"Feature","id":"ingallsthomas","properties":{"id":"ingallsthomas","name":"Ingalls St & Thomas Ave","modes":["bus"],"routes":[],"nameLength":23},"geometry":{"type":"Point","coordinates":[-122.38572,37.72711]}},{"type":"Feature","id":"executiveparkblanken","properties":{"id":"executiveparkblanken","name":"Executive Park Blvd & Blanken Ave","modes":["bus"],"routes":[],"nameLength":33},"geometry":{"type":"Point","coordinates":[-122.39476,37.71088]}},{"type":"Feature","id":"gilman3rd","properties":{"id":"gilman3rd","name":"Gilman Ave & 3rd St","modes":["bus","metro"],"routes":["29","91","T","TBUS"],"nameLength":19},"geometry":{"type":"Point","coordinates":[-122.395415,37.722458]}},{"type":"Feature","id":"thirdwilliams","properties":{"id":"thirdwilliams","name":"Third Street & Williams Ave","modes":["bus","metro"],"routes":["54","91","T","TBUS"],"nameLength":27},"geometry":{"type":"Point","coordinates":[-122.392604,37.729291]}},{"type":"Feature","id":"3rdlasalle","properties":{"id":"3rdlasalle","name":"3rd St & La Salle Ave","modes":["bus","metro"],"routes":["54","91","T","TBUS"],"nameLength":21},"geometry":{"type":"Point","coordinates":[-122.389803,37.737213]}},{"type":"Feature","id":"unionmontgomery","properties":{"id":"unionmontgomery","name":"Union St & Montgomery St","modes":["bus"],"routes":[],"nameLength":24},"geometry":{"type":"Point","coordinates":[-122.404508,37.800962]}},{"type":"Feature","id":"pacificsansome","properties":{"id":"pacificsansome","name":"Pacific Ave & Sansome St","modes":["bus"],"routes":[],"nameLength":24},"geometry":{"type":"Point","coordinates":[-122.402367,37.797544]}},{"type":"Feature","id":"sansomewashington","properties":{"id":"sansomewashington","name":"Sansome St & Washington St","modes":["bus"],"routes":[],"nameLength":26},"geometry":{"type":"Point","coordinates":[-122.40165,37.79597]}},{"type":"Feature","id":"marketbeale","properties":{"id":"marketbeale","name":"Market St & Beale St","modes":["bus","metro"],"routes":["2","9","9R","F","J","K","KBUS","L","L-Owl","M","N","N-Owl","NBUS","S"],"nameLength":20},"geometry":{"type":"Point","coordinates":[-122.397016,37.792572]}},{"type":"Feature","id":"metromontgomeryoutbound","properties":{"id":"metromontgomeryoutbound","name":"Metro Montgomery Station/Outbound","modes":["bus","metro"],"routes":["2","38","38R","5","5R","9","9R","Blue","F","Green","J","K","L","L-Owl","M","N","N-Owl","Red","S","Yellow"],"nameLength":33},"geometry":{"type":"Point","coordinates":[-122.402127,37.788791]}},{"type":"Feature","id":"metropowelldowntown","properties":{"id":"metropowelldowntown","name":"Metro Powell Station/Downtown","modes":["bus","cablecar","metro"],"routes":["5","5R","7","800","F","J","K","L","M","N","PH","PM","S"],"nameLength":29},"geometry":{"type":"Point","coordinates":[-122.407086,37.784653]}},{"type":"Feature","id":"market7th","properties":{"id":"market7th","name":"Market St & 7th St","modes":["bus","metro"],"routes":["101","130","150","19","27","5","5R","7","9","9R","Blue","East","F","Green","J","K","KBUS","L","L-Owl","M","N","N-Owl","NBUS","Red","S","West","Yellow"],"nameLength":18},"geometry":{"type":"Point","coordinates":[-122.412441,37.780568]}},{"type":"Feature","id":"marketsouthvanness","properties":{"id":"marketsouthvanness","name":"Market St & South Van Ness Ave","modes":["bus","metro"],"routes":["49","7","800","9","90","9R","F","J","K","KBUS","L","L-Owl","M","N","N-Owl","NBUS","S"],"nameLength":30},"geometry":{"type":"Point","coordinates":[-122.419321,37.775056]}},{"type":"Feature","id":"vannessmcallister","properties":{"id":"vannessmcallister","name":"Van Ness Ave & McAllister St","modes":["bus"],"routes":[],"nameLength":28},"geometry":{"type":"Point","coordinates":[-122.420304,37.780097]}},{"type":"Feature","id":"eddyvanness","properties":{"id":"eddyvanness","name":"Eddy St & Van Ness Ave","modes":["bus"],"routes":["101","130","150","31","49","90"],"nameLength":22},"geometry":{"type":"Point","coordinates":[-122.42059,37.782863]}},{"type":"Feature","id":"vannesssutter","properties":{"id":"vannesssutter","name":"Van Ness Ave & Sutter St","modes":["bus"],"routes":["101","130","150","2","49","90"],"nameLength":24},"geometry":{"type":"Point","coordinates":[-122.42178,37.787574]}},{"type":"Feature","id":"sacramentovanness","properties":{"id":"sacramentovanness","name":"Sacramento St & Van Ness Ave","modes":["bus"],"routes":["1","101","130","150","49","90"],"nameLength":28},"geometry":{"type":"Point","coordinates":[-122.42227,37.79141]}},{"type":"Feature","id":"vannesspacific","properties":{"id":"vannesspacific","name":"Van Ness Ave & Pacific St","modes":["bus"],"routes":["101","12","130","150","27","49","90"],"nameLength":25},"geometry":{"type":"Point","coordinates":[-122.423199,37.794784]}},{"type":"Feature","id":"unionvanness","properties":{"id":"unionvanness","name":"Union St & Van Ness Ave","modes":["bus"],"routes":["101","130","150","45","49","90","DT"],"nameLength":23},"geometry":{"type":"Point","coordinates":[-122.42415,37.798469]}},{"type":"Feature","id":"chestnutvanness","properties":{"id":"chestnutvanness","name":"Chestnut St & Van Ness Ave","modes":["bus"],"routes":["114","132","154","172","28","30","49","90","91"],"nameLength":26},"geometry":{"type":"Point","coordinates":[-122.424894,37.802199]}},{"type":"Feature","id":"vannessnorthpoint","properties":{"id":"vannessnorthpoint","name":"Van Ness Ave & North Point St","modes":["bus"],"routes":["114","132","154","172","28","30","49","90","91"],"nameLength":29},"geometry":{"type":"Point","coordinates":[-122.425352,37.80484]}},{"type":"Feature","id":"hydebeach","properties":{"id":"hydebeach","name":"Hyde St & Beach St","modes":["cablecar"],"routes":["PH"],"nameLength":18},"geometry":{"type":"Point","coordinates":[-122.420535,37.806642]}},{"type":"Feature","id":"jeffersontaylor","properties":{"id":"jeffersontaylor","name":"Jefferson St & Taylor St","modes":["bus","metro"],"routes":["F","L-Owl"],"nameLength":24},"geometry":{"type":"Point","coordinates":[-122.415514,37.80832]}},{"type":"Feature","id":"columbusunion","properties":{"id":"columbusunion","name":"Columbus Ave & Union St","modes":["bus"],"routes":[],"nameLength":23},"geometry":{"type":"Point","coordinates":[-122.410505,37.800384]}},{"type":"Feature","id":"hydelombard","properties":{"id":"hydelombard","name":"Hyde St & Lombard St","modes":["cablecar"],"routes":["PH"],"nameLength":20},"geometry":{"type":"Point","coordinates":[-122.419562,37.801912]}},{"type":"Feature","id":"pacificleavenworth","properties":{"id":"pacificleavenworth","name":"Pacific Ave & Leavenworth St","modes":["bus","cablecar"],"routes":["27","PH"],"nameLength":28},"geometry":{"type":"Point","coordinates":[-122.416744,37.795586]}},{"type":"Feature","id":"stocktonwashington","properties":{"id":"stocktonwashington","name":"Stockton St & Washington St","modes":["bus","metro"],"routes":["1","30","45","8","8AX","8BX","91","T"],"nameLength":27},"geometry":{"type":"Point","coordinates":[-122.408118,37.794707]}},{"type":"Feature","id":"sutterpowell","properties":{"id":"sutterpowell","name":"Sutter St & Powell St","modes":["bus","cablecar"],"routes":["2","PH","PM"],"nameLength":21},"geometry":{"type":"Point","coordinates":[-122.408677,37.789266]}},{"type":"Feature","id":"californialeavenworth","properties":{"id":"californialeavenworth","name":"California St & Leavenworth St","modes":["bus","cablecar"],"routes":["27","C"],"nameLength":30},"geometry":{"type":"Point","coordinates":[-122.415749,37.791133]}},{"type":"Feature","id":"leavenworthpost","properties":{"id":"leavenworthpost","name":"Leavenworth St & Post St","modes":["bus"],"routes":[],"nameLength":24},"geometry":{"type":"Point","coordinates":[-122.414875,37.787313]}},{"type":"Feature","id":"folsom3rd","properties":{"id":"folsom3rd","name":"Folsom St & 3rd St","modes":["bus"],"routes":["12","30","45","8","8AX","8BX","91"],"nameLength":18},"geometry":{"type":"Point","coordinates":[-122.398684,37.783873]}},{"type":"Feature","id":"7thfolsom","properties":{"id":"7thfolsom","name":"7th St & Folsom St","modes":["bus"],"routes":[],"nameLength":18},"geometry":{"type":"Point","coordinates":[-122.407904,37.776864]}},{"type":"Feature","id":"16thbryant","properties":{"id":"16thbryant","name":"16th St & Bryant St","modes":["bus"],"routes":[],"nameLength":19},"geometry":{"type":"Point","coordinates":[-122.410294,37.765658]}},{"type":"Feature","id":"folsom11th","properties":{"id":"folsom11th","name":"Folsom St & 11th St","modes":["bus"],"routes":["12","27","9","90","9R"],"nameLength":19},"geometry":{"type":"Point","coordinates":[-122.413958,37.771905]}},{"type":"Feature","id":"16thmission","properties":{"id":"16thmission","name":"16th St & Mission St","modes":["bus","metro"],"routes":["14","14R","22","33","49","55","714","Blue","Green","Red","Yellow"],"nameLength":20},"geometry":{"type":"Point","coordinates":[-122.419611,37.765152]}},{"type":"Feature","id":"bryant18th","properties":{"id":"bryant18th","name":"Bryant St & 18th St","modes":["bus"],"routes":[],"nameLength":19},"geometry":{"type":"Point","coordinates":[-122.4102,37.76187]}},{"type":"Feature","id":"bryant24th","properties":{"id":"bryant24th","name":"Bryant St & 24th St","modes":["bus"],"routes":[],"nameLength":19},"geometry":{"type":"Point","coordinates":[-122.409178,37.752728]}},{"type":"Feature","id":"mission24th","properties":{"id":"mission24th","name":"Mission St & 24th St","modes":["bus","metro"],"routes":["14","14R","27","48","49","67","714","Blue","Green","Red","Yellow"],"nameLength":20},"geometry":{"type":"Point","coordinates":[-122.418528,37.751964]}},{"type":"Feature","id":"mission20th","properties":{"id":"mission20th","name":"Mission St & 20th St","modes":["bus"],"routes":[],"nameLength":20},"geometry":{"type":"Point","coordinates":[-122.41902,37.75911]}},{"type":"Feature","id":"folsomcesarchavez","properties":{"id":"folsomcesarchavez","name":"Folsom St & Cesar Chavez St","modes":["bus"],"routes":[],"nameLength":27},"geometry":{"type":"Point","coordinates":[-122.413763,37.748322]}},{"type":"Feature","id":"nevadacortland","properties":{"id":"nevadacortland","name":"Nevada St & Cortland Ave","modes":["bus"],"routes":[],"nameLength":24},"geometry":{"type":"Point","coordinates":[-122.41141,37.73992]}},{"type":"Feature","id":"missioncortland","properties":{"id":"missioncortland","name":"Mission St & Cortland Ave","modes":["bus"],"routes":[],"nameLength":25},"geometry":{"type":"Point","coordinates":[-122.422874,37.741079]}},{"type":"Feature","id":"cheneryroanoke","properties":{"id":"cheneryroanoke","name":"Chenery St & Roanoke St","modes":["bus"],"routes":[],"nameLength":23},"geometry":{"type":"Point","coordinates":[-122.4302,37.73563]}},{"type":"Feature","id":"missionsilver","properties":{"id":"missionsilver","name":"Mission St & Silver Ave","modes":["bus"],"routes":[],"nameLength":23},"geometry":{"type":"Point","coordinates":[-122.43132,37.728723]}},{"type":"Feature","id":"crescentfolsom","properties":{"id":"crescentfolsom","name":"Crescent Ave & Folsom St","modes":["bus"],"routes":[],"nameLength":24},"geometry":{"type":"Point","coordinates":[-122.413804,37.73467]}},{"type":"Feature","id":"manselljohnfshelleydr","properties":{"id":"manselljohnfshelleydr","name":"Mansell St & John F Shelley Dr","modes":["bus"],"routes":[],"nameLength":30},"geometry":{"type":"Point","coordinates":[-122.4183,37.718763]}},{"type":"Feature","id":"praguepersia","properties":{"id":"praguepersia","name":"Prague St & Persia Ave","modes":["bus"],"routes":[],"nameLength":22},"geometry":{"type":"Point","coordinates":[-122.42718,37.71903]}},{"type":"Feature","id":"feltonmadison","properties":{"id":"feltonmadison","name":"Felton St & Madison St","modes":["bus"],"routes":[],"nameLength":22},"geometry":{"type":"Point","coordinates":[-122.422043,37.725598]}},{"type":"Feature","id":"sunnyvalewaccess","properties":{"id":"sunnyvalewaccess","name":"Sunnyvale Ave & W.Access RD","modes":["bus"],"routes":[],"nameLength":27},"geometry":{"type":"Point","coordinates":[-122.42215,37.713588]}},{"type":"Feature","id":"visitacionvalleymiddleschool","properties":{"id":"visitacionvalleymiddleschool","name":"Visitacion Valley Middle School","modes":["bus"],"routes":[],"nameLength":31},"geometry":{"type":"Point","coordinates":[-122.413938,37.71621]}},{"type":"Feature","id":"woolseyuniversity","properties":{"id":"woolseyuniversity","name":"Woolsey St & University St","modes":["bus"],"routes":[],"nameLength":26},"geometry":{"type":"Point","coordinates":[-122.41238,37.72271]}},{"type":"Feature","id":"bayshoresunnydale","properties":{"id":"bayshoresunnydale","name":"Bayshore Blvd & Sunnydale Ave","modes":["bus","metro"],"routes":["292","397","9","9R","T"],"nameLength":29},"geometry":{"type":"Point","coordinates":[-122.405113,37.70897]}},{"type":"Feature","id":"mansellgoettingen","properties":{"id":"mansellgoettingen","name":"Mansell St & Goettingen St","modes":["bus"],"routes":[],"nameLength":26},"geometry":{"type":"Point","coordinates":[-122.404098,37.720677]}},{"type":"Feature","id":"bacongirard","properties":{"id":"bacongirard","name":"Bacon St & Girard St","modes":["bus"],"routes":["54","8","8AX","9","90","9R"],"nameLength":20},"geometry":{"type":"Point","coordinates":[-122.40451,37.72744]}},{"type":"Feature","id":"silverboylston","properties":{"id":"silverboylston","name":"Silver Ave & Boylston St","modes":["bus"],"routes":[],"nameLength":24},"geometry":{"type":"Point","coordinates":[-122.410839,37.730913]}},{"type":"Feature","id":"oakdaletoland","properties":{"id":"oakdaletoland","name":"Oakdale Ave & Toland St","modes":["bus"],"routes":[],"nameLength":23},"geometry":{"type":"Point","coordinates":[-122.401623,37.740966]}},{"type":"Feature","id":"16thrhodeisland","properties":{"id":"16thrhodeisland","name":"16th Street & Rhode Island St","modes":["bus"],"routes":[],"nameLength":29},"geometry":{"type":"Point","coordinates":[-122.402822,37.76611]}},{"type":"Feature","id":"connecticut19th","properties":{"id":"connecticut19th","name":"Connecticut St & 19th St","modes":["bus"],"routes":[],"nameLength":24},"geometry":{"type":"Point","coordinates":[-122.397473,37.761326]}},{"type":"Feature","id":"rhodeisland24th","properties":{"id":"rhodeisland24th","name":"Rhode Island St & 24th St","modes":["bus"],"routes":[],"nameLength":25},"geometry":{"type":"Point","coordinates":[-122.40161,37.75352]}},{"type":"Feature","id":"marinalaguna","properties":{"id":"marinalaguna","name":"Marina Blvd & Laguna St","modes":["bus"],"routes":[],"nameLength":23},"geometry":{"type":"Point","coordinates":[-122.432185,37.805118]}},{"type":"Feature","id":"fillmorechestnut","properties":{"id":"fillmorechestnut","name":"Fillmore St & Chestnut St","modes":["bus"],"routes":["101","114","130","132","150","154","172","22","28","43","91"],"nameLength":25},"geometry":{"type":"Point","coordinates":[-122.436229,37.801091]}},{"type":"Feature","id":"fillmoresacramento","properties":{"id":"fillmoresacramento","name":"Fillmore St & Sacramento St","modes":["bus"],"routes":[],"nameLength":27},"geometry":{"type":"Point","coordinates":[-122.433947,37.789744]}},{"type":"Feature","id":"sacramentooctavia","properties":{"id":"sacramentooctavia","name":"Sacramento St & Octavia St","modes":["bus"],"routes":[],"nameLength":26},"geometry":{"type":"Point","coordinates":[-122.42746,37.79076]}},{"type":"Feature","id":"jacksonscott","properties":{"id":"jacksonscott","name":"Jackson St & Scott St","modes":["bus"],"routes":[],"nameLength":21},"geometry":{"type":"Point","coordinates":[-122.439612,37.791772]}},{"type":"Feature","id":"lyonunion","properties":{"id":"lyonunion","name":"Lyon St & Union St","modes":["bus"],"routes":[],"nameLength":18},"geometry":{"type":"Point","coordinates":[-122.446965,37.795724]}},{"type":"Feature","id":"masonyachtgirard","properties":{"id":"masonyachtgirard","name":"Mason St - Yacht/Girard","modes":["bus"],"routes":[],"nameLength":23},"geometry":{"type":"Point","coordinates":[-122.448502,37.805021]}},{"type":"Feature","id":"masonsportsbasement","properties":{"id":"masonsportsbasement","name":"Mason St - Sports Basement","modes":["bus"],"routes":[],"nameLength":26},"geometry":{"type":"Point","coordinates":[-122.458967,37.803565]}},{"type":"Feature","id":"lincolnpershingdr","properties":{"id":"lincolnpershingdr","name":"Lincoln Blvd & Pershing Dr","modes":["bus"],"routes":[],"nameLength":26},"geometry":{"type":"Point","coordinates":[-122.480968,37.792088]}},{"type":"Feature","id":"legionofhonor","properties":{"id":"legionofhonor","name":"Legion of Honor","modes":["bus"],"routes":[],"nameLength":15},"geometry":{"type":"Point","coordinates":[-122.49969,37.78498]}},{"type":"Feature","id":"43rdclement","properties":{"id":"43rdclement","name":"43rd Ave & Clement St","modes":["bus"],"routes":[],"nameLength":21},"geometry":{"type":"Point","coordinates":[-122.504232,37.781007]}},{"type":"Feature","id":"laplayacabrillo","properties":{"id":"laplayacabrillo","name":"La Playa St & Cabrillo St","modes":["bus"],"routes":[],"nameLength":25},"geometry":{"type":"Point","coordinates":[-122.51006,37.773214]}},{"type":"Feature","id":"48thpointlobos","properties":{"id":"48thpointlobos","name":"48th Ave & Point Lobos Ave","modes":["bus"],"routes":[],"nameLength":26},"geometry":{"type":"Point","coordinates":[-122.509411,37.779023]}},{"type":"Feature","id":"greathwynearbeachchalet","properties":{"id":"greathwynearbeachchalet","name":"Great Hwy near Beach Chalet","modes":["bus"],"routes":[],"nameLength":27},"geometry":{"type":"Point","coordinates":[-122.510456,37.76737]}},{"type":"Feature","id":"fulton40th","properties":{"id":"fulton40th","name":"Fulton St & 40th Ave","modes":["bus"],"routes":[],"nameLength":20},"geometry":{"type":"Point","coordinates":[-122.50034,37.77188]}},{"type":"Feature","id":"fulton33rd","properties":{"id":"fulton33rd","name":"Fulton St & 33rd Ave","modes":["bus"],"routes":[],"nameLength":20},"geometry":{"type":"Point","coordinates":[-122.49318,37.77223]}},{"type":"Feature","id":"fulton28th","properties":{"id":"fulton28th","name":"Fulton St & 28th Ave","modes":["bus"],"routes":[],"nameLength":20},"geometry":{"type":"Point","coordinates":[-122.48717,37.77235]}},{"type":"Feature","id":"fulton22nd","properties":{"id":"fulton22nd","name":"Fulton St & 22nd Ave","modes":["bus"],"routes":[],"nameLength":20},"geometry":{"type":"Point","coordinates":[-122.48061,37.77266]}},{"type":"Feature","id":"parkpresidiofulton","properties":{"id":"parkpresidiofulton","name":"Park Presidio Blvd & Fulton St","modes":["bus"],"routes":[],"nameLength":30},"geometry":{"type":"Point","coordinates":[-122.47191,37.77327]}},{"type":"Feature","id":"balboaparkpresidio","properties":{"id":"balboaparkpresidio","name":"Balboa St & Park Presidio Blvd","modes":["bus"],"routes":[],"nameLength":30},"geometry":{"type":"Point","coordinates":[-122.472227,37.776895]}},{"type":"Feature","id":"balboa23rd","properties":{"id":"balboa23rd","name":"Balboa St & 23rd Ave","modes":["bus"],"routes":[],"nameLength":20},"geometry":{"type":"Point","coordinates":[-122.48219,37.77647]}},{"type":"Feature","id":"geary33rd","properties":{"id":"geary33rd","name":"Geary Blvd & 33rd Ave","modes":["bus"],"routes":[],"nameLength":21},"geometry":{"type":"Point","coordinates":[-122.493112,37.779735]}},{"type":"Feature","id":"california25th","properties":{"id":"california25th","name":"California St & 25th Ave","modes":["bus"],"routes":[],"nameLength":24},"geometry":{"type":"Point","coordinates":[-122.485286,37.783808]}},{"type":"Feature","id":"californiaparkpresidio","properties":{"id":"californiaparkpresidio","name":"California St & Park Presidio Blvd","modes":["bus"],"routes":[],"nameLength":34},"geometry":{"type":"Point","coordinates":[-122.472764,37.784365]}},{"type":"Feature","id":"arguellocalifornia","properties":{"id":"arguellocalifornia","name":"Arguello Blvd & California St","modes":["bus"],"routes":[],"nameLength":29},"geometry":{"type":"Point","coordinates":[-122.459254,37.78556]}},{"type":"Feature","id":"lincolnwaylaplaya","properties":{"id":"lincolnwaylaplaya","name":"Lincoln Way & La Playa St","modes":["bus"],"routes":[],"nameLength":25},"geometry":{"type":"Point","coordinates":[-122.50957,37.763926]}},{"type":"Feature","id":"goldengatebridgeparkinglot","properties":{"id":"goldengatebridgeparkinglot","name":"Golden Gate Bridge/Parking Lot","modes":["bus"],"routes":["101","114","130","132","150","154","172","28"],"nameLength":30},"geometry":{"type":"Point","coordinates":[-122.475024,37.807561]}},{"type":"Feature","id":"fulton6th","properties":{"id":"fulton6th","name":"Fulton St & 6th Ave","modes":["bus"],"routes":[],"nameLength":19},"geometry":{"type":"Point","coordinates":[-122.463837,37.773532]}},{"type":"Feature","id":"fultonarguello","properties":{"id":"fultonarguello","name":"Fulton St & Arguello Blvd","modes":["bus"],"routes":[],"nameLength":25},"geometry":{"type":"Point","coordinates":[-122.458416,37.774354]}},{"type":"Feature","id":"arguelloturk","properties":{"id":"arguelloturk","name":"Arguello Blvd & Turk St","modes":["bus"],"routes":[],"nameLength":23},"geometry":{"type":"Point","coordinates":[-122.458519,37.777477]}},{"type":"Feature","id":"masonicfulton","properties":{"id":"masonicfulton","name":"Masonic Ave & Fulton St","modes":["bus"],"routes":[],"nameLength":23},"geometry":{"type":"Point","coordinates":[-122.446553,37.775577]}},{"type":"Feature","id":"turkmasonic","properties":{"id":"turkmasonic","name":"Turk St & Masonic Ave","modes":["bus"],"routes":[],"nameLength":21},"geometry":{"type":"Point","coordinates":[-122.447206,37.778664]}},{"type":"Feature","id":"masonichaight","properties":{"id":"masonichaight","name":"Masonic Ave & Haight St","modes":["bus"],"routes":[],"nameLength":23},"geometry":{"type":"Point","coordinates":[-122.44542,37.77031]}},{"type":"Feature","id":"frederickashbury","properties":{"id":"frederickashbury","name":"Frederick St & Ashbury St","modes":["bus"],"routes":[],"nameLength":25},"geometry":{"type":"Point","coordinates":[-122.446691,37.767261]}},{"type":"Feature","id":"hayespierce","properties":{"id":"hayespierce","name":"Hayes St & Pierce St","modes":["bus"],"routes":[],"nameLength":20},"geometry":{"type":"Point","coordinates":[-122.434443,37.775472]}},{"type":"Feature","id":"hayesdivisadero","properties":{"id":"hayesdivisadero","name":"Hayes St & Divisadero St","modes":["bus"],"routes":[],"nameLength":24},"geometry":{"type":"Point","coordinates":[-122.437911,37.774898]}},{"type":"Feature","id":"castro14th","properties":{"id":"castro14th","name":"Castro St & 14th St","modes":["bus"],"routes":[],"nameLength":19},"geometry":{"type":"Point","coordinates":[-122.43571,37.76742]}},{"type":"Feature","id":"sunsettunneleastportal","properties":{"id":"sunsettunneleastportal","name":"Sunset Tunnel East Portal","modes":["bus","metro"],"routes":["N","NBUS"],"nameLength":25},"geometry":{"type":"Point","coordinates":[-122.433511,37.769285]}},{"type":"Feature","id":"dubocechurch","properties":{"id":"dubocechurch","name":"Duboce Ave & Church St","modes":["bus","metro"],"routes":["22","J","N","N-Owl","NBUS"],"nameLength":22},"geometry":{"type":"Point","coordinates":[-122.429351,37.769374]}},{"type":"Feature","id":"haightfillmore","properties":{"id":"haightfillmore","name":"Haight St & Fillmore St","modes":["bus"],"routes":[],"nameLength":23},"geometry":{"type":"Point","coordinates":[-122.430589,37.772049]}},{"type":"Feature","id":"hayesbuchanan","properties":{"id":"hayesbuchanan","name":"Hayes St & Buchanan St","modes":["bus"],"routes":[],"nameLength":22},"geometry":{"type":"Point","coordinates":[-122.427555,37.776244]}},{"type":"Feature","id":"eddyfillmore","properties":{"id":"eddyfillmore","name":"Eddy St & Fillmore St","modes":["bus"],"routes":[],"nameLength":21},"geometry":{"type":"Point","coordinates":[-122.432236,37.7815]}},{"type":"Feature","id":"fillmoresutter","properties":{"id":"fillmoresutter","name":"Fillmore St & Sutter St","modes":["bus"],"routes":[],"nameLength":23},"geometry":{"type":"Point","coordinates":[-122.433244,37.786051]}},{"type":"Feature","id":"divisaderosutter","properties":{"id":"divisaderosutter","name":"Divisadero St & Sutter St","modes":["bus"],"routes":[],"nameLength":25},"geometry":{"type":"Point","coordinates":[-122.439939,37.78515]}},{"type":"Feature","id":"divisaderoeddy","properties":{"id":"divisaderoeddy","name":"Divisadero St & Eddy St","modes":["bus"],"routes":[],"nameLength":23},"geometry":{"type":"Point","coordinates":[-122.438942,37.780591]}},{"type":"Feature","id":"divisaderoeddy-2","properties":{"id":"divisaderoeddy-2","name":"Divisadero St & Eddy St","modes":["bus"],"routes":[],"nameLength":23},"geometry":{"type":"Point","coordinates":[-122.438942,37.780591]}},{"type":"Feature","id":"presidiocalifornia","properties":{"id":"presidiocalifornia","name":"Presidio Ave & California St","modes":["bus"],"routes":[],"nameLength":28},"geometry":{"type":"Point","coordinates":[-122.446965,37.787676]}},{"type":"Feature","id":"presidiojackson","properties":{"id":"presidiojackson","name":"Presidio Ave & Jackson St","modes":["bus"],"routes":[],"nameLength":25},"geometry":{"type":"Point","coordinates":[-122.447607,37.790905]}},{"type":"Feature","id":"presidiolettermandr","properties":{"id":"presidiolettermandr","name":"Presidio Blvd & Letterman Dr","modes":["bus"],"routes":[],"nameLength":28},"geometry":{"type":"Point","coordinates":[-122.452423,37.799123]}},{"type":"Feature","id":"37thlincolnway","properties":{"id":"37thlincolnway","name":"37th Ave & Lincoln Way","modes":["bus"],"routes":[],"nameLength":22},"geometry":{"type":"Point","coordinates":[-122.496621,37.76436]}},{"type":"Feature","id":"lincolnway29th","properties":{"id":"lincolnway29th","name":"Lincoln Way & 29th Ave","modes":["bus"],"routes":[],"nameLength":22},"geometry":{"type":"Point","coordinates":[-122.488267,37.765032]}},{"type":"Feature","id":"lincolnway21st","properties":{"id":"lincolnway21st","name":"Lincoln Way & 21st Ave","modes":["bus"],"routes":[],"nameLength":22},"geometry":{"type":"Point","coordinates":[-122.479696,37.765428]}},{"type":"Feature","id":"lincolnway15th","properties":{"id":"lincolnway15th","name":"Lincoln Way & 15th Ave","modes":["bus"],"routes":[],"nameLength":22},"geometry":{"type":"Point","coordinates":[-122.47305,37.76556]}},{"type":"Feature","id":"lincolnway9th","properties":{"id":"lincolnway9th","name":"Lincoln Way & 9th Ave","modes":["bus"],"routes":[],"nameLength":21},"geometry":{"type":"Point","coordinates":[-122.46623,37.765859]}},{"type":"Feature","id":"46thirving","properties":{"id":"46thirving","name":"46th Ave & Irving St","modes":["bus"],"routes":[],"nameLength":20},"geometry":{"type":"Point","coordinates":[-122.506143,37.762375]}},{"type":"Feature","id":"sunsetjudah","properties":{"id":"sunsetjudah","name":"Sunset Blvd & Judah St","modes":["bus","metro"],"routes":["29","N","N-Owl","NBUS"],"nameLength":22},"geometry":{"type":"Point","coordinates":[-122.495646,37.76114]}},{"type":"Feature","id":"sunsetnoriega","properties":{"id":"sunsetnoriega","name":"Sunset Blvd & Noriega St","modes":["bus"],"routes":[],"nameLength":24},"geometry":{"type":"Point","coordinates":[-122.495121,37.753701]}},{"type":"Feature","id":"noriega46th","properties":{"id":"noriega46th","name":"Noriega St & 46th Ave","modes":["bus"],"routes":[],"nameLength":21},"geometry":{"type":"Point","coordinates":[-122.505712,37.753034]}},{"type":"Feature","id":"sunsetrivera","properties":{"id":"sunsetrivera","name":"Sunset Blvd & Rivera St","modes":["bus"],"routes":[],"nameLength":23},"geometry":{"type":"Point","coordinates":[-122.494576,37.746302]}},{"type":"Feature","id":"30thquintara","properties":{"id":"30thquintara","name":"30th Ave & Quintara St","modes":["bus"],"routes":[],"nameLength":22},"geometry":{"type":"Point","coordinates":[-122.487926,37.74808]}},{"type":"Feature","id":"taraval30th","properties":{"id":"taraval30th","name":"Taraval St & 30th Ave","modes":["bus","metro"],"routes":["66","L","L-Owl","LBUS"],"nameLength":21},"geometry":{"type":"Point","coordinates":[-122.487681,37.742494]}},{"type":"Feature","id":"sloat47th","properties":{"id":"sloat47th","name":"Sloat Blvd & 47th Ave","modes":["bus","metro"],"routes":["18","L","L-Owl","LBUS"],"nameLength":21},"geometry":{"type":"Point","coordinates":[-122.50493,37.735394]}},{"type":"Feature","id":"rivera46th","properties":{"id":"rivera46th","name":"Rivera St & 46th Ave","modes":["bus"],"routes":[],"nameLength":20},"geometry":{"type":"Point","coordinates":[-122.50504,37.74543]}},{"type":"Feature","id":"sloatskyline","properties":{"id":"sloatskyline","name":"Sloat Blvd & Skyline Blvd","modes":["bus"],"routes":[],"nameLength":25},"geometry":{"type":"Point","coordinates":[-122.496492,37.733681]}},{"type":"Feature","id":"johnmuirdrskyline","properties":{"id":"johnmuirdrskyline","name":"John Muir Dr & Skyline Blvd","modes":["bus"],"routes":[],"nameLength":27},"geometry":{"type":"Point","coordinates":[-122.500028,37.718996]}},{"type":"Feature","id":"515johnmuirdr","properties":{"id":"515johnmuirdr","name":"515 John Muir Dr","modes":["bus"],"routes":[],"nameLength":16},"geometry":{"type":"Point","coordinates":[-122.49539,37.71607]}},{"type":"Feature","id":"lakemercedjohnmuir","properties":{"id":"lakemercedjohnmuir","name":"LAKE MERCED & JOHN MUIR","modes":["bus"],"routes":[],"nameLength":23},"geometry":{"type":"Point","coordinates":[-122.485533,37.708219]}},{"type":"Feature","id":"sloatvale","properties":{"id":"sloatvale","name":"Sloat Blvd & Vale Ave","modes":["bus"],"routes":[],"nameLength":21},"geometry":{"type":"Point","coordinates":[-122.483955,37.734483]}},{"type":"Feature","id":"sloat19th","properties":{"id":"sloat19th","name":"Sloat Blvd & 19th Ave","modes":["bus"],"routes":[],"nameLength":21},"geometry":{"type":"Point","coordinates":[-122.475272,37.734494]}},{"type":"Feature","id":"portoladrdorchesterway","properties":{"id":"portoladrdorchesterway","name":"Portola Dr & Dorchester Way","modes":["bus"],"routes":[],"nameLength":27},"geometry":{"type":"Point","coordinates":[-122.46344,37.7401]}},{"type":"Feature","id":"taraval19th","properties":{"id":"taraval19th","name":"Taraval St & 19th Ave","modes":["bus","metro"],"routes":["28","28R","91","L","L-Owl","LBUS"],"nameLength":21},"geometry":{"type":"Point","coordinates":[-122.475444,37.74311]}},{"type":"Feature","id":"19thquintara","properties":{"id":"19thquintara","name":"19th Ave & Quintara St","modes":["bus"],"routes":[],"nameLength":22},"geometry":{"type":"Point","coordinates":[-122.4759,37.74853]}},{"type":"Feature","id":"ulloa14th","properties":{"id":"ulloa14th","name":"Ulloa St & 14th Ave","modes":["bus","metro"],"routes":["48","L","L-Owl","LBUS"],"nameLength":19},"geometry":{"type":"Point","coordinates":[-122.469969,37.7415]}},{"type":"Feature","id":"quintarafunston","properties":{"id":"quintarafunston","name":"Quintara St & Funston Ave","modes":["bus"],"routes":[],"nameLength":25},"geometry":{"type":"Point","coordinates":[-122.469423,37.748985]}},{"type":"Feature","id":"noriega24th","properties":{"id":"noriega24th","name":"Noriega St & 24th Ave","modes":["bus"],"routes":[],"nameLength":21},"geometry":{"type":"Point","coordinates":[-122.482773,37.754042]}},{"type":"Feature","id":"lawton9th","properties":{"id":"lawton9th","name":"Lawton St & 9th Ave","modes":["bus"],"routes":[],"nameLength":19},"geometry":{"type":"Point","coordinates":[-122.465804,37.758524]}},{"type":"Feature","id":"lagunahondaforesthillsta","properties":{"id":"lagunahondaforesthillsta","name":"Laguna Honda Blvd/Forest Hill Sta","modes":["bus","metro"],"routes":["36","43","44","52","K","L","M","S"],"nameLength":33},"geometry":{"type":"Point","coordinates":[-122.45887,37.748121]}},{"type":"Feature","id":"lagunahondaportoladr","properties":{"id":"lagunahondaportoladr","name":"Laguna Honda Blvd & Portola Dr","modes":["bus"],"routes":[],"nameLength":30},"geometry":{"type":"Point","coordinates":[-122.45548,37.74311]}},{"type":"Feature","id":"portoladroshaughnessy","properties":{"id":"portoladroshaughnessy","name":"Portola Dr & O'Shaughnessy Blvd","modes":["bus"],"routes":["36","44","48","52","KBUS","L-Owl"],"nameLength":31},"geometry":{"type":"Point","coordinates":[-122.4519,37.74532]}},{"type":"Feature","id":"marketclayton","properties":{"id":"marketclayton","name":"Market St & Clayton St","modes":["bus"],"routes":[],"nameLength":22},"geometry":{"type":"Point","coordinates":[-122.444479,37.75849]}},{"type":"Feature","id":"crestlinedrburnett","properties":{"id":"crestlinedrburnett","name":"Crestline Dr & Burnett Ave","modes":["bus"],"routes":[],"nameLength":26},"geometry":{"type":"Point","coordinates":[-122.44508,37.7493]}},{"type":"Feature","id":"church18th","properties":{"id":"church18th","name":"Church St & 18th St","modes":["bus","metro"],"routes":["33","J"],"nameLength":19},"geometry":{"type":"Point","coordinates":[-122.428416,37.761467]}},{"type":"Feature","id":"24thchurch","properties":{"id":"24thchurch","name":"24th St & Church St","modes":["bus","metro"],"routes":["48","J"],"nameLength":19},"geometry":{"type":"Point","coordinates":[-122.427327,37.751778]}},{"type":"Feature","id":"castro17th","properties":{"id":"castro17th","name":"Castro St & 17th St","modes":["bus","metro"],"routes":["24","35","37","F","K","KBUS","L","L-Owl","M","S"],"nameLength":19},"geometry":{"type":"Point","coordinates":[-122.43508,37.76237]}},{"type":"Feature","id":"24thcastro","properties":{"id":"24thcastro","name":"24th St & Castro St","modes":["bus"],"routes":[],"nameLength":19},"geometry":{"type":"Point","coordinates":[-122.433939,37.751262]}},{"type":"Feature","id":"diamond28th","properties":{"id":"diamond28th","name":"Diamond St & 28th St","modes":["bus"],"routes":[],"nameLength":20},"geometry":{"type":"Point","coordinates":[-122.435762,37.74465]}},{"type":"Feature","id":"juanbautistacirfont","properties":{"id":"juanbautistacirfont","name":"Juan Bautista Cir & Font Blvd","modes":["bus"],"routes":[],"nameLength":29},"geometry":{"type":"Point","coordinates":[-122.478427,37.718691]}},{"type":"Feature","id":"fontmarywardhall","properties":{"id":"fontmarywardhall","name":"Font Blvd & Mary Ward Hall","modes":["bus"],"routes":[],"nameLength":26},"geometry":{"type":"Point","coordinates":[-122.483056,37.722491]}},{"type":"Feature","id":"19thwinstondr","properties":{"id":"19thwinstondr","name":"19th Ave & Winston Dr","modes":["bus","metro"],"routes":["28","28R","91","M"],"nameLength":21},"geometry":{"type":"Point","coordinates":[-122.474846,37.727195]}},{"type":"Feature","id":"winstondr20th","properties":{"id":"winstondr20th","name":"Winston Dr & 20th Ave","modes":["bus","metro"],"routes":["28","28R","91","M"],"nameLength":21},"geometry":{"type":"Point","coordinates":[-122.475922,37.727017]}},{"type":"Feature","id":"brotherhoodwaychumaserodr","properties":{"id":"brotherhoodwaychumaserodr","name":"Brotherhood Way & Chumasero Dr","modes":["bus"],"routes":[],"nameLength":30},"geometry":{"type":"Point","coordinates":[-122.472676,37.712964]}},{"type":"Feature","id":"genevabalboaparkbart","properties":{"id":"genevabalboaparkbart","name":"Geneva Ave/Balboa Park BART","modes":["bus","metro"],"routes":["43","54","714","8","8BX","91","Blue","Green","J","K","KBUS","M","Red","Yellow"],"nameLength":27},"geometry":{"type":"Point","coordinates":[-122.446738,37.720801]}},{"type":"Feature","id":"citycollegeterminal","properties":{"id":"citycollegeterminal","name":"City College Terminal","modes":["bus","metro"],"routes":["29","91","K","KBUS"],"nameLength":21},"geometry":{"type":"Point","coordinates":[-122.45259,37.723718]}},{"type":"Feature","id":"plymouthgrafton","properties":{"id":"plymouthgrafton","name":"Plymouth Ave & Grafton Ave","modes":["bus"],"routes":[],"nameLength":26},"geometry":{"type":"Point","coordinates":[-122.456221,37.720113]}},{"type":"Feature","id":"montereyfoerster","properties":{"id":"montereyfoerster","name":"Monterey Blvd & Foerster St","modes":["bus"],"routes":[],"nameLength":27},"geometry":{"type":"Point","coordinates":[-122.449166,37.731615]}},{"type":"Feature","id":"yerbabuenahazelwood","properties":{"id":"yerbabuenahazelwood","name":"Yerba Buena Ave & Hazelwood Ave","modes":["bus"],"routes":[],"nameLength":31},"geometry":{"type":"Point","coordinates":[-122.459659,37.734559]}},{"type":"Feature","id":"oceanpersia","properties":{"id":"oceanpersia","name":"Ocean Ave & Persia Ave","modes":["bus"],"routes":[],"nameLength":22},"geometry":{"type":"Point","coordinates":[-122.43589,37.72382]}},{"type":"Feature","id":"sanjosesantaynez","properties":{"id":"sanjosesantaynez","name":"San Jose Ave & Santa Ynez Ave","modes":["metro"],"routes":["J"],"nameLength":29},"geometry":{"type":"Point","coordinates":[-122.442359,37.725877]}},{"type":"Feature","id":"naplesrolph","properties":{"id":"naplesrolph","name":"Naples St & Rolph St","modes":["bus"],"routes":[],"nameLength":20},"geometry":{"type":"Point","coordinates":[-122.436683,37.713644]}},{"type":"Feature","id":"1650geneva","properties":{"id":"1650geneva","name":"1650 Geneva Ave","modes":["bus"],"routes":[],"nameLength":15},"geometry":{"type":"Point","coordinates":[-122.42829,37.71174]}},{"type":"Feature","id":"randolphbright","properties":{"id":"randolphbright","name":"Randolph St & Bright St","modes":["metro"],"routes":["M"],"nameLength":23},"geometry":{"type":"Point","coordinates":[-122.463392,37.714348]}},{"type":"Feature","id":"missionwhittier","properties":{"id":"missionwhittier","name":"Mission St & Whittier St","modes":["bus"],"routes":[],"nameLength":24},"geometry":{"type":"Point","coordinates":[-122.44845,37.71022]}},{"type":"Feature","id":"montereyplymouth","properties":{"id":"montereyplymouth","name":"Monterey Blvd & Plymouth Ave","modes":["bus"],"routes":[],"nameLength":28},"geometry":{"type":"Point","coordinates":[-122.457654,37.730874]}},{"type":"Feature","id":"sunnydaleschwerin","properties":{"id":"sunnydaleschwerin","name":"Sunnydale Ave & Schwerin St","modes":["bus"],"routes":[],"nameLength":27},"geometry":{"type":"Point","coordinates":[-122.4115,37.71059]}},{"type":"Feature","id":"irving2nd","properties":{"id":"irving2nd","name":"Irving St & 2nd Ave","modes":["bus","metro"],"routes":["N","N-Owl","NBUS"],"nameLength":19},"geometry":{"type":"Point","coordinates":[-122.458643,37.764441]}},{"type":"Feature","id":"9thjudah","properties":{"id":"9thjudah","name":"9th Ave & Judah St","modes":["bus","metro"],"routes":["43","44","6","66","N","N-Owl","NBUS"],"nameLength":18},"geometry":{"type":"Point","coordinates":[-122.466241,37.76204]}},{"type":"Feature","id":"carlstanyan","properties":{"id":"carlstanyan","name":"Carl St & Stanyan St","modes":["bus","metro"],"routes":["N","N-Owl","NBUS"],"nameLength":20},"geometry":{"type":"Point","coordinates":[-122.452928,37.765371]}},{"type":"Feature","id":"16thmoraga","properties":{"id":"16thmoraga","name":"16th Ave & Moraga St","modes":["bus"],"routes":[],"nameLength":20},"geometry":{"type":"Point","coordinates":[-122.47368,37.75636]}},{"type":"Feature","id":"diamonddiamondheights","properties":{"id":"diamonddiamondheights","name":"Diamond St & Diamond Heights Blvd","modes":["bus"],"routes":[],"nameLength":33},"geometry":{"type":"Point","coordinates":[-122.43726,37.73822]}},{"type":"Feature","id":"church26th","properties":{"id":"church26th","name":"Church St & 26th St","modes":["bus","metro"],"routes":["J"],"nameLength":19},"geometry":{"type":"Point","coordinates":[-122.42706,37.748416]}},{"type":"Feature","id":"oceanaptos","properties":{"id":"oceanaptos","name":"Ocean Ave & Aptos Ave","modes":["bus","metro"],"routes":["91","K","KBUS"],"nameLength":21},"geometry":{"type":"Point","coordinates":[-122.467561,37.728285]}},{"type":"Feature","id":"genevamission","properties":{"id":"genevamission","name":"Geneva Ave & Mission St","modes":["bus"],"routes":["14","14R","43","54","8","8BX","91"],"nameLength":23},"geometry":{"type":"Point","coordinates":[-122.440874,37.716473]}},{"type":"Feature","id":"22ndiowa","properties":{"id":"22ndiowa","name":"22nd St & Iowa St","modes":["bus","rail"],"routes":["1XX","48","4XX","55","5XX","6XX","Weekend Post-Game","Weekend Pre-Game"],"nameLength":17},"geometry":{"type":"Point","coordinates":[-122.392308,37.757674]}}]}