{"type":"FeatureCollection","features":[{"type":"Feature","id":"sanfrancisco4thking","properties":{"id":"sanfrancisco4thking","name":"San Francisco 4th & King Street","modes":["bus","metro","rail"],"routes":["1XX","4XX","5XX","6XX","91","East","N","S","T","TBUS","Transbay","Weekend Post-Game","Weekend Pre-Game","West"],"nameLength":31},"geometry":{"type":"Point","coordinates":[-122.3943787,37.7760869]}},{"type":"Feature","id":"22nd","properties":{"id":"22nd","name":"22nd Street","modes":["bus","rail"],"routes":["1XX","48","4XX","55","5XX","6XX","Weekend Post-Game","Weekend Pre-Game"],"nameLength":11},"geometry":{"type":"Point","coordinates":[-122.3923999,37.757286]}},{"type":"Feature","id":"castro","properties":{"id":"castro","name":"Castro","modes":["bus","metro"],"routes":["24","35","37","F","K","KBUS","L","L-Owl","M","S"],"nameLength":6},"geometry":{"type":"Point","coordinates":[-122.4350508,37.7625516]}},{"type":"Feature","id":"juniperoserraocean","properties":{"id":"juniperoserraocean","name":"Junipero Serra Boulevard & Ocean Avenue","modes":["bus","metro"],"routes":["57","91","K","KBUS"],"nameLength":39},"geometry":{"type":"Point","coordinates":[-122.4717726,37.7314327]}},{"type":"Feature","id":"taravalsunset","properties":{"id":"taravalsunset","name":"Taraval Street & Sunset Boulevard","modes":["bus","metro"],"routes":["29","L","L-Owl","LBUS"],"nameLength":33},"geometry":{"type":"Point","coordinates":[-122.494461,37.7422281]}},{"type":"Feature","id":"sanjoserandall","properties":{"id":"sanjoserandall","name":"San Jose Avenue & Randall Street","modes":["bus","metro"],"routes":["14","49","J"],"nameLength":32},"geometry":{"type":"Point","coordinates":[-122.4242748,37.7395066]}},{"type":"Feature","id":"judahsunset","properties":{"id":"judahsunset","name":"Judah Street & Sunset Boulevard","modes":["bus","metro"],"routes":["29","N","N-Owl","NBUS"],"nameLength":31},"geometry":{"type":"Point","coordinates":[-122.495769,37.76088]}},{"type":"Feature","id":"judahlaplaya","properties":{"id":"judahlaplaya","name":"Judah Street & La Playa Street","modes":["bus","metro"],"routes":["N","N-Owl","NBUS"],"nameLength":30},"geometry":{"type":"Point","coordinates":[-122.5086157,37.7603147]}},{"type":"Feature","id":"broadplymouth","properties":{"id":"broadplymouth","name":"Broad Street & Plymouth Avenue","modes":["bus","metro"],"routes":["54","M"],"nameLength":30},"geometry":{"type":"Point","coordinates":[-122.4560697,37.7131984]}},{"type":"Feature","id":"dubocechurch","properties":{"id":"dubocechurch","name":"Duboce Avenue & Church Street","modes":["bus","metro"],"routes":["22","J","N","N-Owl","NBUS"],"nameLength":29},"geometry":{"type":"Point","coordinates":[-122.4291697,37.7694503]}},{"type":"Feature","id":"randolpharch","properties":{"id":"randolpharch","name":"Randolph Street & Arch Street","modes":["bus","metro"],"routes":["M"],"nameLength":29},"geometry":{"type":"Point","coordinates":[-122.4670767,37.7142847]}},{"type":"Feature","id":"churchmarket","properties":{"id":"churchmarket","name":"Church Street & Market Street","modes":["bus","metro"],"routes":["22","37","F","J","K","KBUS","L","L-Owl","M","S"],"nameLength":29},"geometry":{"type":"Point","coordinates":[-122.429059,37.7671028]}},{"type":"Feature","id":"taraval22nd","properties":{"id":"taraval22nd","name":"Taraval Street & 22nd Avenue","modes":["bus","metro"],"routes":["L","L-Owl","LBUS"],"nameLength":28},"geometry":{"type":"Point","coordinates":[-122.479458,37.7428892]}},{"type":"Feature","id":"church18th","properties":{"id":"church18th","name":"Church Street & 18th Street","modes":["bus","metro"],"routes":["33","J"],"nameLength":27},"geometry":{"type":"Point","coordinates":[-122.4283361,37.7612999]}},{"type":"Feature","id":"church24th","properties":{"id":"church24th","name":"Church Street & 24th Street","modes":["bus","metro"],"routes":["48","J"],"nameLength":27},"geometry":{"type":"Point","coordinates":[-122.4274526,37.7516987]}},{"type":"Feature","id":"wawona46th","properties":{"id":"wawona46th","name":"Wawona Street & 46th Avenue","modes":["bus","metro"],"routes":["18","L","L-Owl","LBUS"],"nameLength":27},"geometry":{"type":"Point","coordinates":[-122.5045135,37.7361037]}},{"type":"Feature","id":"oceanjules","properties":{"id":"oceanjules","name":"Ocean Avenue & Jules Avenue","modes":["bus","metro"],"routes":["91","K","KBUS"],"nameLength":27},"geometry":{"type":"Point","coordinates":[-122.4612321,37.7249647]}},{"type":"Feature","id":"church28th","properties":{"id":"church28th","name":"Church Street & 28th Street","modes":["bus","metro"],"routes":["J"],"nameLength":27},"geometry":{"type":"Point","coordinates":[-122.4268413,37.7453048]}},{"type":"Feature","id":"church26th","properties":{"id":"church26th","name":"Church Street & 26th Street","modes":["bus","metro"],"routes":["J"],"nameLength":27},"geometry":{"type":"Point","coordinates":[-122.4271454,37.7485023]}},{"type":"Feature","id":"churchday","properties":{"id":"churchday","name":"Church Street & Day Street","modes":["bus","metro"],"routes":["24","36","J"],"nameLength":26},"geometry":{"type":"Point","coordinates":[-122.426497,37.7424595]}},{"type":"Feature","id":"dubocenoe","properties":{"id":"dubocenoe","name":"Duboce Avenue & Noe Street","modes":["bus","metro"],"routes":["N","NBUS"],"nameLength":26},"geometry":{"type":"Point","coordinates":[-122.4336698,37.7693083]}},{"type":"Feature","id":"judah28th","properties":{"id":"judah28th","name":"Judah Street & 28th Avenue","modes":["bus","metro"],"routes":["N","N-Owl","NBUS"],"nameLength":26},"geometry":{"type":"Point","coordinates":[-122.4866522,37.7612828]}},{"type":"Feature","id":"judah19th","properties":{"id":"judah19th","name":"Judah Street & 19th Avenue","modes":["bus","metro"],"routes":["28","28R","91","N","N-Owl","NBUS"],"nameLength":26},"geometry":{"type":"Point","coordinates":[-122.477032,37.761708]}},{"type":"Feature","id":"unionsquaremarket","properties":{"id":"unionsquaremarket","name":"Union Square/Market Street","modes":["bus","metro"],"routes":["38","38R","T"],"nameLength":26},"geometry":{"type":"Point","coordinates":[-122.40645,37.786846]}},{"type":"Feature","id":"oceanlee","properties":{"id":"oceanlee","name":"Ocean Avenue & Lee Avenue","modes":["bus","metro"],"routes":["29","91","K","KBUS"],"nameLength":25},"geometry":{"type":"Point","coordinates":[-122.454108,37.7234456]}},{"type":"Feature","id":"judah9th","properties":{"id":"judah9th","name":"Judah Street & 9th Avenue","modes":["bus","metro"],"routes":["43","44","6","66","N","N-Owl","NBUS"],"nameLength":25},"geometry":{"type":"Point","coordinates":[-122.46644,37.7621741]}},{"type":"Feature","id":"carlcole","properties":{"id":"carlcole","name":"Carl Street & Cole Street","modes":["bus","metro"],"routes":["37","43","N","N-Owl","NBUS"],"nameLength":25},"geometry":{"type":"Point","coordinates":[-122.4499754,37.7658084]}},{"type":"Feature","id":"saintfranciscircle","properties":{"id":"saintfranciscircle","name":"Saint Francis Circle","modes":["bus","metro"],"routes":["23","57","91","K","KBUS","M"],"nameLength":20},"geometry":{"type":"Point","coordinates":[-122.4713392,37.7353364]}},{"type":"Feature","id":"16thmission","properties":{"id":"16thmission","name":"16th Street Mission","modes":["bus","metro"],"routes":["14","14R","22","33","49","55","714","Blue","Green","Red","Yellow"],"nameLength":19},"geometry":{"type":"Point","coordinates":[-122.4197156,37.7649466]}},{"type":"Feature","id":"24thmission","properties":{"id":"24thmission","name":"24th Street Mission","modes":["bus","metro"],"routes":["14","14R","27","48","49","67","714","Blue","Green","Red","Yellow"],"nameLength":19},"geometry":{"type":"Point","coordinates":[-122.418449,37.7522559]}},{"type":"Feature","id":"ucsfmedicalcenter","properties":{"id":"ucsfmedicalcenter","name":"UCSF Medical Center","modes":["bus","metro"],"routes":["91","T","TBUS"],"nameLength":19},"geometry":{"type":"Point","coordinates":[-122.388869,37.7643313]}},{"type":"Feature","id":"yerbabuenamoscone","properties":{"id":"yerbabuenamoscone","name":"Yerba Buena/Moscone","modes":["bus","metro"],"routes":["114","12","132","154","172","30","45","8","8AX","8BX","91","T"],"nameLength":19},"geometry":{"type":"Point","coordinates":[-122.4015735,37.7821652]}},{"type":"Feature","id":"chinatownrosepak","properties":{"id":"chinatownrosepak","name":"Chinatown-Rose Pak","modes":["bus","metro"],"routes":["1","30","45","8","8AX","8BX","91","T"],"nameLength":18},"geometry":{"type":"Point","coordinates":[-122.4080827,37.7946657]}},{"type":"Feature","id":"ucsfchasecenter","properties":{"id":"ucsfchasecenter","name":"UCSF/Chase Center","modes":["bus","metro"],"routes":["T"],"nameLength":17},"geometry":{"type":"Point","coordinates":[-122.3892458,37.7681918]}},{"type":"Feature","id":"montgomery","properties":{"id":"montgomery","name":"Montgomery Street","modes":["bus","metro"],"routes":["38","38R","5","5R","7","9","9R","F","J","K","KBUS","L","L-Owl","M","N","N-Owl","NBUS","S"],"nameLength":17},"geometry":{"type":"Point","coordinates":[-122.4014125,37.7892815]}},{"type":"Feature","id":"kirkwoodlasalle","properties":{"id":"kirkwoodlasalle","name":"Kirkwood/La Salle","modes":["bus","metro"],"routes":["54","91","T","TBUS"],"nameLength":17},"geometry":{"type":"Point","coordinates":[-122.3897643,37.7375275]}},{"type":"Feature","id":"revereshafter","properties":{"id":"revereshafter","name":"Revere/Shafter","modes":["bus","metro"],"routes":["54","91","T","TBUS"],"nameLength":14},"geometry":{"type":"Point","coordinates":[-122.3916755,37.7320706]}},{"type":"Feature","id":"ucsfparnassus","properties":{"id":"ucsfparnassus","name":"UCSF Parnassus","modes":["bus","metro"],"routes":["N","N-Owl","NBUS"],"nameLength":14},"geometry":{"type":"Point","coordinates":[-122.4584185,37.7644073]}},{"type":"Feature","id":"fourthbrannan","properties":{"id":"fourthbrannan","name":"Fourth/Brannan","modes":["metro"],"routes":["T"],"nameLength":14},"geometry":{"type":"Point","coordinates":[-122.396989,37.7786814]}},{"type":"Feature","id":"powell","properties":{"id":"powell","name":"Powell Street","modes":["bus","cablecar","metro"],"routes":["5","5R","7","800","F","J","K","L","M","N","PH","PM","S"],"nameLength":13},"geometry":{"type":"Point","coordinates":[-122.4074761,37.7848308]}},{"type":"Feature","id":"oakdalepalou","properties":{"id":"oakdalepalou","name":"Oakdale/Palou","modes":["bus","metro"],"routes":["15","23","24","44","54","91","T","TBUS"],"nameLength":13},"geometry":{"type":"Point","coordinates":[-122.3908628,37.7343961]}},{"type":"Feature","id":"missionrock","properties":{"id":"missionrock","name":"Mission Rock","modes":["bus","metro"],"routes":["91","T","TBUS"],"nameLength":12},"geometry":{"type":"Point","coordinates":[-122.3896918,37.7729321]}},{"type":"Feature","id":"civiccenter","properties":{"id":"civiccenter","name":"Civic Center","modes":["bus","metro"],"routes":["101","130","150","19","27","6","7","9","9R","Blue","F","Green","J","K","KBUS","L","L-Owl","M","N","N-Owl","NBUS","Red","S","Yellow"],"nameLength":12},"geometry":{"type":"Point","coordinates":[-122.4141816,37.7791968]}},{"type":"Feature","id":"hudsoninnes","properties":{"id":"hudsoninnes","name":"Hudson/Innes","modes":["bus","metro"],"routes":["44","54","91","T","TBUS"],"nameLength":12},"geometry":{"type":"Point","coordinates":[-122.3888966,37.7399474]}},{"type":"Feature","id":"marin","properties":{"id":"marin","name":"Marin Street","modes":["bus","metro"],"routes":["15","91","T","TBUS"],"nameLength":12},"geometry":{"type":"Point","coordinates":[-122.3874868,37.7490293]}},{"type":"Feature","id":"citycollege","properties":{"id":"citycollege","name":"City College","modes":["bus","metro"],"routes":["K"],"nameLength":12},"geometry":{"type":"Point","coordinates":[-122.4511756,37.7229972]}},{"type":"Feature","id":"23rd","properties":{"id":"23rd","name":"23rd Street","modes":["bus","metro"],"routes":["48","91","T","TBUS"],"nameLength":11},"geometry":{"type":"Point","coordinates":[-122.3880198,37.7553756]}},{"type":"Feature","id":"embarcadero","properties":{"id":"embarcadero","name":"Embarcadero","modes":["bus","metro"],"routes":["2","9","9R","F","J","K","KBUS","L","L-Owl","M","N","N-Owl","NBUS","S"],"nameLength":11},"geometry":{"type":"Point","coordinates":[-122.3968661,37.7928378]}},{"type":"Feature","id":"gilmanpaul","properties":{"id":"gilmanpaul","name":"Gilman/Paul","modes":["bus","metro"],"routes":["29","91","T","TBUS"],"nameLength":11},"geometry":{"type":"Point","coordinates":[-122.3956586,37.7224125]}},{"type":"Feature","id":"20th","properties":{"id":"20th","name":"20th Street","modes":["bus","metro"],"routes":["15","48","55","91","T","TBUS"],"nameLength":11},"geometry":{"type":"Point","coordinates":[-122.3885771,37.7604997]}},{"type":"Feature","id":"balboapark","properties":{"id":"balboapark","name":"Balboa Park","modes":["bus","metro"],"routes":["43","54","714","8","8BX","91","Blue","Green","J","K","KBUS","M","Red","Yellow"],"nameLength":11},"geometry":{"type":"Point","coordinates":[-122.4472482,37.7210694]}},{"type":"Feature","id":"westportal","properties":{"id":"westportal","name":"West Portal","modes":["bus","metro"],"routes":["48","57","91","K","KBUS","L","L-Owl","LBUS","M","S"],"nameLength":11},"geometry":{"type":"Point","coordinates":[-122.4656336,37.7411405]}},{"type":"Feature","id":"foresthill","properties":{"id":"foresthill","name":"Forest Hill","modes":["bus","metro"],"routes":["36","43","44","52","K","L","M","S"],"nameLength":11},"geometry":{"type":"Point","coordinates":[-122.4591161,37.747987]}},{"type":"Feature","id":"2ndking","properties":{"id":"2ndking","name":"2nd & King","modes":["bus","metro"],"routes":["N","S"],"nameLength":10},"geometry":{"type":"Point","coordinates":[-122.3906945,37.7789584]}},{"type":"Feature","id":"stonestown","properties":{"id":"stonestown","name":"Stonestown","modes":["bus","metro"],"routes":["28","28R","91","M"],"nameLength":10},"geometry":{"type":"Point","coordinates":[-122.4749029,37.7274507]}},{"type":"Feature","id":"sfstate","properties":{"id":"sfstate","name":"S.F. State","modes":["bus","metro"],"routes":["28","28R","29","91","M"],"nameLength":10},"geometry":{"type":"Point","coordinates":[-122.4752089,37.7216578]}},{"type":"Feature","id":"sunnydale","properties":{"id":"sunnydale","name":"Sunnydale","modes":["bus","metro"],"routes":["292","397","9","9R","T"],"nameLength":9},"geometry":{"type":"Point","coordinates":[-122.4049659,37.7092072]}},{"type":"Feature","id":"glenpark","properties":{"id":"glenpark","name":"Glen Park","modes":["bus","metro"],"routes":["23","36","44","714","Blue","Green","J","Red","Yellow"],"nameLength":9},"geometry":{"type":"Point","coordinates":[-122.433686,37.7326868]}},{"type":"Feature","id":"vanness","properties":{"id":"vanness","name":"Van Ness","modes":["bus","metro"],"routes":["49","7","800","9","90","9R","F","J","K","KBUS","L","L-Owl","M","N","N-Owl","NBUS","S"],"nameLength":8},"geometry":{"type":"Point","coordinates":[-122.4192613,37.7751744]}},{"type":"Feature","id":"leconte","properties":{"id":"leconte","name":"Le Conte","modes":["bus","metro"],"routes":["91","T","TBUS"],"nameLength":8},"geometry":{"type":"Point","coordinates":[-122.3978044,37.718533]}},{"type":"Feature","id":"williams","properties":{"id":"williams","name":"Williams","modes":["bus","metro"],"routes":["54","91","T","TBUS"],"nameLength":8},"geometry":{"type":"Point","coordinates":[-122.3926636,37.7292511]}},{"type":"Feature","id":"brannan","properties":{"id":"brannan","name":"Brannan","modes":["bus","metro"],"routes":["N","N-Owl","NBUS","S","TBUS"],"nameLength":7},"geometry":{"type":"Point","coordinates":[-122.3881367,37.7836197]}},{"type":"Feature","id":"carroll","properties":{"id":"carroll","name":"Carroll","modes":["bus","metro"],"routes":["91","T","TBUS"],"nameLength":7},"geometry":{"type":"Point","coordinates":[-122.3942674,37.7254837]}},{"type":"Feature","id":"folsom","properties":{"id":"folsom","name":"Folsom","modes":["bus","metro"],"routes":["N","N-Owl","NBUS","S","TBUS"],"nameLength":6},"geometry":{"type":"Point","coordinates":[-122.3895673,37.7904517]}},{"type":"Feature","id":"arleta","properties":{"id":"arleta","name":"Arleta","modes":["bus","metro"],"routes":["292","397","56","8","8AX","8BX","9","90","91","9R","BBC","T","TBUS"],"nameLength":6},"geometry":{"type":"Point","coordinates":[-122.4020027,37.7123573]}},{"type":"Feature","id":"evans","properties":{"id":"evans","name":"Evans","modes":["bus","metro"],"routes":["15","19","44","91","T","TBUS"],"nameLength":5},"geometry":{"type":"Point","coordinates":[-122.3879459,37.742715]}},{"type":"Feature","id":"pier41gate2","properties":{"id":"pier41gate2","name":"Pier 41 Gate 2","modes":["ferry"],"routes":["Blue & Gold Fleet","San Francisco Bay Ferry"],"nameLength":14},"geometry":{"type":"Point","coordinates":[-122.4123417,37.8094171]}},{"type":"Feature","id":"oracleparkferryterminal","properties":{"id":"oracleparkferryterminal","name":"Oracle Park Ferry Terminal","modes":["ferry"],"routes":[],"nameLength":26},"geometry":{"type":"Point","coordinates":[-122.387046,37.778192]}},{"type":"Feature","id":"redwhitefleet","properties":{"id":"redwhitefleet","name":"Red & White Fleet","modes":["ferry"],"routes":[],"nameLength":17},"geometry":{"type":"Point","coordinates":[-122.415159,37.809124]}},{"type":"Feature","id":"marketdrumm","properties":{"id":"marketdrumm","name":"Market Street & Drumm Street","modes":["bus","cablecar","metro"],"routes":["12","2","9","Blue","C","DT","F","Green","J","K","KBUS","L","L-Owl","M","N","N-Owl","NBUS","Red","S","Yellow"],"nameLength":28},"geometry":{"type":"Point","coordinates":[-122.3962539,37.7936077]}},{"type":"Feature","id":"ulloaforestside","properties":{"id":"ulloaforestside","name":"Ulloa Street & Forest Side Avenue","modes":["bus","metro"],"routes":["48","L","L-Owl","LBUS"],"nameLength":33},"geometry":{"type":"Point","coordinates":[-122.4686115,37.7414974]}},{"type":"Feature","id":"46thtaraval","properties":{"id":"46thtaraval","name":"46th Avenue & Taraval Street","modes":["bus","metro"],"routes":["18","L","L-Owl","LBUS"],"nameLength":28},"geometry":{"type":"Point","coordinates":[-122.504463,37.7417207]}},{"type":"Feature","id":"46thvicente","properties":{"id":"46thvicente","name":"46th Avenue & Vicente Street","modes":["bus","metro"],"routes":["18","L","L-Owl","LBUS"],"nameLength":28},"geometry":{"type":"Point","coordinates":[-122.5043771,37.7380508]}},{"type":"Feature","id":"46thulloa","properties":{"id":"46thulloa","name":"46th Avenue & Ulloa Street","modes":["bus","metro"],"routes":["18","L","L-Owl","LBUS"],"nameLength":26},"geometry":{"type":"Point","coordinates":[-122.5045083,37.7399159]}},{"type":"Feature","id":"judahfunston","properties":{"id":"judahfunston","name":"Judah Street & Funston Avenue","modes":["bus","metro"],"routes":["N","N-Owl","NBUS"],"nameLength":29},"geometry":{"type":"Point","coordinates":[-122.4704875,37.7619954]}},{"type":"Feature","id":"doncheewaysteuart","properties":{"id":"doncheewaysteuart","name":"Don Chee Way & Steuart Street","modes":["bus","metro"],"routes":["14","F","L-Owl","N-Owl"],"nameLength":29},"geometry":{"type":"Point","coordinates":[-122.3935966,37.7939964]}},{"type":"Feature","id":"30thdolores","properties":{"id":"30thdolores","name":"30th Street & Dolores Street","modes":["bus","metro"],"routes":["24","36","J"],"nameLength":28},"geometry":{"type":"Point","coordinates":[-122.4242589,37.7422454]}},{"type":"Feature","id":"carlstanyan","properties":{"id":"carlstanyan","name":"Carl Street & Stanyan Street","modes":["bus","metro"],"routes":["N","N-Owl","NBUS"],"nameLength":28},"geometry":{"type":"Point","coordinates":[-122.4527906,37.7654526]}},{"type":"Feature","id":"carlhillway","properties":{"id":"carlhillway","name":"Carl Street & Hillway Avenue","modes":["bus","metro"],"routes":["N","N-Owl","NBUS"],"nameLength":28},"geometry":{"type":"Point","coordinates":[-122.4563447,37.764997]}},{"type":"Feature","id":"taraval44th","properties":{"id":"taraval44th","name":"Taraval Street & 44th Avenue","modes":["bus","metro"],"routes":["L","L-Owl","LBUS"],"nameLength":28},"geometry":{"type":"Point","coordinates":[-122.5024946,37.7418775]}},{"type":"Feature","id":"taraval42nd","properties":{"id":"taraval42nd","name":"Taraval Street & 42nd Avenue","modes":["bus","metro"],"routes":["L","L-Owl","LBUS"],"nameLength":28},"geometry":{"type":"Point","coordinates":[-122.5003513,37.7419723]}},{"type":"Feature","id":"taraval40th","properties":{"id":"taraval40th","name":"Taraval Street & 40th Avenue","modes":["bus","metro"],"routes":["L","L-Owl","LBUS"],"nameLength":28},"geometry":{"type":"Point","coordinates":[-122.4982122,37.7420665]}},{"type":"Feature","id":"taraval32nd","properties":{"id":"taraval32nd","name":"Taraval Street & 32nd Avenue","modes":["bus","metro"],"routes":["L","L-Owl","LBUS"],"nameLength":28},"geometry":{"type":"Point","coordinates":[-122.4896457,37.7424435]}},{"type":"Feature","id":"taraval30th","properties":{"id":"taraval30th","name":"Taraval Street & 30th Avenue","modes":["bus","metro"],"routes":["66","L","L-Owl","LBUS"],"nameLength":28},"geometry":{"type":"Point","coordinates":[-122.4874987,37.742537]}},{"type":"Feature","id":"taraval26th","properties":{"id":"taraval26th","name":"Taraval Street & 26th Avenue","modes":["bus","metro"],"routes":["L","L-Owl","LBUS"],"nameLength":28},"geometry":{"type":"Point","coordinates":[-122.4832194,37.7427244]}},{"type":"Feature","id":"taraval17th","properties":{"id":"taraval17th","name":"Taraval Street & 17th Avenue","modes":["bus","metro"],"routes":["L","L-Owl","LBUS"],"nameLength":28},"geometry":{"type":"Point","coordinates":[-122.4737059,37.7430908]}},{"type":"Feature","id":"15thtaraval","properties":{"id":"15thtaraval","name":"15th Avenue & Taraval Street","modes":["bus","metro"],"routes":["L","L-Owl","LBUS"],"nameLength":28},"geometry":{"type":"Point","coordinates":[-122.4713639,37.7430512]}},{"type":"Feature","id":"irving8th","properties":{"id":"irving8th","name":"Irving Street & 8th Avenue","modes":["bus","metro"],"routes":["N","N-Owl","NBUS"],"nameLength":26},"geometry":{"type":"Point","coordinates":[-122.4654085,37.7640573]}},{"type":"Feature","id":"irving5th","properties":{"id":"irving5th","name":"Irving Street & 5th Avenue","modes":["bus","metro"],"routes":["N","N-Owl","NBUS"],"nameLength":26},"geometry":{"type":"Point","coordinates":[-122.4625981,37.7642108]}},{"type":"Feature","id":"westportal14th","properties":{"id":"westportal14th","name":"West Portal Avenue & 14th Avenue","modes":["bus","metro"],"routes":["57","91","K","KBUS","M"],"nameLength":32},"geometry":{"type":"Point","coordinates":[-122.4690675,37.737989]}},{"type":"Feature","id":"jeffersontaylor","properties":{"id":"jeffersontaylor","name":"Jefferson Street & Taylor Street","modes":["bus","metro"],"routes":["F","L-Owl"],"nameLength":32},"geometry":{"type":"Point","coordinates":[-122.415322,37.808339]}},{"type":"Feature","id":"jeffersonpowell","properties":{"id":"jeffersonpowell","name":"Jefferson Street & Powell Street","modes":["bus","metro"],"routes":["F","L-Owl"],"nameLength":32},"geometry":{"type":"Point","coordinates":[-122.4133625,37.8085876]}},{"type":"Feature","id":"beachstockton","properties":{"id":"beachstockton","name":"Beach Street & Stockton Street","modes":["bus","metro"],"routes":["F","L-Owl"],"nameLength":30},"geometry":{"type":"Point","coordinates":[-122.4110214,37.8078084]}},{"type":"Feature","id":"beachmason","properties":{"id":"beachmason","name":"Beach Street & Mason Street","modes":["bus","metro"],"routes":["F","L-Owl"],"nameLength":27},"geometry":{"type":"Point","coordinates":[-122.414321,37.8073901]}},{"type":"Feature","id":"jonesbeach","properties":{"id":"jonesbeach","name":"Jones Street & Beach Street","modes":["bus","metro"],"routes":["F","L-Owl"],"nameLength":27},"geometry":{"type":"Point","coordinates":[-122.417407,37.8073725]}},{"type":"Feature","id":"19thjuniperoserra","properties":{"id":"19thjuniperoserra","name":"19th Avenue & Junipero Serra Boulevard","modes":["metro"],"routes":["M"],"nameLength":38},"geometry":{"type":"Point","coordinates":[-122.4722305,37.7168963]}},{"type":"Feature","id":"sanjosemountvernon","properties":{"id":"sanjosemountvernon","name":"San Jose Avenue & Mount Vernon Avenue","modes":["metro"],"routes":["M"],"nameLength":37},"geometry":{"type":"Point","coordinates":[-122.4486809,37.7183714]}},{"type":"Feature","id":"marketnewmontgomery","properties":{"id":"marketnewmontgomery","name":"Market Street & New Montgomery Street","modes":["bus","metro"],"routes":["2","38","38R","5","5R","9","9R","Blue","F","Green","J","K","L","L-Owl","M","N","N-Owl","Red","S","Yellow"],"nameLength":37},"geometry":{"type":"Point","coordinates":[-122.4021789,37.788642]}},{"type":"Feature","id":"theembarcaderowashington","properties":{"id":"theembarcaderowashington","name":"The Embarcadero & Washington Street","modes":["bus","metro"],"routes":["82","F","L-Owl"],"nameLength":35},"geometry":{"type":"Point","coordinates":[-122.3951692,37.7963746]}},{"type":"Feature","id":"theembarcaderowashington-2","properties":{"id":"theembarcaderowashington-2","name":"The Embarcadero & Washington Street","modes":["bus","metro"],"routes":["F","L-Owl"],"nameLength":35},"geometry":{"type":"Point","coordinates":[-122.3957331,37.7970714]}},{"type":"Feature","id":"marketcyrilmagnin","properties":{"id":"marketcyrilmagnin","name":"Market Street & Cyril Magnin Street","modes":["bus","metro"],"routes":["31","7","9","9R","Blue","F","Green","J","K","KBUS","L","L-Owl","M","N","N-Owl","NBUS","Red","S","Yellow"],"nameLength":35},"geometry":{"type":"Point","coordinates":[-122.4080795,37.784006]}},{"type":"Feature","id":"19thnorthrandolph","properties":{"id":"19thnorthrandolph","name":"19th Avenue & North Randolph Street","modes":["metro"],"routes":["M"],"nameLength":35},"geometry":{"type":"Point","coordinates":[-122.471703,37.7161525]}},{"type":"Feature","id":"sanjosefarallones","properties":{"id":"sanjosefarallones","name":"San Jose Avenue & Farallones Street","modes":["metro"],"routes":["M"],"nameLength":35},"geometry":{"type":"Point","coordinates":[-122.452231,37.7140535]}},{"type":"Feature","id":"sanjosesantarosa","properties":{"id":"sanjosesantarosa","name":"San Jose Avenue & Santa Rosa Avenue","modes":["metro"],"routes":["J"],"nameLength":35},"geometry":{"type":"Point","coordinates":[-122.4398173,37.7290891]}},{"type":"Feature","id":"sanjosesantaynez","properties":{"id":"sanjosesantaynez","name":"San Jose Avenue & Santa Ynez Avenue","modes":["metro"],"routes":["J"],"nameLength":35},"geometry":{"type":"Point","coordinates":[-122.4423925,37.7257932]}},{"type":"Feature","id":"theembarcaderogreenwich","properties":{"id":"theembarcaderogreenwich","name":"The Embarcadero & Greenwich Street","modes":["bus","metro"],"routes":["F","L-Owl"],"nameLength":34},"geometry":{"type":"Point","coordinates":[-122.4011031,37.8031065]}},{"type":"Feature","id":"sanjoselakeview","properties":{"id":"sanjoselakeview","name":"San Jose Avenue & Lakeview Avenue","modes":["metro"],"routes":["M"],"nameLength":33},"geometry":{"type":"Point","coordinates":[-122.450394,37.7161806]}},{"type":"Feature","id":"theembarcaderosansome","properties":{"id":"theembarcaderosansome","name":"The Embarcadero & Sansome Street","modes":["bus","metro"],"routes":["F","L-Owl"],"nameLength":32},"geometry":{"type":"Point","coordinates":[-122.4030518,37.804906]}},{"type":"Feature","id":"sanjoseniagara","properties":{"id":"sanjoseniagara","name":"San Jose Avenue & Niagara Avenue","modes":["metro"],"routes":["M"],"nameLength":32},"geometry":{"type":"Point","coordinates":[-122.4476589,37.7193081]}},{"type":"Feature","id":"market7thnorth","properties":{"id":"market7thnorth","name":"Market Street & 7th Street North","modes":["bus","metro"],"routes":["101","130","150","19","27","5","5R","7","9","9R","Blue","East","F","Green","J","K","KBUS","L","L-Owl","M","N","N-Owl","NBUS","Red","S","West","Yellow"],"nameLength":32},"geometry":{"type":"Point","coordinates":[-122.412518,37.7804981]}},{"type":"Feature","id":"rightofwayeucalyptusdrive","properties":{"id":"rightofwayeucalyptusdrive","name":"Right of Way & Eucalyptus Drive","modes":["bus","metro"],"routes":["28","57","91","M"],"nameLength":31},"geometry":{"type":"Point","coordinates":[-122.4743734,37.7310975]}},{"type":"Feature","id":"randolphbright","properties":{"id":"randolphbright","name":"Randolph Street & Bright Street","modes":["metro"],"routes":["M"],"nameLength":31},"geometry":{"type":"Point","coordinates":[-122.4635167,37.7143051]}},{"type":"Feature","id":"marketbuchanan","properties":{"id":"marketbuchanan","name":"Market Street & Buchanan Street","modes":["bus","metro"],"routes":["F","L-Owl","N-Owl"],"nameLength":31},"geometry":{"type":"Point","coordinates":[-122.426121,37.769801]}},{"type":"Feature","id":"marketguerrero","properties":{"id":"marketguerrero","name":"Market Street & Guerrero Street","modes":["bus","metro"],"routes":["F","L-Owl","N-Owl"],"nameLength":31},"geometry":{"type":"Point","coordinates":[-122.4248465,37.7707544]}},{"type":"Feature","id":"marketstockton","properties":{"id":"marketstockton","name":"Market Street & Stockton Street","modes":["bus","metro"],"routes":["15","30","45","7","8","8AX","8BX","9","91","9R","Blue","East","F","Green","L-Owl","N-Owl","Red","West","Yellow"],"nameLength":31},"geometry":{"type":"Point","coordinates":[-122.405822,37.785567]}},{"type":"Feature","id":"theembarcaderogreen","properties":{"id":"theembarcaderogreen","name":"The Embarcadero & Green Street","modes":["bus","metro"],"routes":["F","L-Owl"],"nameLength":30},"geometry":{"type":"Point","coordinates":[-122.398916,37.8006222]}},{"type":"Feature","id":"theembarcaderogreen-2","properties":{"id":"theembarcaderogreen-2","name":"The Embarcadero & Green Street","modes":["bus","metro"],"routes":["F","L-Owl"],"nameLength":30},"geometry":{"type":"Point","coordinates":[-122.3994239,37.801251]}},{"type":"Feature","id":"oceansanleandroway","properties":{"id":"oceansanleandroway","name":"Ocean Avenue & San Leandro Way","modes":["bus","metro"],"routes":["91","K","KBUS"],"nameLength":30},"geometry":{"type":"Point","coordinates":[-122.4693539,37.7299801]}},{"type":"Feature","id":"oceancerritos","properties":{"id":"oceancerritos","name":"Ocean Avenue & Cerritos Avenue","modes":["bus","metro"],"routes":["91","K","KBUS"],"nameLength":30},"geometry":{"type":"Point","coordinates":[-122.4666962,37.7272476]}},{"type":"Feature","id":"marketsanchez","properties":{"id":"marketsanchez","name":"Market Street & Sanchez Street","modes":["bus","metro"],"routes":["37","F","L-Owl"],"nameLength":30},"geometry":{"type":"Point","coordinates":[-122.4309752,37.7659141]}},{"type":"Feature","id":"sanjoseocean","properties":{"id":"sanjoseocean","name":"San Jose Avenue & Ocean Avenue","modes":["bus","metro"],"routes":["29","49","J","KBUS"],"nameLength":30},"geometry":{"type":"Point","coordinates":[-122.444766,37.7229625]}},{"type":"Feature","id":"marketbattery","properties":{"id":"marketbattery","name":"Market Street & Battery Street","modes":["bus","metro"],"routes":["114","132","154","172","7","9","9R","F","L-Owl","N-Owl"],"nameLength":30},"geometry":{"type":"Point","coordinates":[-122.3991812,37.7910373]}},{"type":"Feature","id":"marketdolores","properties":{"id":"marketdolores","name":"Market Street & Dolores Street","modes":["bus","metro"],"routes":["F","L-Owl","N-Owl","NBUS"],"nameLength":30},"geometry":{"type":"Point","coordinates":[-122.4271335,37.7689089]}},{"type":"Feature","id":"rightofwayliberty","properties":{"id":"rightofwayliberty","name":"Right of Way & Liberty Street","modes":["metro"],"routes":["J"],"nameLength":29},"geometry":{"type":"Point","coordinates":[-122.4269573,37.7573638]}},{"type":"Feature","id":"oceanmiramar","properties":{"id":"oceanmiramar","name":"Ocean Avenue & Miramar Avenue","modes":["bus","metro"],"routes":["91","K","KBUS"],"nameLength":29},"geometry":{"type":"Point","coordinates":[-122.4581895,37.7243174]}},{"type":"Feature","id":"orizababroad","properties":{"id":"orizababroad","name":"Orizaba Avenue & Broad Street","modes":["metro"],"routes":["M"],"nameLength":29},"geometry":{"type":"Point","coordinates":[-122.4624903,37.7132745]}},{"type":"Feature","id":"19thrandolph","properties":{"id":"19thrandolph","name":"19th Avenue & Randolph Street","modes":["metro"],"routes":["M"],"nameLength":29},"geometry":{"type":"Point","coordinates":[-122.4701443,37.7146146]}},{"type":"Feature","id":"broadcapitol","properties":{"id":"broadcapitol","name":"Broad Street & Capitol Avenue","modes":["metro"],"routes":["M"],"nameLength":29},"geometry":{"type":"Point","coordinates":[-122.4590445,37.7131782]}},{"type":"Feature","id":"marketchurch","properties":{"id":"marketchurch","name":"Market Street & Church Street","modes":["bus","metro"],"routes":["22","37","F","J","KBUS","L-Owl"],"nameLength":29},"geometry":{"type":"Point","coordinates":[-122.4286022,37.7678346]}},{"type":"Feature","id":"marketlarkin","properties":{"id":"marketlarkin","name":"Market Street & Larkin Street","modes":["bus","metro"],"routes":["6","7","9","9R","CCA","F","L-Owl","N-Owl"],"nameLength":29},"geometry":{"type":"Point","coordinates":[-122.4163035,37.7775078]}},{"type":"Feature","id":"markettaylor","properties":{"id":"markettaylor","name":"Market Street & Taylor Street","modes":["bus","metro"],"routes":["7","9","9R","F","L-Owl","N-Owl"],"nameLength":29},"geometry":{"type":"Point","coordinates":[-122.4103915,37.78218]}},{"type":"Feature","id":"marketkearny","properties":{"id":"marketkearny","name":"Market Street & Kearny Street","modes":["bus","metro"],"routes":["30","38","38R","45","5","5R","7","8","800","8AX","8BX","9","91","9R","F","KBUS","L-Owl","N-Owl","NBUS"],"nameLength":29},"geometry":{"type":"Point","coordinates":[-122.403334,37.7879138]}},{"type":"Feature","id":"theembarcaderobay","properties":{"id":"theembarcaderobay","name":"The Embarcadero & Bay Street","modes":["bus","metro"],"routes":["114","132","154","172","F","L-Owl"],"nameLength":28},"geometry":{"type":"Point","coordinates":[-122.4062447,37.8068605]}},{"type":"Feature","id":"oceanfairfieldway","properties":{"id":"oceanfairfieldway","name":"Ocean Avenue & Fairfield Way","modes":["bus","metro"],"routes":["91","K","KBUS"],"nameLength":28},"geometry":{"type":"Point","coordinates":[-122.4641197,37.7260088]}},{"type":"Feature","id":"taraval19th","properties":{"id":"taraval19th","name":"Taraval Street & 19th Avenue","modes":["bus","metro"],"routes":["28","28R","91","L","L-Owl","LBUS"],"nameLength":28},"geometry":{"type":"Point","coordinates":[-122.4756616,37.7430578]}},{"type":"Feature","id":"marketgough","properties":{"id":"marketgough","name":"Market Street & Gough Street","modes":["bus","metro"],"routes":["7","F","L-Owl","N-Owl"],"nameLength":28},"geometry":{"type":"Point","coordinates":[-122.421897,37.7730746]}},{"type":"Feature","id":"47thcutler","properties":{"id":"47thcutler","name":"47th Avenue & Cutler Avenue","modes":["metro"],"routes":["L"],"nameLength":27},"geometry":{"type":"Point","coordinates":[-122.505361,37.7367941]}},{"type":"Feature","id":"rightofwayocean","properties":{"id":"rightofwayocean","name":"Right of Way & Ocean Avenue","modes":["metro"],"routes":["M"],"nameLength":27},"geometry":{"type":"Point","coordinates":[-122.4737755,37.7319254]}},{"type":"Feature","id":"oceanaptos","properties":{"id":"oceanaptos","name":"Ocean Avenue & Aptos Avenue","modes":["bus","metro"],"routes":["91","K","KBUS"],"nameLength":27},"geometry":{"type":"Point","coordinates":[-122.4677479,37.7283338]}},{"type":"Feature","id":"church16th","properties":{"id":"church16th","name":"Church Street & 16th Street","modes":["bus","metro"],"routes":["22","J"],"nameLength":27},"geometry":{"type":"Point","coordinates":[-122.4286811,37.7645156]}},{"type":"Feature","id":"church22nd","properties":{"id":"church22nd","name":"Church Street & 22nd Street","modes":["metro"],"routes":["J"],"nameLength":27},"geometry":{"type":"Point","coordinates":[-122.4277313,37.7546036]}},{"type":"Feature","id":"theembarcaderobroadway","properties":{"id":"theembarcaderobroadway","name":"The Embarcadero & Broadway","modes":["bus","metro"],"routes":["F","L-Owl"],"nameLength":26},"geometry":{"type":"Point","coordinates":[-122.3979262,37.7995443]}},{"type":"Feature","id":"theembarcaderobroadway-2","properties":{"id":"theembarcaderobroadway-2","name":"The Embarcadero & Broadway","modes":["bus","metro"],"routes":["F","L-Owl"],"nameLength":26},"geometry":{"type":"Point","coordinates":[-122.3974209,37.7989201]}},{"type":"Feature","id":"rightofway20th","properties":{"id":"rightofway20th","name":"Right of Way & 20th Street","modes":["metro"],"routes":["J"],"nameLength":26},"geometry":{"type":"Point","coordinates":[-122.4278841,37.758408]}},{"type":"Feature","id":"judah12th","properties":{"id":"judah12th","name":"Judah Street & 12th Avenue","modes":["bus","metro"],"routes":["N","N-Owl","NBUS"],"nameLength":26},"geometry":{"type":"Point","coordinates":[-122.4694126,37.7620415]}},{"type":"Feature","id":"rightofway21st","properties":{"id":"rightofway21st","name":"Right of Way & 21st Street","modes":["metro"],"routes":["J"],"nameLength":26},"geometry":{"type":"Point","coordinates":[-122.4269665,37.7563732]}},{"type":"Feature","id":"9thirving","properties":{"id":"9thirving","name":"9th Avenue & Irving Street","modes":["bus","metro"],"routes":["44","N","N-Owl","NBUS"],"nameLength":26},"geometry":{"type":"Point","coordinates":[-122.4663058,37.7633863]}},{"type":"Feature","id":"judah46th","properties":{"id":"judah46th","name":"Judah Street & 46th Avenue","modes":["bus","metro"],"routes":["18","N","N-Owl","NBUS"],"nameLength":26},"geometry":{"type":"Point","coordinates":[-122.5059448,37.7604286]}},{"type":"Feature","id":"judah43rd","properties":{"id":"judah43rd","name":"Judah Street & 43rd Avenue","modes":["bus","metro"],"routes":["N","N-Owl","NBUS"],"nameLength":26},"geometry":{"type":"Point","coordinates":[-122.5027323,37.7605705]}},{"type":"Feature","id":"judah34th","properties":{"id":"judah34th","name":"Judah Street & 34th Avenue","modes":["bus","metro"],"routes":["N","N-Owl","NBUS"],"nameLength":26},"geometry":{"type":"Point","coordinates":[-122.4930853,37.7609966]}},{"type":"Feature","id":"judah25th","properties":{"id":"judah25th","name":"Judah Street & 25th Avenue","modes":["bus","metro"],"routes":["N","N-Owl","NBUS"],"nameLength":26},"geometry":{"type":"Point","coordinates":[-122.4834447,37.7614224]}},{"type":"Feature","id":"judah31st","properties":{"id":"judah31st","name":"Judah Street & 31st Avenue","modes":["bus","metro"],"routes":["N","N-Owl","NBUS"],"nameLength":26},"geometry":{"type":"Point","coordinates":[-122.4895152,37.7611548]}},{"type":"Feature","id":"judah40th","properties":{"id":"judah40th","name":"Judah Street & 40th Avenue","modes":["bus","metro"],"routes":["N","N-Owl","NBUS"],"nameLength":26},"geometry":{"type":"Point","coordinates":[-122.4991461,37.7607289]}},{"type":"Feature","id":"judah23rd","properties":{"id":"judah23rd","name":"Judah Street & 23rd Avenue","modes":["bus","metro"],"routes":["7","N","N-Owl","NBUS"],"nameLength":26},"geometry":{"type":"Point","coordinates":[-122.4811634,37.7615373]}},{"type":"Feature","id":"judah15th","properties":{"id":"judah15th","name":"Judah Street & 15th Avenue","modes":["bus","metro"],"routes":["N","N-Owl","NBUS"],"nameLength":26},"geometry":{"type":"Point","coordinates":[-122.4727006,37.7618819]}},{"type":"Feature","id":"judah16th","properties":{"id":"judah16th","name":"Judah Street & 16th Avenue","modes":["bus","metro"],"routes":["N","N-Owl","NBUS"],"nameLength":26},"geometry":{"type":"Point","coordinates":[-122.4739175,37.7618606]}},{"type":"Feature","id":"judah22nd","properties":{"id":"judah22nd","name":"Judah Street & 22nd Avenue","modes":["bus","metro"],"routes":["7","N","N-Owl","NBUS"],"nameLength":26},"geometry":{"type":"Point","coordinates":[-122.4795951,37.7615783]}},{"type":"Feature","id":"marketnoe","properties":{"id":"marketnoe","name":"Market Street & Noe Street","modes":["bus","metro"],"routes":["37","F","L-Owl"],"nameLength":26},"geometry":{"type":"Point","coordinates":[-122.4330819,37.7642273]}},{"type":"Feature","id":"market8th","properties":{"id":"market8th","name":"Market Street & 8th Street","modes":["bus","metro"],"routes":["101","130","150","19","27","6","7","9","9R","Blue","CCA","F","Green","J","K","KBUS","L","L-Owl","M","N","N-Owl","NBUS","Red","S","Yellow"],"nameLength":26},"geometry":{"type":"Point","coordinates":[-122.4150423,37.7789055]}},{"type":"Feature","id":"ferrybuilding","properties":{"id":"ferrybuilding","name":"Ferry Building","modes":["bus","metro"],"routes":["F","L-Owl"],"nameLength":14},"geometry":{"type":"Point","coordinates":[-122.3940325,37.7951951]}},{"type":"Feature","id":"pier39","properties":{"id":"pier39","name":"Pier 39","modes":["bus","metro"],"routes":["39","F","L-Owl"],"nameLength":7},"geometry":{"type":"Point","coordinates":[-122.410287,37.8083328]}},{"type":"Feature","id":"churchclipper","properties":{"id":"churchclipper","name":"Church Street & Clipper Street","modes":["bus","metro"],"routes":["J"],"nameLength":30},"geometry":{"type":"Point","coordinates":[-122.4272265,37.7493063]}},{"type":"Feature","id":"church27th","properties":{"id":"church27th","name":"Church Street & 27th Street","modes":["bus","metro"],"routes":[],"nameLength":27},"geometry":{"type":"Point","coordinates":[-122.426989,37.7469028]}},{"type":"Feature","id":"folsom-2","properties":{"id":"folsom-2","name":"Folsom","modes":["metro"],"routes":["N","S"],"nameLength":6},"geometry":{"type":"Point","coordinates":[-122.388732,37.789784]}},{"type":"Feature","id":"powellcalifornia","properties":{"id":"powellcalifornia","name":"Powell Street & California Street","modes":["bus","cablecar"],"routes":["1","C","PH","PM"],"nameLength":33},"geometry":{"type":"Point","coordinates":[-122.4093143,37.7923968]}},{"type":"Feature","id":"washingtonpowell","properties":{"id":"washingtonpowell","name":"Washington Street & Powell Street","modes":["cablecar"],"routes":["PH","PM"],"nameLength":33},"geometry":{"type":"Point","coordinates":[-122.409954,37.7949158]}},{"type":"Feature","id":"powellofarrell","properties":{"id":"powellofarrell","name":"Powell Street & O'Farrell Street","modes":["bus","cablecar"],"routes":["38","38R","PH","PM"],"nameLength":32},"geometry":{"type":"Point","coordinates":[-122.408101,37.7866933]}},{"type":"Feature","id":"powellsutter","properties":{"id":"powellsutter","name":"Powell Street & Sutter Street","modes":["bus","cablecar"],"routes":["2","PH","PM"],"nameLength":29},"geometry":{"type":"Point","coordinates":[-122.4085463,37.7888434]}},{"type":"Feature","id":"powellgeary","properties":{"id":"powellgeary","name":"Powell Street & Geary Street","modes":["bus","cablecar"],"routes":["2","38","38R","PH","PM"],"nameLength":28},"geometry":{"type":"Point","coordinates":[-122.4083345,37.7878163]}},{"type":"Feature","id":"powellbush","properties":{"id":"powellbush","name":"Powell Street & Bush Street","modes":["cablecar"],"routes":["PH","PM"],"nameLength":27},"geometry":{"type":"Point","coordinates":[-122.408809,37.7901896]}},{"type":"Feature","id":"powellpine","properties":{"id":"powellpine","name":"Powell Street & Pine Street","modes":["cablecar"],"routes":["PH","PM"],"nameLength":27},"geometry":{"type":"Point","coordinates":[-122.4089965,37.7910951]}},{"type":"Feature","id":"powellclay","properties":{"id":"powellclay","name":"Powell Street & Clay Street","modes":["bus","cablecar"],"routes":["1","PH","PM"],"nameLength":27},"geometry":{"type":"Point","coordinates":[-122.4095335,37.7937934]}},{"type":"Feature","id":"californialeavenworth","properties":{"id":"californialeavenworth","name":"California Street & Leavenworth Street","modes":["bus","cablecar"],"routes":["27","C"],"nameLength":38},"geometry":{"type":"Point","coordinates":[-122.4156629,37.7912224]}},{"type":"Feature","id":"washingtonleavenworth","properties":{"id":"washingtonleavenworth","name":"Washington Street & Leavenworth Street","modes":["cablecar"],"routes":["PH"],"nameLength":38},"geometry":{"type":"Point","coordinates":[-122.4163,37.7939078]}},{"type":"Feature","id":"californiamontgomery","properties":{"id":"californiamontgomery","name":"California Street & Montgomery Street","modes":["cablecar"],"routes":["C"],"nameLength":37},"geometry":{"type":"Point","coordinates":[-122.4027856,37.7928637]}},{"type":"Feature","id":"californiastockton","properties":{"id":"californiastockton","name":"California Street & Stockton Street","modes":["cablecar"],"routes":["C"],"nameLength":35},"geometry":{"type":"Point","coordinates":[-122.4075438,37.7922592]}},{"type":"Feature","id":"californiavanness","properties":{"id":"californiavanness","name":"California Street & Van Ness Avenue","modes":["cablecar"],"routes":["C"],"nameLength":35},"geometry":{"type":"Point","coordinates":[-122.4218697,37.790454]}},{"type":"Feature","id":"jacksonleavenworth","properties":{"id":"jacksonleavenworth","name":"Jackson Street & Leavenworth Street","modes":["bus","cablecar"],"routes":["27","PH"],"nameLength":35},"geometry":{"type":"Point","coordinates":[-122.416339,37.7948038]}},{"type":"Feature","id":"californiasansome","properties":{"id":"californiasansome","name":"California Street & Sansome Street","modes":["cablecar"],"routes":["C"],"nameLength":34},"geometry":{"type":"Point","coordinates":[-122.4011579,37.7930712]}},{"type":"Feature","id":"californiabattery","properties":{"id":"californiabattery","name":"California Street & Battery Street","modes":["cablecar"],"routes":["C"],"nameLength":34},"geometry":{"type":"Point","coordinates":[-122.3997363,37.7932268]}},{"type":"Feature","id":"californialarkin","properties":{"id":"californialarkin","name":"California Street & Larkin Street","modes":["cablecar"],"routes":["C"],"nameLength":33},"geometry":{"type":"Point","coordinates":[-122.4190382,37.7907956]}},{"type":"Feature","id":"californiataylor","properties":{"id":"californiataylor","name":"California Street & Taylor Street","modes":["cablecar"],"routes":["C"],"nameLength":33},"geometry":{"type":"Point","coordinates":[-122.4124762,37.7916321]}},{"type":"Feature","id":"californiakearny","properties":{"id":"californiakearny","name":"California Street & Kearny Street","modes":["bus","cablecar"],"routes":["8","8AX","8BX","C"],"nameLength":33},"geometry":{"type":"Point","coordinates":[-122.4042192,37.792683]}},{"type":"Feature","id":"columbuschestnut","properties":{"id":"columbuschestnut","name":"Columbus Avenue & Chestnut Street","modes":["bus","cablecar"],"routes":["30","91","PM"],"nameLength":33},"geometry":{"type":"Point","coordinates":[-122.414787,37.803624]}},{"type":"Feature","id":"washingtontaylor","properties":{"id":"washingtontaylor","name":"Washington Street & Taylor Street","modes":["cablecar"],"routes":["PH"],"nameLength":33},"geometry":{"type":"Point","coordinates":[-122.413037,37.7943174]}},{"type":"Feature","id":"californiamason","properties":{"id":"californiamason","name":"California Street & Mason Street","modes":["cablecar"],"routes":["C"],"nameLength":32},"geometry":{"type":"Point","coordinates":[-122.4110003,37.7918204]}},{"type":"Feature","id":"californiajones","properties":{"id":"californiajones","name":"California Street & Jones Street","modes":["cablecar"],"routes":["C"],"nameLength":32},"geometry":{"type":"Point","coordinates":[-122.4140264,37.7914301]}},{"type":"Feature","id":"californiagrant","properties":{"id":"californiagrant","name":"California Street & Grant Avenue","modes":["cablecar"],"routes":["C"],"nameLength":32},"geometry":{"type":"Point","coordinates":[-122.40593,37.7924642]}},{"type":"Feature","id":"californiafront","properties":{"id":"californiafront","name":"California Street & Front Street","modes":["cablecar"],"routes":["C"],"nameLength":32},"geometry":{"type":"Point","coordinates":[-122.3986691,37.7934019]}},{"type":"Feature","id":"californiadavis","properties":{"id":"californiadavis","name":"California Street & Davis Street","modes":["bus","cablecar"],"routes":["C","DT"],"nameLength":32},"geometry":{"type":"Point","coordinates":[-122.3976144,37.7935207]}},{"type":"Feature","id":"columbuslombard","properties":{"id":"columbuslombard","name":"Columbus Avenue & Lombard Street","modes":["bus","cablecar"],"routes":["30","91","PM"],"nameLength":32},"geometry":{"type":"Point","coordinates":[-122.4137446,37.802767]}},{"type":"Feature","id":"taylorfrancisco","properties":{"id":"taylorfrancisco","name":"Taylor Street & Francisco Street","modes":["cablecar"],"routes":["PM"],"nameLength":32},"geometry":{"type":"Point","coordinates":[-122.415122,37.8047666]}},{"type":"Feature","id":"washingtonmason","properties":{"id":"washingtonmason","name":"Washington Street & Mason Street","modes":["cablecar"],"routes":["PH","PM"],"nameLength":32},"geometry":{"type":"Point","coordinates":[-122.411232,37.7945411]}},{"type":"Feature","id":"washingtonjones","properties":{"id":"washingtonjones","name":"Washington Street & Jones Street","modes":["cablecar"],"routes":["PH"],"nameLength":32},"geometry":{"type":"Point","coordinates":[-122.414717,37.7941166]}},{"type":"Feature","id":"hydenorthpoint","properties":{"id":"hydenorthpoint","name":"Hyde Street & North Point Street","modes":["bus","cablecar"],"routes":["114","132","154","172","28","30","91","PH"],"nameLength":32},"geometry":{"type":"Point","coordinates":[-122.4203543,37.8057075]}},{"type":"Feature","id":"californiapolk","properties":{"id":"californiapolk","name":"California Street & Polk Street","modes":["cablecar"],"routes":["C"],"nameLength":31},"geometry":{"type":"Point","coordinates":[-122.4206984,37.7905839]}},{"type":"Feature","id":"californiahyde","properties":{"id":"californiahyde","name":"California Street & Hyde Street","modes":["bus","cablecar"],"routes":["27","C"],"nameLength":31},"geometry":{"type":"Point","coordinates":[-122.4175151,37.7909871]}},{"type":"Feature","id":"masongreenwich","properties":{"id":"masongreenwich","name":"Mason Street & Greenwich Street","modes":["bus","cablecar"],"routes":["30","91","PM"],"nameLength":31},"geometry":{"type":"Point","coordinates":[-122.4128567,37.8019052]}},{"type":"Feature","id":"hydegreenwich","properties":{"id":"hydegreenwich","name":"Hyde Street & Greenwich Street","modes":["cablecar"],"routes":["PH"],"nameLength":30},"geometry":{"type":"Point","coordinates":[-122.419431,37.8010134]}},{"type":"Feature","id":"jacksontaylor","properties":{"id":"jacksontaylor","name":"Jackson Street & Taylor Street","modes":["cablecar"],"routes":["PH"],"nameLength":30},"geometry":{"type":"Point","coordinates":[-122.413196,37.7952046]}},{"type":"Feature","id":"masonvallejo","properties":{"id":"masonvallejo","name":"Mason Street & Vallejo Street","modes":["cablecar"],"routes":["PM"],"nameLength":29},"geometry":{"type":"Point","coordinates":[-122.4121231,37.7982402]}},{"type":"Feature","id":"masonfilbert","properties":{"id":"masonfilbert","name":"Mason Street & Filbert Street","modes":["cablecar"],"routes":["PM"],"nameLength":29},"geometry":{"type":"Point","coordinates":[-122.4126736,37.8009617]}},{"type":"Feature","id":"jacksonjones","properties":{"id":"jacksonjones","name":"Jackson Street & Jones Street","modes":["cablecar"],"routes":["PH"],"nameLength":29},"geometry":{"type":"Point","coordinates":[-122.414851,37.794994]}},{"type":"Feature","id":"masonjackson","properties":{"id":"masonjackson","name":"Mason Street & Jackson Street","modes":["bus","cablecar"],"routes":["12","PH","PM"],"nameLength":29},"geometry":{"type":"Point","coordinates":[-122.411663,37.7958194]}},{"type":"Feature","id":"hydechestnut","properties":{"id":"hydechestnut","name":"Hyde Street & Chestnut Street","modes":["cablecar"],"routes":["PH"],"nameLength":29},"geometry":{"type":"Point","coordinates":[-122.41981,37.802893]}},{"type":"Feature","id":"hydelombard","properties":{"id":"hydelombard","name":"Hyde Street & Lombard Street","modes":["cablecar"],"routes":["PH"],"nameLength":28},"geometry":{"type":"Point","coordinates":[-122.419611,37.801928]}},{"type":"Feature","id":"hydejackson","properties":{"id":"hydejackson","name":"Hyde Street & Jackson Street","modes":["bus","cablecar"],"routes":["27","PH"],"nameLength":28},"geometry":{"type":"Point","coordinates":[-122.4180133,37.7945074]}},{"type":"Feature","id":"hydepacific","properties":{"id":"hydepacific","name":"Hyde Street & Pacific Avenue","modes":["bus","cablecar"],"routes":["12","PH"],"nameLength":28},"geometry":{"type":"Point","coordinates":[-122.4182885,37.7953599]}},{"type":"Feature","id":"hydevallejo","properties":{"id":"hydevallejo","name":"Hyde Street & Vallejo Street","modes":["cablecar"],"routes":["PH"],"nameLength":28},"geometry":{"type":"Point","coordinates":[-122.4187995,37.7978865]}},{"type":"Feature","id":"hydefilbert","properties":{"id":"hydefilbert","name":"Hyde Street & Filbert Street","modes":["cablecar"],"routes":["PH"],"nameLength":28},"geometry":{"type":"Point","coordinates":[-122.419273,37.8002307]}},{"type":"Feature","id":"masongreen","properties":{"id":"masongreen","name":"Mason Street & Green Street","modes":["cablecar"],"routes":["PM"],"nameLength":27},"geometry":{"type":"Point","coordinates":[-122.4122915,37.7990874]}},{"type":"Feature","id":"masonunion","properties":{"id":"masonunion","name":"Mason Street & Union Street","modes":["bus","cablecar"],"routes":["45","PM"],"nameLength":27},"geometry":{"type":"Point","coordinates":[-122.4124825,37.8000248]}},{"type":"Feature","id":"hydeunion","properties":{"id":"hydeunion","name":"Hyde Street & Union Street","modes":["bus","cablecar"],"routes":["45","PH"],"nameLength":26},"geometry":{"type":"Point","coordinates":[-122.419084,37.7992962]}},{"type":"Feature","id":"hydebeach","properties":{"id":"hydebeach","name":"Hyde Street & Beach Street","modes":["cablecar"],"routes":["PH"],"nameLength":26},"geometry":{"type":"Point","coordinates":[-122.4207589,37.8067219]}},{"type":"Feature","id":"hydebay","properties":{"id":"hydebay","name":"Hyde Street & Bay Street","modes":["cablecar"],"routes":["PH"],"nameLength":24},"geometry":{"type":"Point","coordinates":[-122.4201923,37.8047899]}},{"type":"Feature","id":"masonbroadway","properties":{"id":"masonbroadway","name":"Mason Street & Broadway","modes":["cablecar"],"routes":["PM"],"nameLength":23},"geometry":{"type":"Point","coordinates":[-122.4119286,37.7972831]}},{"type":"Feature","id":"hydebroadway","properties":{"id":"hydebroadway","name":"Hyde Street & Broadway","modes":["cablecar"],"routes":["PH"],"nameLength":22},"geometry":{"type":"Point","coordinates":[-122.418507,37.796447]}},{"type":"Feature","id":"bayshorearleta","properties":{"id":"bayshorearleta","name":"Bayshore Boulevard & Arleta Avenue","modes":["bus","metro"],"routes":["292","397","56","8","8AX","8BX","9","90","91","9R","T","TBUS"],"nameLength":34},"geometry":{"type":"Point","coordinates":[-122.40297,37.7122813]}},{"type":"Feature","id":"lombardfillmore","properties":{"id":"lombardfillmore","name":"Lombard Street & Fillmore Street","modes":["bus"],"routes":["101","114","130","132","150","154","172","22","28","43","91"],"nameLength":32},"geometry":{"type":"Point","coordinates":[-122.436071,37.7998483]}},{"type":"Feature","id":"salesforcetransitcenterbay19","properties":{"id":"salesforcetransitcenterbay19","name":"Salesforce Transit Center Bay 19","modes":["bus"],"routes":["800","E","FS","G","J","L","NX","NX3","P","V","W"],"nameLength":32},"geometry":{"type":"Point","coordinates":[-122.3969031,37.7892116]}},{"type":"Feature","id":"richardsonfrancisco","properties":{"id":"richardsonfrancisco","name":"Richardson Avenue & Francisco Street","modes":["bus"],"routes":["101","114","130","132","150","154","172","28","91"],"nameLength":36},"geometry":{"type":"Point","coordinates":[-122.4471168,37.8003703]}},{"type":"Feature","id":"bayshorevisitacion","properties":{"id":"bayshorevisitacion","name":"Bayshore Boulevard & Visitacion Avenue","modes":["bus"],"routes":["292","397","8","8BX","9","91","9R","BBC","TBUS"],"nameLength":38},"geometry":{"type":"Point","coordinates":[-122.4039906,37.7107894]}},{"type":"Feature","id":"vannesschestnut","properties":{"id":"vannesschestnut","name":"Van Ness Avenue & Chestnut Street","modes":["bus"],"routes":["114","132","154","172","28","30","49","90","91"],"nameLength":33},"geometry":{"type":"Point","coordinates":[-122.4247897,37.8024621]}},{"type":"Feature","id":"mission5th","properties":{"id":"mission5th","name":"Mission Street & 5th Street","modes":["bus"],"routes":["101","130","14","14R","150","292","397","714"],"nameLength":27},"geometry":{"type":"Point","coordinates":[-122.4068124,37.7824796]}},{"type":"Feature","id":"mission8th","properties":{"id":"mission8th","name":"Mission Street & 8th Street","modes":["bus"],"routes":["101","130","14","14R","150","19","27","292","397","714"],"nameLength":27},"geometry":{"type":"Point","coordinates":[-122.4129314,37.7775343]}},{"type":"Feature","id":"northpointpolk","properties":{"id":"northpointpolk","name":"North Point Street & Polk Street","modes":["bus"],"routes":["114","132","154","172","19","28","30","91"],"nameLength":32},"geometry":{"type":"Point","coordinates":[-122.4242901,37.8052205]}},{"type":"Feature","id":"goldengatebridgetollplaza","properties":{"id":"goldengatebridgetollplaza","name":"Golden Gate Bridge Toll Plaza","modes":["bus"],"routes":["101","114","130","132","150","154","172","28"],"nameLength":29},"geometry":{"type":"Point","coordinates":[-122.4752883,37.8069981]}},{"type":"Feature","id":"potrero24th","properties":{"id":"potrero24th","name":"Potrero Avenue & 24th Street","modes":["bus"],"routes":["292","33","397","48","9","90","9R"],"nameLength":28},"geometry":{"type":"Point","coordinates":[-122.4063754,37.7530294]}},{"type":"Feature","id":"mission4th","properties":{"id":"mission4th","name":"Mission Street & 4th Street","modes":["bus"],"routes":["101","130","14","14R","150","292","397"],"nameLength":27},"geometry":{"type":"Point","coordinates":[-122.4035167,37.7850844]}},{"type":"Feature","id":"4thmission","properties":{"id":"4thmission","name":"4th Street & Mission Street","modes":["bus"],"routes":["14","14R","15","30","45","8","8AX","8BX","91"],"nameLength":27},"geometry":{"type":"Point","coordinates":[-122.403937,37.7841012]}},{"type":"Feature","id":"mission1st","properties":{"id":"mission1st","name":"Mission Street & 1st Street","modes":["bus"],"routes":["101","130","14","14R","150","292","397","800"],"nameLength":27},"geometry":{"type":"Point","coordinates":[-122.3975054,37.7899445]}},{"type":"Feature","id":"mission2nd","properties":{"id":"mission2nd","name":"Mission Street & 2nd Street","modes":["bus"],"routes":["101","130","14","14R","150","292","397"],"nameLength":27},"geometry":{"type":"Point","coordinates":[-122.4000244,37.7878345]}},{"type":"Feature","id":"mission3rd","properties":{"id":"mission3rd","name":"Mission Street & 3rd Street","modes":["bus"],"routes":["101","130","14","14R","15","150","292","30","397","45","8","8AX","8BX","91"],"nameLength":27},"geometry":{"type":"Point","coordinates":[-122.4019967,37.7864816]}},{"type":"Feature","id":"stocktongearyunionsquare","properties":{"id":"stocktongearyunionsquare","name":"Stockton Street & Geary Street / Union Square","modes":["bus","metro"],"routes":["30","38","38R","45","8","8AX","8BX","91","T"],"nameLength":45},"geometry":{"type":"Point","coordinates":[-122.4067053,37.7877284]}},{"type":"Feature","id":"northpointstockton","properties":{"id":"northpointstockton","name":"North Point Street & Stockton Street","modes":["bus"],"routes":["114","132","154","172","39","8","8BX"],"nameLength":36},"geometry":{"type":"Point","coordinates":[-122.4105024,37.8069656]}},{"type":"Feature","id":"bayshorecortland","properties":{"id":"bayshorecortland","name":"Bayshore Boulevard & Cortland Avenue","modes":["bus"],"routes":["23","24","292","397","9","90","9R"],"nameLength":36},"geometry":{"type":"Point","coordinates":[-122.4071755,37.7393844]}},{"type":"Feature","id":"stocktonsacramento","properties":{"id":"stocktonsacramento","name":"Stockton Street & Sacramento Street","modes":["bus"],"routes":["1","30","45","8","8AX","8BX","91"],"nameLength":35},"geometry":{"type":"Point","coordinates":[-122.407872,37.7934547]}},{"type":"Feature","id":"stocktonpacific","properties":{"id":"stocktonpacific","name":"Stockton Street & Pacific Avenue","modes":["bus"],"routes":["12","30","45","8","8AX","8BX","91"],"nameLength":32},"geometry":{"type":"Point","coordinates":[-122.408616,37.7971552]}},{"type":"Feature","id":"stocktonsutter","properties":{"id":"stocktonsutter","name":"Stockton Street & Sutter Street","modes":["bus"],"routes":["2","30","45","8","8AX","8BX","91"],"nameLength":31},"geometry":{"type":"Point","coordinates":[-122.40716,37.7899542]}},{"type":"Feature","id":"haightclayton","properties":{"id":"haightclayton","name":"Haight Street & Clayton Street","modes":["bus"],"routes":["33","37","43","7","N-Owl","NBUS"],"nameLength":30},"geometry":{"type":"Point","coordinates":[-122.4486105,37.7698072]}},{"type":"Feature","id":"sanfrancisco5thtownsend","properties":{"id":"sanfrancisco5thtownsend","name":"San Francisco (5th/Townsend)","modes":["bus"],"routes":["2000","2008","2062","2064","N2002","N2003"],"nameLength":28},"geometry":{"type":"Point","coordinates":[-122.3974209,37.7751131]}},{"type":"Feature","id":"mission7th","properties":{"id":"mission7th","name":"Mission Street & 7th Street","modes":["bus"],"routes":["101","130","14","150","19","27","292","397"],"nameLength":27},"geometry":{"type":"Point","coordinates":[-122.4105346,37.779426]}},{"type":"Feature","id":"market1st","properties":{"id":"market1st","name":"Market Street & 1st Street","modes":["bus","metro"],"routes":["38","38R","5","5R","7","800","9","9R","F","L-Owl","N-Owl"],"nameLength":26},"geometry":{"type":"Point","coordinates":[-122.3998155,37.7903897]}},{"type":"Feature","id":"3rdfolsom","properties":{"id":"3rdfolsom","name":"3rd Street & Folsom Street","modes":["bus"],"routes":["12","30","45","8","8AX","8BX","91"],"nameLength":26},"geometry":{"type":"Point","coordinates":[-122.399158,37.7840948]}},{"type":"Feature","id":"3rdbryant","properties":{"id":"3rdbryant","name":"3rd Street & Bryant Street","modes":["bus"],"routes":["30","45","8","8AX","8BX","91"],"nameLength":26},"geometry":{"type":"Point","coordinates":[-122.3961967,37.7816685]}},{"type":"Feature","id":"winstondrivelakemerced","properties":{"id":"winstondrivelakemerced","name":"Winston Drive & Lake Merced Boulevard","modes":["bus"],"routes":["122","18","29","57","58"],"nameLength":37},"geometry":{"type":"Point","coordinates":[-122.4833337,37.7269557]}},{"type":"Feature","id":"bayshoreoakdale","properties":{"id":"bayshoreoakdale","name":"Bayshore Boulevard & Oakdale Avenue","modes":["bus"],"routes":["23","292","397","9","90","9R"],"nameLength":35},"geometry":{"type":"Point","coordinates":[-122.4055507,37.7429452]}},{"type":"Feature","id":"vannesssacramento","properties":{"id":"vannesssacramento","name":"Van Ness Avenue & Sacramento Street","modes":["bus"],"routes":["1","101","130","150","49","90"],"nameLength":35},"geometry":{"type":"Point","coordinates":[-122.422637,37.7917748]}},{"type":"Feature","id":"sanbrunosomerset","properties":{"id":"sanbrunosomerset","name":"San Bruno Avenue & Somerset Street","modes":["bus"],"routes":["56","8","8AX","9","90"],"nameLength":34},"geometry":{"type":"Point","coordinates":[-122.402008,37.7136007]}},{"type":"Feature","id":"sanbrunoharkness","properties":{"id":"sanbrunoharkness","name":"San Bruno Avenue & Harkness Avenue","modes":["bus"],"routes":["8","8AX","9","90","9R"],"nameLength":34},"geometry":{"type":"Point","coordinates":[-122.4001247,37.7182405]}},{"type":"Feature","id":"vannessofarrell","properties":{"id":"vannessofarrell","name":"Van Ness Avenue & O'Farrell Street","modes":["bus"],"routes":["101","130","150","38","38R","49","90"],"nameLength":34},"geometry":{"type":"Point","coordinates":[-122.4212821,37.785224]}},{"type":"Feature","id":"northpointjones","properties":{"id":"northpointjones","name":"North Point Street & Jones Street","modes":["bus"],"routes":["114","132","154","172","28","30","91"],"nameLength":33},"geometry":{"type":"Point","coordinates":[-122.4173415,37.8061215]}},{"type":"Feature","id":"stocktoncolumbus","properties":{"id":"stocktoncolumbus","name":"Stockton Street & Columbus Avenue","modes":["bus"],"routes":["30","45","8","8BX","91"],"nameLength":33},"geometry":{"type":"Point","coordinates":[-122.4090298,37.7992057]}},{"type":"Feature","id":"sanbrunodwight","properties":{"id":"sanbrunodwight","name":"San Bruno Avenue & Dwight Street","modes":["bus"],"routes":["29","8","8AX","9","90","9R"],"nameLength":32},"geometry":{"type":"Point","coordinates":[-122.4022195,37.7242629]}},{"type":"Feature","id":"potreromariposa","properties":{"id":"potreromariposa","name":"Potrero Avenue & Mariposa Street","modes":["bus"],"routes":["292","33","397","9","90"],"nameLength":32},"geometry":{"type":"Point","coordinates":[-122.40733,37.7632038]}},{"type":"Feature","id":"santosbrookdale","properties":{"id":"santosbrookdale","name":"Santos Street & Brookdale Avenue","modes":["bus"],"routes":["8","8BX","9","91","9R"],"nameLength":32},"geometry":{"type":"Point","coordinates":[-122.4187925,37.71177]}},{"type":"Feature","id":"sanbrunosilver","properties":{"id":"sanbrunosilver","name":"San Bruno Avenue & Silver Avenue","modes":["bus"],"routes":["44","8","8AX","9","90","9R"],"nameLength":32},"geometry":{"type":"Point","coordinates":[-122.40534,37.7320325]}},{"type":"Feature","id":"vannessvallejo","properties":{"id":"vannessvallejo","name":"Van Ness Avenue & Vallejo Street","modes":["bus"],"routes":["101","130","150","49","90"],"nameLength":32},"geometry":{"type":"Point","coordinates":[-122.423699,37.7968278]}},{"type":"Feature","id":"vannessjackson","properties":{"id":"vannessjackson","name":"Van Ness Avenue & Jackson Street","modes":["bus"],"routes":["101","12","130","150","27","49","90"],"nameLength":32},"geometry":{"type":"Point","coordinates":[-122.42315,37.7940947]}},{"type":"Feature","id":"sanbrunowilde","properties":{"id":"sanbrunowilde","name":"San Bruno Avenue & Wilde Avenue","modes":["bus"],"routes":["56","8","8AX","9","90","9R"],"nameLength":31},"geometry":{"type":"Point","coordinates":[-122.399969,37.7167513]}},{"type":"Feature","id":"sanbrunobacon","properties":{"id":"sanbrunobacon","name":"San Bruno Avenue & Bacon Street","modes":["bus"],"routes":["54","8","8AX","9","90","9R"],"nameLength":31},"geometry":{"type":"Point","coordinates":[-122.4036085,37.7276392]}},{"type":"Feature","id":"woodsideportoladrive","properties":{"id":"woodsideportoladrive","name":"Woodside Avenue & Portola Drive","modes":["bus"],"routes":["36","44","48","52","KBUS","L-Owl"],"nameLength":31},"geometry":{"type":"Point","coordinates":[-122.4523459,37.7457602]}},{"type":"Feature","id":"vannesssutter","properties":{"id":"vannesssutter","name":"Van Ness Avenue & Sutter Street","modes":["bus"],"routes":["101","130","150","2","49","90"],"nameLength":31},"geometry":{"type":"Point","coordinates":[-122.421854,37.7880151]}},{"type":"Feature","id":"genevamission","properties":{"id":"genevamission","name":"Geneva Avenue & Mission Street","modes":["bus"],"routes":["14","14R","43","54","8","8BX","91"],"nameLength":30},"geometry":{"type":"Point","coordinates":[-122.44083,37.7163039]}},{"type":"Feature","id":"santosvelasco","properties":{"id":"santosvelasco","name":"Santos Street & Velasco Avenue","modes":["bus"],"routes":["8","8BX","9","91","9R"],"nameLength":30},"geometry":{"type":"Point","coordinates":[-122.419382,37.7099512]}},{"type":"Feature","id":"vannessunion","properties":{"id":"vannessunion","name":"Van Ness Avenue & Union Street","modes":["bus"],"routes":["101","130","150","45","49","90","DT"],"nameLength":30},"geometry":{"type":"Point","coordinates":[-122.424079,37.7987082]}},{"type":"Feature","id":"11thharrison","properties":{"id":"11thharrison","name":"11th Street & Harrison Street","modes":["bus"],"routes":["12","27","9","90","9R"],"nameLength":29},"geometry":{"type":"Point","coordinates":[-122.412861,37.7710441]}},{"type":"Feature","id":"bealemission","properties":{"id":"bealemission","name":"Beale Street & Mission Street","modes":["bus"],"routes":["38","38R","5","5R","7"],"nameLength":29},"geometry":{"type":"Point","coordinates":[-122.39679,37.7917816]}},{"type":"Feature","id":"genevacayuga","properties":{"id":"genevacayuga","name":"Geneva Avenue & Cayuga Avenue","modes":["bus"],"routes":["43","54","8","8BX","91"],"nameLength":29},"geometry":{"type":"Point","coordinates":[-122.4434715,37.7187341]}},{"type":"Feature","id":"genevamadrid","properties":{"id":"genevamadrid","name":"Geneva Avenue & Madrid Street","modes":["bus"],"routes":["43","54","8","8BX","91"],"nameLength":29},"geometry":{"type":"Point","coordinates":[-122.437741,37.7149166]}},{"type":"Feature","id":"vannesseddy","properties":{"id":"vannesseddy","name":"Van Ness Avenue & Eddy Street","modes":["bus"],"routes":["101","130","150","31","49","90"],"nameLength":29},"geometry":{"type":"Point","coordinates":[-122.4208265,37.7828994]}},{"type":"Feature","id":"vannessbay","properties":{"id":"vannessbay","name":"Van Ness Avenue & Bay Street","modes":["bus"],"routes":["114","132","154","172","28","30","49","90","91"],"nameLength":28},"geometry":{"type":"Point","coordinates":[-122.425093,37.8046501]}},{"type":"Feature","id":"potrero16th","properties":{"id":"potrero16th","name":"Potrero Avenue & 16th Street","modes":["bus"],"routes":["22","292","33","397","55","9","90","9R"],"nameLength":28},"geometry":{"type":"Point","coordinates":[-122.4076896,37.7654785]}},{"type":"Feature","id":"potrero21st","properties":{"id":"potrero21st","name":"Potrero Avenue & 21st Street","modes":["bus"],"routes":["292","33","397","9","90"],"nameLength":28},"geometry":{"type":"Point","coordinates":[-122.4068029,37.7577428]}},{"type":"Feature","id":"genevaparis","properties":{"id":"genevaparis","name":"Geneva Avenue & Paris Street","modes":["bus"],"routes":["43","54","8","8BX","91"],"nameLength":28},"geometry":{"type":"Point","coordinates":[-122.4394416,37.715688]}},{"type":"Feature","id":"3801sanbruno","properties":{"id":"3801sanbruno","name":"3801 San Bruno Avenue","modes":["bus"],"routes":["56","8","8AX","9","90","91","TBUS"],"nameLength":21},"geometry":{"type":"Point","coordinates":[-122.399959,37.7148206]}}]}